[{"id":4988,"name_michelin":"Le Jardin des Remparts","name_lafourchette":"Le Jardin des Remparts","street":"10 rue Hôtel-Dieu","postalCode":"21200","town":"Beaune","style":"Cuisine Moderne, Créative; Végétarien; Végétalien","etoile":3},{"id":42741,"name_michelin":"Aigue Marine","name_lafourchette":"Aigue Marine","street":"5 r. M. -Berthelot","postalCode":"22220","town":"Tréguier","style":"Cuisine Moderne, Créative; Végétarien; Végétalien; Traditionnel, Classique","etoile":3},
  {"id":21741,"name_michelin":"Restaurant du Palais Royal","name_lafourchette":"Restaurant du Palais Royal","street":"110 Galerie de Valois - Jardin du Palais Royal","postalCode":"75001","town":"Paris 01","style":"Cuisine Moderne, Créative; Gastronomique; Traditionnel, Classique","etoile":3},{"id":9283,"name_michelin":"Les Tablettes de Jean-Louis Nomicos","name_lafourchette":"Les Tablettes - Jean-Louis Nomicos","street":"16 Avenue Bugeaud","postalCode":"75016","town":"Paris","style":"Cuisine Moderne, Créative; Gastronomique; Traditionnel, Classique","etoile":3},{"id":566,"name_michelin":"L'Almandin","name_lafourchette":"L'Almandin","street":"Boulevard de l'Almandin","postalCode":"66750","town":"Saint-Cyprien","style":"Cuisine Moderne, Créative; Gastronomique","etoile":3},{"id":3303,"name_michelin":"Le Relais Bernard Loiseau","name_lafourchette":"Le Relais Bernard Loiseau","street":"2, rue d'Argentine","postalCode":"21210","town":"Saulieu","style":"Traditionnel, Classique; Cuisine Moderne, Créative; Gastronomique; Cuisine Régionale Française; Végétarien; Végétalien","etoile":3},{"id":3806,"name_michelin":"Assiette Champenoise","name_lafourchette":"L'Assiette Champenoise","street":"40 av. Paul Vaillant-Couturier","postalCode":"51430","town":"Tinqueux","style":"Cuisine Moderne, Créative; Gastronomique; Végétarien; Végétalien","etoile":3},{"id":310829,"name_michelin":"Dominique Bouchet","name_lafourchette":"Dominique Bouchet","street":"11 Rue Treilhard","postalCode":"75008","town":"Paris","style":"Traditionnel, Classique; Cuisine Moderne, Créative; Gastronomique","etoile":3},{"id":5109,"name_michelin":"Le Magasin aux Vivres","name_lafourchette":"Le Magasin aux Vivres","street":"5 Avenue Ney","postalCode":"57000","town":"Metz","style":"Cuisine Moderne, Créative; Gastronomique","etoile":3},{"id":205419,"name_michelin":"La Dame de Pic","name_lafourchette":"La Dame de Pic - Anne-Sophie PIC - Paris","street":"20 Rue du Louvre","postalCode":"75001","town":"Paris 01","style":"Cuisine Moderne, Créative; Gastronomique; Végétarien; Végétalien","etoile":3},{"id":3018,"name_michelin":"Domaine d'Auriac","name_lafourchette":"Domaine d'Auriac","street":"Route de Saint-Hilaire","postalCode":"11000","town":"Carcassonne","style":"Traditionnel, Classique; Cuisine Moderne, Créative; Gastronomique; Végétarien; Végétalien","etoile":3},{"id":16314,"name_michelin":"Les Fresques","name_lafourchette":"Les Fresques - Château des Vigiers","street":"D18","postalCode":"24240","town":"Monestier","style":"Cuisine Moderne, Créative; Gastronomique; Traditionnel, Classique","etoile":3},{"id":9572,"name_michelin":"Le Brittany","name_lafourchette":"Le Brittany","street":"bd Ste-Barbe","postalCode":"29681","town":"Roscoff","style":"Cuisine Moderne, Créative; Végétarien; Poissons, Fruits de Mer","etoile":3},{"id":78533,"name_michelin":"Le Quincangrogne","name_lafourchette":"Le Quincangrogne","street":"7 Rue de l'Abreuvoir","postalCode":"77400","town":"Dampmart","style":"Cuisine Moderne, Créative; Gastronomique; Végétarien; Végétalien","etoile":3},{"id":8825,"name_michelin":"Les Bas-Rupts","name_lafourchette":"Les Barjots","street":"181 rte de la Bresse","postalCode":"88400","town":"Bas-Rupts","style":"Traditionnel, Classique; Cuisine Régionale Française; Végétarien","etoile":3},{"id":74933,"name_michelin":"Le Clarence","name_lafourchette":"Le Clarence","street":"31 Avenue Franklin Delano Roosevelt","postalCode":"75008","town":"Paris 08","style":"Cuisine Moderne, Créative; Gastronomique; Végétarien; Végétalien","etoile":3},{"id":15264,"name_michelin":"Yoann Conte","name_lafourchette":"Hôtel Restaurant Yoann CONTE, bord du lac","street":"13 Vieille-Route-des-Pensières","postalCode":"74290","town":"Veyrier-du-Lac","style":"Cuisine Moderne, Créative; Gastronomique; Traditionnel, Classique; Végétarien","etoile":3},{"id":17924,"name_michelin":"L'Atelier d'Edmond","name_lafourchette":"L'Atelier d'Alain","street":"au Fornet","postalCode":"73150","town":"Val-d'Isère","style":"Cuisine Moderne, Créative; Gastronomique; Végétarien; Végétalien","etoile":3},{"id":324443,"name_michelin":"Maison Clovis","name_lafourchette":"Maison Clovis","street":"19 bd Brotteaux","postalCode":"69006","town":"Lyon","style":"Cuisine Moderne, Créative; Gastronomique","etoile":3},{"id":3931,"name_michelin":"William Frachot","name_lafourchette":"Restaurant William Frachot","street":"5 rue Michelet","postalCode":"21000","town":"DIJON","style":"Cuisine Moderne, Créative; Gastronomique; Végétarien; Végétalien","etoile":3},{"id":3304,"name_michelin":"Loiseau des Vignes","name_lafourchette":"Loiseau des Vignes","street":"31 Rue Jean Francois Maufoux","postalCode":"21200","town":"Beaune","style":"Cuisine Moderne, Créative; Traditionnel, Classique; Cuisine Régionale Française; Gastronomique; Végétarien; Végétalien","etoile":3},{"id":12900,"name_michelin":"Pierre Orsi","name_lafourchette":"Pierre Orsi","street":"Place Kléber","postalCode":"69006","town":"Lyon 06","style":"Traditionnel, Classique; Cuisine Moderne, Créative; Gastronomique; Végétarien; Végétalien","etoile":3},{"id":206163,"name_michelin":"Julien Binz","name_lafourchette":"Julien Binz","street":"7 Rue des Cigognes","postalCode":"68770","town":"Ammerschwihr","style":"Cuisine Moderne, Créative; Gastronomique; Traditionnel, Classique; Végétarien","etoile":3},{"id":324473,"name_michelin":"Faventia","name_lafourchette":"Le Faventia","street":"3100 route de Bagnols-en-Forêt","postalCode":"83440","town":"Tourrettes","style":"Cuisine Moderne, Créative; Gastronomique; Végétarien","etoile":3},{"id":357473,"name_michelin":"Le Prince Noir - Vivien Durand","name_lafourchette":"Le Prince de Gand","street":"1 rue du Prince Noir","postalCode":"33310","town":"Lormont","style":"Cuisine Moderne, Créative; Gastronomique","etoile":3},{"id":204637,"name_michelin":"Maximin Hellio","name_lafourchette":"Maxime Colin","street":"64 Rue Gambetta","postalCode":"14800","town":"DEAUVILLE","style":"Cuisine Moderne, Créative; Gastronomique; Végétarien","etoile":3},{"id":26469,"name_michelin":"Cyril Attrazic","name_lafourchette":"Restaurant Cyril Attrazic - Chez Camillou","street":"10 rte du Languedoc","postalCode":"48130","town":"Aumont-Aubrac","style":"Cuisine Moderne, Créative; Gastronomique; Végétarien; Végétalien","etoile":3},{"id":2819,"name_michelin":"Les Hautes Roches","name_lafourchette":"Les Hautes Roches","street":"86 quai de Loire","postalCode":"37210","town":"Rochecorbon","style":"Cuisine Moderne, Créative; Gastronomique; Végétarien; Végétalien","etoile":3},{"id":5935,"name_michelin":"Le Grand Cerf","name_lafourchette":"Le Grand Cerf","street":"50 rte Nationale","postalCode":"51500","town":"Montchenot","style":"Traditionnel, Classique; Végétarien; Végétalien","etoile":3},{"id":78944,"name_michelin":"Le Jardin de Benjamin","name_lafourchette":"Le Jardin Pekinois","street":"Route de Salernes","postalCode":"83510","town":"Lorgues","style":"Cuisine Moderne, Créative; Gastronomique","etoile":3},{"id":2788,"name_michelin":"La Villa Madie","name_lafourchette":"La Villa Madie - Dimitri Droisneau","street":"av. du Revestel","postalCode":"13260","town":"Cassis","style":"Cuisine Moderne, Créative; Gastronomique; Poissons, Fruits de Mer; Méditerranéen","etoile":3},{"id":2971,"name_michelin":"Maison Kieny","name_lafourchette":"Maison Kieny","street":"7 Rue du Général de Gaulle","postalCode":"68400","town":"Riedisheim","style":"Cuisine Moderne, Créative","etoile":3},{"id":548,"name_michelin":"Auberge de l'Ill","name_lafourchette":"Auberge de l'Ile","street":"2 rue de Collonges-au-Mont d'Or","postalCode":"68970","town":"Illhaeusern","style":"Traditionnel, Classique; Gastronomique","etoile":3},{"id":311969,"name_michelin":"L'Auberge des Glazicks","name_lafourchette":"L'Auberge des Canuts","street":"7 rue de la Plage","postalCode":"29550","town":"PLOMODIERN","style":"Cuisine Moderne, Créative; Végétarien; Végétalien","etoile":3},{"id":2591,"name_michelin":"La Table des Merville","name_lafourchette":"La Table des Merville - Thierry Merville","street":"3 place Richard","postalCode":"31320","town":"Castanet-Tolosan","style":"Cuisine Moderne, Créative; Gastronomique; Végétarien; Végétalien; Traditionnel, Classique","etoile":3},{"id":212971,"name_michelin":"L'Odas","name_lafourchette":"L'Odas","street":"Passage Maurice Lenfant","postalCode":"76000","town":"Rouen","style":"Cuisine Moderne, Créative; Gastronomique; Végétarien; Végétalien","etoile":3},{"id":4891,"name_michelin":"Domaine des Hauts de Loire","name_lafourchette":"Domaine du Val de Sorne","street":"79 rue Gilbert Navard","postalCode":"41150","town":"Onzain","style":"Traditionnel, Classique; Cuisine Moderne, Créative; Végétarien; Végétalien","etoile":3},{"id":204609,"name_michelin":"Le Castellaras","name_lafourchette":"Le Castellaras","street":"461 chemin Peymeyan","postalCode":"83440","town":"Fayence","style":"Provençal; Végétarien; Végétalien","etoile":3},{"id":44057,"name_michelin":"L'Amaryllis","name_lafourchette":"L'Amaryllis","street":"chemin de Martorey","postalCode":"71100","town":"Saint-Rémy","style":"Cuisine Moderne, Créative; Végétarien","etoile":3},{"id":29826,"name_michelin":"Loiseau des Ducs","name_lafourchette":"Loiseau des Ducs","street":"3 Rue Vauban","postalCode":"21000","town":"Dijon","style":"Cuisine Moderne, Créative; Gastronomique; Traditionnel, Classique; Végétarien; Végétalien","etoile":3},{"id":38155,"name_michelin":"Flaveur","name_lafourchette":"Flaveur","street":"25 Rue Gubernatis","postalCode":"06000","town":"Nice","style":"Cuisine Moderne, Créative; Gastronomique; Méditerranéen; Végétarien; Végétalien","etoile":3},{"id":2698,"name_michelin":"Jean-Luc Tartarin","name_lafourchette":"Jean Luc Tartarin","street":"Square Saint-Roch","postalCode":"76600","town":"Le Havre","style":"Cuisine Moderne, Créative; Végétarien; Végétalien","etoile":3},{"id":5609,"name_michelin":"Chapelle Saint-Martin","name_lafourchette":"La Chapelle Saint Martin","street":"33, Saint Martin du Fault","postalCode":"87510","town":"Nieul","style":"Cuisine Moderne, Créative; Gastronomique; Traditionnel, Classique; Végétarien; Végétalien","etoile":3},{"id":78423,"name_michelin":"L'Atelier de Gaztelur","name_lafourchette":"L’Atelier de Gaztelur","street":"Chemin de Gastelhur","postalCode":"64200","town":"Arcangues","style":"Cuisine Moderne, Créative; Gastronomique","etoile":3},{"id":209193,"name_michelin":"Ed.Em","name_lafourchette":"Ed.Em","street":"4 imp. Chenevottes","postalCode":"21190","town":"Chassagne-Montrachet","style":"Cuisine Moderne, Créative; Gastronomique","etoile":3},{"id":38024,"name_michelin":"La Nouvelle Auberge","name_lafourchette":"La Nouvelle Auberge","street":"9 route Nationale","postalCode":"68230","town":"Wihr-au-Val","style":"Traditionnel, Classique; Gastronomique; Brasserie; Végétarien; Végétalien","etoile":3},{"id":4904,"name_michelin":"Hostellerie de Plaisance","name_lafourchette":"Hostellerie de Plaisance","street":"5 place du Clocher","postalCode":"33330","town":"Saint-Emilion","style":"Cuisine Moderne, Créative; Gastronomique","etoile":3},{"id":39964,"name_michelin":"L'Escarbille","name_lafourchette":"L'Escarcelle","street":"8 Rue de Vélizy","postalCode":"92190","town":"Meudon","style":"Cuisine Moderne, Créative; Gastronomique","etoile":3},{"id":28941,"name_michelin":"Le Belrose","name_lafourchette":"Le Bellerose","street":"Boulevard des Crêtes","postalCode":"83580","town":"Gassin","style":"Cuisine Moderne, Créative; Gastronomique","etoile":3},{"id":3552,"name_michelin":"Maison Lameloise","name_lafourchette":"Maison Lameloise","street":"36 pl. d'Armes","postalCode":"71150","town":"Chagny","style":"Cuisine Moderne, Créative; Gastronomique","etoile":3},{"id":4961,"name_michelin":"Ar Men Du","name_lafourchette":"Ar Men Du","street":"47 rue des îles","postalCode":"29920","town":"Névez","style":"Cuisine Moderne, Créative; Gastronomique; Poissons, Fruits de Mer; Végétarien; Végétalien","etoile":3},{"id":275457,"name_michelin":"Armani Ristorante","name_lafourchette":"Emporio Armani Ristorante","street":"149 Boulevard Saint-Germain","postalCode":"75006","town":"Paris","style":"Italien; Gastronomique; Cuisine Moderne, Créative","etoile":3},{"id":68308,"name_michelin":"Thierry Drapeau","name_lafourchette":"Restaurant Thierry Drapeau","street":"La Chabotterie","postalCode":"85260","town":"Saint-Sulpice-le-Verdon","style":"Cuisine Moderne, Créative; Gastronomique; Végétarien","etoile":3},{"id":2755,"name_michelin":"Auberge de Clochemerle","name_lafourchette":"Auberge de Clochemerle - Romain Barthe","street":"Rue Gabriel-Chevallier","postalCode":"69460","town":"VAUX-EN-BEAUJOLAIS","style":"Cuisine Moderne, Créative; Gastronomique","etoile":3},
{"id":11316,"name_michelin":"L'Atelier de Jean-Luc Rabanel","name_lafourchette":"L'Atelier de Jacques","street":"7 r. des Carmes","postalCode":"13200","town":"Arles","style":"Cuisine Moderne, Créative","etoile":3},
{"id":60859,"name_michelin":"Nakatani","name_lafourchette":"Nakatani","street":"27 Rue Pierre Leroux","postalCode":"75007","town":"PARIS","style":"Cuisine Moderne, Créative; Gastronomique; Traditionnel, Classique","etoile":3},{"id":44361,"name_michelin":"Auberge au Boeuf","name_lafourchette":"Auberge au Boeuf","street":"Rue de l'Eglise","postalCode":"67770","town":"Sessenheim","style":"Cuisine Moderne, Créative","etoile":3},
{"id":1310,"name_michelin":"Xavier Mathieu","name_lafourchette":"Le Phebus - Xavier Mathieu","street":"Route de Murs","postalCode":"84220","town":"Joucas","style":"Cuisine Moderne, Créative; Végétarien; Végétalien; Provençal","etoile":3},{"id":58878,"name_michelin":"La Grande Maison de Bernard Magrez","name_lafourchette":"Restaurant Gastronomique Pierre Gagnaire ** à la Grande Maison Bernard Magrez","street":"10 Rue Labottière","postalCode":"33000","town":"Bordeaux","style":"Cuisine Moderne, Créative; Gastronomique; Végétarien","etoile":3},{"id":35418,"name_michelin":"La Table de la Bergerie","name_lafourchette":"La Table de Minà - Relais & Châteaux Les Bergeries de Palombaggia","street":"La Bergerie","postalCode":"49380","town":"Champ-sur-Layon","style":"Cuisine Moderne, Créative; Gastronomique","etoile":3},{"id":8933,"name_michelin":"Les Clefs d'Argent","name_lafourchette":"Les Clefs d'Argent","street":"333 Avenue des Martyrs de la Résistance","postalCode":"40000","town":"Mont-de-Marsan","style":"Cuisine Moderne, Créative; Gastronomique; Végétarien; Végétalien","etoile":3},{"id":310829,"name_michelin":"Dominique Bucaille","name_lafourchette":"Dominique Bouchet","street":"715 av. des Savels","postalCode":"04100","town":"Manosque","style":"Cuisine Moderne, Créative; Gastronomique","etoile":3},{"id":18271,"name_michelin":"Le Clair de la Plume","name_lafourchette":"Le Clair de la Plume","street":"2 Place du Mail","postalCode":"26230","town":"Grignan","style":"Cuisine Moderne, Créative; Gastronomique; Provençal; Végétarien","etoile":3},{"id":27598,"name_michelin":"Les Bories","name_lafourchette":"Hôtel Restaurant Les Bories","street":"rte de l'Abbaye de Sénanque","postalCode":"84220","town":"Gordes","style":"Cuisine Moderne, Créative; Gastronomique","etoile":3},{"id":207515,"name_michelin":"Le Kintessence","name_lafourchette":"La Quintessence","street":"Rue des Clarines","postalCode":"73120","town":"Courchevel 1850","style":"Cuisine Moderne, Créative; Cuisine Moderne, Créative; Gastronomique; Végétarien; Végétalien","etoile":3},{"id":16417,"name_michelin":"Relais Louis XIII","name_lafourchette":"Restaurant Louis XIII","street":"8 Rue des Grands Augustins","postalCode":"75006","town":"Paris","style":"Traditionnel, Classique; Gastronomique","etoile":3},{"id":32118,"name_michelin":"Le Musigny","name_lafourchette":"Le Musigny","street":"90 Avenue de Liege","postalCode":"59300","town":"Valenciennes","style":"Cuisine Moderne, Créative; Gastronomique","etoile":3},{"id":3401,"name_michelin":"Le Bec au Cauchois","name_lafourchette":"Le Bec Au Cauchois Restaurant Pierre Caillet","street":"22 Rue André Fiquet","postalCode":"76540","town":"Valmont","style":"Cuisine Moderne, Créative; Gastronomique","etoile":3},{"id":6437,"name_michelin":"L'Atelier du Peintre","name_lafourchette":"Atelier du Peintre","street":"1 Rue Schongauer","postalCode":"68000","town":"Colmar","style":"Cuisine Moderne, Créative; Gastronomique; Végétarien; Végétalien","etoile":3},{"id":291345,"name_michelin":"114, Faubourg","name_lafourchette":"Le 114 Faubourg - Le Bristol Paris","street":"114 r. Fg St-Honoré","postalCode":"75008","town":"Paris 08","style":"Cuisine Moderne, Créative; Végétarien; Végétalien","etoile":3},{"id":18939,"name_michelin":"Le Bistro des Saveurs","name_lafourchette":"Le Bistro des Saveurs","street":"35 Rue de Sélestat","postalCode":"67210","town":"Obernai","style":"Cuisine Moderne, Créative; Gastronomique; Bistronomique; Végétarien; Végétalien","etoile":3},{"id":4294,"name_michelin":"La Maison dans le Parc","name_lafourchette":"La Maison dans le Parc","street":"3 r. Ste-Catherine","postalCode":"54000","town":"Nancy","style":"Cuisine Moderne, Créative; Gastronomique","etoile":3},{"id":6018,"name_michelin":"Le Vieux Logis","name_lafourchette":"Le Vieux Logis","street":"Le Bourg","postalCode":"24510","town":"Trémolat","style":"Traditionnel, Classique","etoile":3},{"id":77571,"name_michelin":"La Table de Manville","name_lafourchette":"Le Domaine de Manville - La Table","street":"Domaine de Manville - D27","postalCode":"13520","town":"LES-BAUX-DE-PROVENCE","style":"Cuisine Moderne, Créative; Gastronomique; Traditionnel, Classique","etoile":3},{"id":304421,"name_michelin":"Alan Geaam","name_lafourchette":"Alan Geaam Restaurant","street":"19 Rue Lauriston","postalCode":"75016","town":"Paris","style":"Cuisine Moderne, Créative; Gastronomique","etoile":3},{"id":200914,"name_michelin":"Auberge du Cellier","name_lafourchette":"Auberge le Vieux Cellier","street":"1 Rue de Sainte-Eugénie","postalCode":"66720","town":"Montner","style":"Cuisine Moderne, Créative; Végétarien; Végétalien","etoile":3},{"id":322515,"name_michelin":"I Salti","name_lafourchette":"I Salotti","street":"route du Reginu","postalCode":"20226","town":"Belgodère","style":"Cuisine Moderne, Créative","etoile":3},{"id":293007,"name_michelin":"L'Axel","name_lafourchette":"Le Jardin d'Axel","street":"43 r. de France","postalCode":"77300","town":"Fontainebleau","style":"Cuisine Moderne, Créative; Gastronomique","etoile":3},{"id":325703,"name_michelin":"Maison Jeunet","name_lafourchette":"Maison Bouquet","street":"9 r. de l'Hôtel-de-Ville","postalCode":"39600","town":"Arbois","style":"Cuisine Moderne, Créative; Gastronomique","etoile":3},{"id":2998,"name_michelin":"Christopher Coutanceau","name_lafourchette":"Christopher Coutanceau","street":"Promenade de la Concurrence","postalCode":"17000","town":"La Rochelle","style":"Poissons, Fruits de Mer; Cuisine Moderne, Créative; Gastronomique","etoile":3},{"id":14529,"name_michelin":"La Chassagnette","name_lafourchette":"La Chassagnette","street":"route du Sambuc","postalCode":"13200","town":"Arles","style":"Cuisine Moderne, Créative","etoile":3},{"id":58408,"name_michelin":"La Table du 11","name_lafourchette":"La Table du 11","street":"8 rue de la chancellerie","postalCode":"78000","town":"Versailles","style":"Cuisine Moderne, Créative; Gastronomique","etoile":3},{"id":75043,"name_michelin":"Prairial","name_lafourchette":"Prairial","street":"11 Rue Chavanne","postalCode":"69001","town":"Lyon","style":"Cuisine Moderne, Créative; Gastronomique; Végétarien","etoile":3},{"id":75811,"name_michelin":"Auberge de la Brie","name_lafourchette":"Auberge de Condé-en-Brie","street":"14 av. Alphonse Boulingre","postalCode":"77860","town":"Couilly-Pont-aux-Dames","style":"Cuisine Moderne, Créative; Gastronomique","etoile":3},{"id":3592,"name_michelin":"Buerehiesel","name_lafourchette":"Buerehiesel - Eric Westermann","street":"dans le parc de l'Orangerie","postalCode":"67000","town":"Strasbourg","style":"Cuisine Moderne, Créative; Gastronomique; Traditionnel, Classique","etoile":3},{"id":30315,"name_michelin":"Les Climats","name_lafourchette":"Les Climats","street":"41 rue de Lille","postalCode":"75007","town":"Paris 07","style":"Cuisine Moderne, Créative","etoile":3},{"id":349553,"name_michelin":"L'Aquarelle","name_lafourchette":"L'Aquarelle","street":"71 A rte du Montil","postalCode":"17920","town":"Breuillet","style":"Cuisine Moderne, Créative","etoile":3},{"id":289175,"name_michelin":"La Petite Maison de Cucuron","name_lafourchette":"La Petite Maison de Pierre","street":"pl. de l'Étang","postalCode":"84160","town":"Cucuron","style":"Cuisine Moderne, Créative","etoile":3},{"id":3507,"name_michelin":"Hostellerie de Levernois","name_lafourchette":"Hostellerie de Levernois : Le Gastronomique","street":"15 r. du Golf","postalCode":"21200","town":"Levernois","style":"Cuisine Moderne, Créative; Gastronomique","etoile":3},{"id":272755,"name_michelin":"Cayola","name_lafourchette":"Gayola Steakhouse & Bar","street":"76 promenade de Cayola","postalCode":"85180","town":"Talmont-Saint-Hilaire","style":"Cuisine Moderne, Créative","etoile":3},{"id":10889,"name_michelin":"Septime","name_lafourchette":"Septime","street":"80 r. de Charonne","postalCode":"75011","town":"Paris","style":"Cuisine Moderne, Créative","etoile":3},{"id":357,"name_michelin":"La Coquerie","name_lafourchette":"La Coquerie by LeCoq-Gadby","street":"1 chemin du Cimetière-Marin","postalCode":"34200","town":"Sète","style":"Cuisine Moderne, Créative","etoile":3},{"id":5488,"name_michelin":"Auberge du Dun","name_lafourchette":"Auberge de la Dune","street":"3 rte de Dieppe","postalCode":"76740","town":"Le Bourg-Dun","style":"Traditionnel, Classique; Cuisine Moderne, Créative","etoile":3},{"id":2889,"name_michelin":"La Marande","name_lafourchette":"La Marande","street":"lieu-dit Mirande","postalCode":"71260","town":"Montbellet","style":"Cuisine Moderne, Créative","etoile":3},
{"id":26112,"name_michelin":"Le 39V","name_lafourchette":"Le 39V Paris - Frédéric Vardon","street":"39 Avenue George V","postalCode":"75008","town":"Paris 08","style":"Cuisine Moderne, Créative; Traditionnel, Classique; Gastronomique","etoile":3},{"id":21741,"name_michelin":"Restaurant du Palais Royal","name_lafourchette":"Restaurant du Palais Royal","street":"110 Galerie de Valois - Jardin du Palais Royal","postalCode":"75001","town":"Paris 01","style":"Cuisine Moderne, Créative; Gastronomique; Traditionnel, Classique","etoile":3},{"id":75533,"name_michelin":"La Tour des Vents","name_lafourchette":"La Tour des Vents","street":"Le Moulin de Malfourat","postalCode":"24240","town":"Monbazillac","style":"Cuisine Moderne, Créative; Traditionnel, Classique; Végétarien; Végétalien","etoile":3},{"id":7133,"name_michelin":"Le Moulin du Roc","name_lafourchette":"Le Moulin du Roc","street":"Avenue Eugène Le Roy","postalCode":"24530","town":"Champagnac-de-Belair","style":"Traditionnel, Classique; Gastronomique; Cuisines du Sud-Ouest; Végétarien; Cuisine Moderne, Créative","etoile":3},{"id":566,"name_michelin":"L'Almandin","name_lafourchette":"L'Almandin","street":"Boulevard de l'Almandin","postalCode":"66750","town":"Saint-Cyprien","style":"Cuisine Moderne, Créative; Gastronomique","etoile":3},{"id":3303,"name_michelin":"Le Relais Bernard Loiseau","name_lafourchette":"Le Relais Bernard Loiseau","street":"2, rue d'Argentine","postalCode":"21210","town":"Saulieu","style":"Traditionnel, Classique; Cuisine Moderne, Créative; Gastronomique; Cuisine Régionale Française; Végétarien; Végétalien","etoile":3},{"id":28453,"name_michelin":"1217","name_lafourchette":"Le 1217","street":"le bourg","postalCode":"69620","town":"Bagnols","style":"Cuisine Moderne, Créative; Gastronomique; Végétarien; Végétalien","etoile":3},{"id":3806,"name_michelin":"Assiette Champenoise","name_lafourchette":"L'Assiette Champenoise","street":"40 av. Paul Vaillant-Couturier","postalCode":"51430","town":"Tinqueux","style":"Cuisine Moderne, Créative; Gastronomique; Végétarien; Végétalien","etoile":3},{"id":2828,"name_michelin":"Le Chiberta","name_lafourchette":"Le Chiberta - Stéphane Laruelle - Guy Savoy","street":"3 Rue Arsène Houssaye","postalCode":"75008","town":"Paris 08","style":"Cuisine Moderne, Créative; Gastronomique; Végétarien; Végétalien","etoile":3},{"id":69375,"name_michelin":"Au Trou Gascon","name_lafourchette":"Au Trou Gascon - Alain Dutournier","street":"40 rue Taine","postalCode":"75012","town":"Paris","style":"Cuisines du Sud-Ouest; Cuisine Moderne, Créative","etoile":3},{"id":40576,"name_michelin":"La Marelle","name_lafourchette":"La Marelle","street":"1593 av. de Lyon","postalCode":"01960","town":"PERONNAS","style":"Cuisine Moderne, Créative; Gastronomique; Végétarien; Végétalien","etoile":3},{"id":62615,"name_michelin":"Aux Pesked","name_lafourchette":"Aux Pesked Deauville","street":"59 Rue du Légué","postalCode":"22000","town":"Saint-Brieuc","style":"Poissons, Fruits de Mer; Cuisine Moderne, Créative; Gastronomique; Végétarien; Végétalien","etoile":3},{"id":65577,"name_michelin":"Auberge du Vieux Puits","name_lafourchette":"L'Auberge du Vieux Puits","street":"5 Avenue Saint-Victor","postalCode":"11360","town":"Fontjoncouse","style":"Cuisine Moderne, Créative; Végétarien; Végétalien","etoile":3},{"id":78533,"name_michelin":"Le Quincangrogne","name_lafourchette":"Le Quincangrogne","street":"7 Rue de l'Abreuvoir","postalCode":"77400","town":"Dampmart","style":"Cuisine Moderne, Créative; Gastronomique; Végétarien; Végétalien","etoile":3},{"id":18684,"name_michelin":"La Table de Patrick Raingeard","name_lafourchette":"La Table de Catherine","street":"1312 av. Raymond-Poincaré","postalCode":"06360","town":"EZE-BORD-DE-MER","style":"Cuisine Moderne, Créative; Gastronomique; Végétarien; Végétalien; Traditionnel, Classique","etoile":3},{"id":26460,"name_michelin":"Ivan Vautier","name_lafourchette":"Ivan Vautier","street":"3 avenue Henry-Chéron","postalCode":"14000","town":"Caen","style":"Cuisine Moderne, Créative; Végétarien; Végétalien","etoile":3},{"id":378,"name_michelin":"Ithurria","name_lafourchette":"Ithurria","street":"pl. du Fronton","postalCode":"64250","town":"Ainhoa","style":"Traditionnel, Classique; Basque","etoile":3},{"id":26352,"name_michelin":"Le Moulin de l'Abbaye","name_lafourchette":"Le Moulin de l'Abbaye","street":"1 avenue Pierre de Bourdeilles","postalCode":"24310","town":"BRANTOME","style":"Cuisine Moderne, Créative; Traditionnel, Classique; Gastronomique; Végétarien","etoile":3},{"id":277471,"name_michelin":"Alain Llorca","name_lafourchette":"Alain Llorca","street":"350 Route de Saint-Paul","postalCode":"06480","town":"La Colle-sur-Loup","style":"Provençal; Cuisine Moderne, Créative; Végétarien; Végétalien","etoile":3},{"id":3304,"name_michelin":"Loiseau des Vignes","name_lafourchette":"Loiseau des Vignes","street":"31 Rue Jean Francois Maufoux","postalCode":"21200","town":"Beaune","style":"Cuisine Moderne, Créative; Traditionnel, Classique; Cuisine Régionale Française; Gastronomique; Végétarien; Végétalien","etoile":3},{"id":12900,"name_michelin":"Pierre Orsi","name_lafourchette":"Pierre Orsi","street":"Place Kléber","postalCode":"69006","town":"Lyon 06","style":"Traditionnel, Classique; Cuisine Moderne, Créative; Gastronomique; Végétarien; Végétalien","etoile":3},{"id":206163,"name_michelin":"Julien Binz","name_lafourchette":"Julien Binz","street":"7 Rue des Cigognes","postalCode":"68770","town":"Ammerschwihr","style":"Cuisine Moderne, Créative; Gastronomique; Traditionnel, Classique; Végétarien","etoile":3},{"id":5632,"name_michelin":"La Licorne Royale","name_lafourchette":"La Licorne Royale","street":"27 Place Isaac Benserade","postalCode":"27480","town":"Lyons-la-Forêt","style":"Cuisine Moderne, Créative; Gastronomique","etoile":3},{"id":22878,"name_michelin":"Domaine de Clairefontaine","name_lafourchette":"Domaine de Clairefontaine","street":"chemin des Fontanettes","postalCode":"38121","town":"Chonas-l'Amballan","style":"Cuisine Moderne, Créative; Gastronomique","etoile":3},{"id":16314,"name_michelin":"Les Fresques","name_lafourchette":"Les Fresques - Château des Vigiers","street":"13 Avenue des Mateirons","postalCode":"74500","town":"Évian-les-Bains","style":"Cuisine Moderne, Créative; Traditionnel, Classique; Gastronomique; Végétarien; Végétalien","etoile":3},{"id":7130,"name_michelin":"Le Clos des Sens","name_lafourchette":"Le Clos des Sens","street":"13 r. J. -Mermoz","postalCode":"74940","town":"Annecy","style":"Cuisine Moderne, Créative; Végétarien; Végétalien","etoile":3},{"id":42092,"name_michelin":"Hostellerie Les Gorges de Pennafort","name_lafourchette":"Hostellerie Les Remparts","street":"8660 RD 25","postalCode":"83830","town":"Callas","style":"Cuisine Moderne, Créative; Gastronomique; Végétarien; Végétalien","etoile":3},{"id":132,"name_michelin":"Le Relais des Moines","name_lafourchette":"Le Relais des Moines","street":"route de Ste-Roseline","postalCode":"83460","town":"Les Arcs","style":"Cuisine Moderne, Créative","etoile":3},{"id":26469,"name_michelin":"Cyril Attrazic","name_lafourchette":"Restaurant Cyril Attrazic - Chez Camillou","street":"10 rte du Languedoc","postalCode":"48130","town":"Aumont-Aubrac","style":"Cuisine Moderne, Créative; Gastronomique; Végétarien; Végétalien","etoile":3},{"id":2819,"name_michelin":"Les Hautes Roches","name_lafourchette":"Les Hautes Roches","street":"86 quai de Loire","postalCode":"37210","town":"Rochecorbon","style":"Cuisine Moderne, Créative; Gastronomique; Végétarien; Végétalien","etoile":3},{"id":5935,"name_michelin":"Le Grand Cerf","name_lafourchette":"Le Grand Cerf","street":"50 rte Nationale","postalCode":"51500","town":"Montchenot","style":"Traditionnel, Classique; Végétarien; Végétalien","etoile":3},{"id":78944,"name_michelin":"Le Jardin de Benjamin","name_lafourchette":"Le Jardin Pekinois","street":"Route de Salernes","postalCode":"83510","town":"Lorgues","style":"Cuisine Moderne, Créative; Gastronomique","etoile":3},{"id":35732,"name_michelin":"Anne de Bretagne","name_lafourchette":"Hôtel - Restaurant Anne De Bretagne","street":"163, Boulevard de la Tara","postalCode":"44770","town":"La Plaine-sur-Mer","style":"Cuisine Moderne, Créative; Gastronomique; Poissons, Fruits de Mer; Végétarien","etoile":3},{"id":2971,"name_michelin":"Maison Kieny","name_lafourchette":"Maison Kieny","street":"7 Rue du Général de Gaulle","postalCode":"68400","town":"Riedisheim","style":"Cuisine Moderne, Créative","etoile":3},{"id":548,"name_michelin":"Auberge de l'Ill","name_lafourchette":"Auberge de l'Ile","street":"2 rue de Collonges-au-Mont d'Or","postalCode":"68970","town":"Illhaeusern","style":"Traditionnel, Classique; Gastronomique","etoile":3},{"id":311969,"name_michelin":"L'Auberge des Glazicks","name_lafourchette":"L'Auberge des Canuts","street":"7 rue de la Plage","postalCode":"29550","town":"PLOMODIERN","style":"Cuisine Moderne, Créative; Végétarien; Végétalien","etoile":3},{"id":2591,"name_michelin":"La Table des Merville","name_lafourchette":"La Table des Merville - Thierry Merville","street":"3 place Richard","postalCode":"31320","town":"Castanet-Tolosan","style":"Cuisine Moderne, Créative; Gastronomique; Végétarien; Végétalien; Traditionnel, Classique","etoile":3},{"id":212971,"name_michelin":"L'Odas","name_lafourchette":"L'Odas","street":"Passage Maurice Lenfant","postalCode":"76000","town":"Rouen","style":"Cuisine Moderne, Créative; Gastronomique; Végétarien; Végétalien","etoile":3},{"id":219191,"name_michelin":"Le St-Placide","name_lafourchette":"Le Saint Placide","street":"6 place du poncel","postalCode":"35400","town":"Saint-Malo","style":"Cuisine Moderne, Créative; Gastronomique; Végétarien; Végétalien","etoile":3},{"id":204609,"name_michelin":"Le Castellaras","name_lafourchette":"Le Castellaras","street":"461 chemin Peymeyan","postalCode":"83440","town":"Fayence","style":"Provençal; Végétarien; Végétalien","etoile":3},
{"id":44057,"name_michelin":"L'Amaryllis","name_lafourchette":"L'Amaryllis","street":"chemin de Martorey","postalCode":"71100","town":"Saint-Rémy","style":"Cuisine Moderne, Créative; Végétarien","etoile":3},{"id":3485,"name_michelin":"Manoir de la Boulaie","name_lafourchette":"Manoir de la Boulaie - Laurent Saudeau","street":"33 rue Chapelle St-Martin","postalCode":"44115","town":"HAUTE-GOULAINE","style":"Cuisine Moderne, Créative; Gastronomique","etoile":3},{"id":38155,"name_michelin":"Flaveur","name_lafourchette":"Flaveur","street":"25 Rue Gubernatis","postalCode":"06000","town":"Nice","style":"Cuisine Moderne, Créative; Gastronomique; Méditerranéen; Végétarien; Végétalien","etoile":3},{"id":2698,"name_michelin":"Jean-Luc Tartarin","name_lafourchette":"Jean Luc Tartarin","street":"Square Saint-Roch","postalCode":"76600","town":"Le Havre","style":"Cuisine Moderne, Créative; Végétarien; Végétalien","etoile":3},{"id":5609,"name_michelin":"Chapelle Saint-Martin","name_lafourchette":"La Chapelle Saint Martin","street":"33, Saint Martin du Fault","postalCode":"87510","town":"Nieul","style":"Cuisine Moderne, Créative; Gastronomique; Traditionnel, Classique; Végétarien; Végétalien","etoile":3},{"id":6765,"name_michelin":"Auberge de la Diligence","name_lafourchette":"L'Auberge de la Diligence","street":"4 r. de la Libération","postalCode":"49440","town":"Loiré","style":"Cuisine Moderne, Créative; Gastronomique","etoile":3},{"id":8664,"name_michelin":"La Table de La Butte","name_lafourchette":"La Table de Botzaris - Buttes Chaumont","street":"10 rue de la Mer","postalCode":"29260","town":"PLOUIDER","style":"Cuisine Moderne, Créative; Gastronomique; Traditionnel, Classique; Végétarien; Végétalien","etoile":3},{"id":78423,"name_michelin":"L'Atelier de Gaztelur","name_lafourchette":"L’Atelier de Gaztelur","street":"Chemin de Gastelhur","postalCode":"64200","town":"Arcangues","style":"Cuisine Moderne, Créative; Gastronomique","etoile":3},{"id":209193,"name_michelin":"Ed.Em","name_lafourchette":"Ed.Em","street":"4 imp. Chenevottes","postalCode":"21190","town":"Chassagne-Montrachet","style":"Cuisine Moderne, Créative; Gastronomique","etoile":3},{"id":405,"name_michelin":"Maison Rostang","name_lafourchette":"Maison Rostang","street":"20 rue Rennequin","postalCode":"75017","town":"Paris","style":"Traditionnel, Classique; Gastronomique","etoile":3},{"id":38024,"name_michelin":"La Nouvelle Auberge","name_lafourchette":"La Nouvelle Auberge","street":"9 route Nationale","postalCode":"68230","town":"Wihr-au-Val","style":"Traditionnel, Classique; Gastronomique; Brasserie; Végétarien; Végétalien","etoile":3},{"id":4904,"name_michelin":"Hostellerie de Plaisance","name_lafourchette":"Hostellerie de Plaisance","street":"5 place du Clocher","postalCode":"33330","town":"Saint-Emilion","style":"Cuisine Moderne, Créative; Gastronomique","etoile":3},{"id":28941,"name_michelin":"Le Belrose","name_lafourchette":"Le Bellerose","street":"Boulevard des Crêtes","postalCode":"83580","town":"Gassin","style":"Cuisine Moderne, Créative; Gastronomique","etoile":3},{"id":3552,"name_michelin":"Maison Lameloise","name_lafourchette":"Maison Lameloise","street":"36 pl. d'Armes","postalCode":"71150","town":"Chagny","style":"Cuisine Moderne, Créative; Gastronomique","etoile":3},{"id":68308,"name_michelin":"Thierry Drapeau","name_lafourchette":"Restaurant Thierry Drapeau","street":"La Chabotterie","postalCode":"85260","town":"Saint-Sulpice-le-Verdon","style":"Cuisine Moderne, Créative; Gastronomique; Végétarien","etoile":3},{"id":11316,"name_michelin":"L'Atelier de Jean-Luc Rabanel","name_lafourchette":"L'Atelier de Jacques","street":"7 r. des Carmes","postalCode":"13200","town":"Arles","style":"Cuisine Moderne, Créative","etoile":3},{"id":6792,"name_michelin":"Le Domaine de la Corniche","name_lafourchette":"Le Panoramique du Domaine de la Corniche","street":"5 rte de la Corniche","postalCode":"78270","town":"Rolleboise","style":"Cuisine Moderne, Créative; Gastronomique","etoile":3},{"id":2740,"name_michelin":"Le Manoir du Lys","name_lafourchette":"Le Manoir du Lys","street":"D235","postalCode":"61140","town":"Bagnoles-de-l'Orne","style":"Cuisine Moderne, Créative","etoile":3},{"id":21111,"name_michelin":"Auberge de la Mine","name_lafourchette":"Auberge de la Seine","street":"le Gué-Plat","postalCode":"61450","town":"La Ferrière-aux-Étangs","style":"Cuisine Moderne, Créative; Traditionnel, Classique","etoile":3},{"id":35418,"name_michelin":"La Table de la Bergerie","name_lafourchette":"La Table de Minà - Relais & Châteaux Les Bergeries de Palombaggia","street":"La Bergerie","postalCode":"49380","town":"Champ-sur-Layon","style":"Cuisine Moderne, Créative; Gastronomique","etoile":3},{"id":8933,"name_michelin":"Les Clefs d'Argent","name_lafourchette":"Les Clefs d'Argent","street":"333 Avenue des Martyrs de la Résistance","postalCode":"40000","town":"Mont-de-Marsan","style":"Cuisine Moderne, Créative; Gastronomique; Végétarien; Végétalien","etoile":3},{"id":310829,"name_michelin":"Dominique Bucaille","name_lafourchette":"Dominique Bouchet","street":"715 av. des Savels","postalCode":"04100","town":"Manosque","style":"Cuisine Moderne, Créative; Gastronomique","etoile":3},{"id":295101,"name_michelin":"Les Berceaux","name_lafourchette":"Le Cerceau","street":"13 rue des Berceaux","postalCode":"51200","town":"Épernay","style":"Traditionnel, Classique","etoile":3},{"id":358027,"name_michelin":"Les Voiles d'Or","name_lafourchette":"La Voile D'Or","street":"2 chemin de la Falaise","postalCode":"76200","town":"Dieppe","style":"Poissons, Fruits de Mer; Cuisine Moderne, Créative","etoile":3},{"id":46990,"name_michelin":"Rackham","name_lafourchette":"RACKHAM","street":"27 pl. Lacaze Duthiers rčs de l'église","postalCode":"29680","town":"ROSCOFF","style":"Cuisine Moderne, Créative; Gastronomique; Poissons, Fruits de Mer","etoile":3},{"id":32118,"name_michelin":"Le Musigny","name_lafourchette":"Le Musigny","street":"90 Avenue de Liege","postalCode":"59300","town":"Valenciennes","style":"Cuisine Moderne, Créative; Gastronomique","etoile":3},{"id":26660,"name_michelin":"La Vague d'Or","name_lafourchette":"La Vague d'Or","street":"Plage de Bouillabaisse","postalCode":"83990","town":"Saint-Tropez","style":"Cuisine Moderne, Créative; Gastronomique; Provençal; Végétarien; Végétalien","etoile":3},{"id":291345,"name_michelin":"114, Faubourg","name_lafourchette":"Le 114 Faubourg - Le Bristol Paris","street":"114 r. Fg St-Honoré","postalCode":"75008","town":"Paris 08","style":"Cuisine Moderne, Créative; Végétarien; Végétalien","etoile":3},{"id":18939,"name_michelin":"Le Bistro des Saveurs","name_lafourchette":"Le Bistro des Saveurs","street":"35 Rue de Sélestat","postalCode":"67210","town":"Obernai","style":"Cuisine Moderne, Créative; Gastronomique; Bistronomique; Végétarien; Végétalien","etoile":3},
{"id":63173,"name_michelin":"Fontevraud Le Restaurant","name_lafourchette":"Fontevraud  Le Restaurant","street":"38 rue St-Jean-de-l'Habit","postalCode":"49590","town":"FONTEVRAUD-L'ABBAYE","style":"Cuisine Moderne, Créative; Gastronomique","etoile":3},{"id":7135,"name_michelin":"Les Trois Rochers","name_lafourchette":"Les Trois Rochers - La Villa Tri Men","street":"16 rue du Phare","postalCode":"29120","town":"Sainte-Marine","style":"Cuisine Moderne, Créative; Gastronomique; Végétarien; Végétalien","etoile":3},{"id":11295,"name_michelin":"Qui plume la Lune","name_lafourchette":"Qui Plume la Lune - Jacky Ribault","street":"50 r. Amelot","postalCode":"75011","town":"Paris 11","style":"Cuisine Moderne, Créative; Gastronomique; Végétarien; Végétalien","etoile":3},{"id":58408,"name_michelin":"La Table du 11","name_lafourchette":"La Table du 11","street":"8 rue de la chancellerie","postalCode":"78000","town":"Versailles","style":"Cuisine Moderne, Créative; Gastronomique","etoile":3},{"id":75043,"name_michelin":"Prairial","name_lafourchette":"Prairial","street":"11 Rue Chavanne","postalCode":"69001","town":"Lyon","style":"Cuisine Moderne, Créative; Gastronomique; Végétarien","etoile":3},{"id":75811,"name_michelin":"Auberge de la Brie","name_lafourchette":"Auberge de Condé-en-Brie","street":"14 av. Alphonse Boulingre","postalCode":"77860","town":"Couilly-Pont-aux-Dames","style":"Cuisine Moderne, Créative; Gastronomique","etoile":3},{"id":3592,"name_michelin":"Buerehiesel","name_lafourchette":"Buerehiesel - Eric Westermann","street":"dans le parc de l'Orangerie","postalCode":"67000","town":"Strasbourg","style":"Cuisine Moderne, Créative; Gastronomique; Traditionnel, Classique","etoile":3},{"id":213927,"name_michelin":"Guy Lassausaie","name_lafourchette":"Guy Laurent","street":"r. de Belle-Sise","postalCode":"69380","town":"Chasselay","style":"Cuisine Moderne, Créative","etoile":3},{"id":349553,"name_michelin":"L'Aquarelle","name_lafourchette":"L'Aquarelle","street":"71 A rte du Montil","postalCode":"17920","town":"Breuillet","style":"Cuisine Moderne, Créative","etoile":3},{"id":289175,"name_michelin":"La Petite Maison de Cucuron","name_lafourchette":"La Petite Maison de Pierre","street":"pl. de l'Étang","postalCode":"84160","town":"Cucuron","style":"Cuisine Moderne, Créative","etoile":3},{"id":2937,"name_michelin":"Michel Sarran","name_lafourchette":"Michel Chabran","street":"21 bd A.-Duportal","postalCode":"31000","town":"Toulouse","style":"Cuisine Moderne, Créative","etoile":3},{"id":21998,"name_michelin":"Michel Trama","name_lafourchette":"La Brasserie du Passage Saint-Michel","street":"52 r. Royale","postalCode":"47270","town":"Puymirol","style":"Cuisine Moderne, Créative","etoile":3},{"id":272755,"name_michelin":"Cayola","name_lafourchette":"Gayola Steakhouse & Bar","street":"76 promenade de Cayola","postalCode":"85180","town":"Talmont-Saint-Hilaire","style":"Cuisine Moderne, Créative","etoile":3},{"id":357,"name_michelin":"La Coquerie","name_lafourchette":"La Coquerie by LeCoq-Gadby","street":"1 chemin du Cimetière-Marin","postalCode":"34200","town":"Sète","style":"Cuisine Moderne, Créative","etoile":3},{"id":5488,"name_michelin":"Auberge du Dun","name_lafourchette":"Auberge de la Dune","street":"3 rte de Dieppe","postalCode":"76740","town":"Le Bourg-Dun","style":"Traditionnel, Classique; Cuisine Moderne, Créative","etoile":3},{"id":2889,"name_michelin":"La Marande","name_lafourchette":"La Marande","street":"lieu-dit Mirande","postalCode":"71260","town":"Montbellet","style":"Cuisine Moderne, Créative","etoile":3},{"id":77897,"name_michelin":"Auberge St-Jean","name_lafourchette":"Auberge St-Antoine","street":"8 r. du Pont","postalCode":"33420","town":"Saint-Jean-de-Blaignac","style":"Cuisine Moderne, Créative; Traditionnel, Classique","etoile":3},{"id":205971,"name_michelin":"Table - Bruno Verjus","name_lafourchette":"Table des Barbus","street":"3 r. de Prague","postalCode":"75012","town":"Paris","style":"Cuisine Moderne, Créative","etoile":3},{"id":346045,"name_michelin":"Yam'Tcha","name_lafourchette":"Mamatchai","street":"121 r. St-Honoré","postalCode":"75001","town":"Paris","style":"Cuisine Moderne, Créative","etoile":3},{"id":8838,"name_michelin":"Henri et Joseph","name_lafourchette":"Henri et Joseph","street":"4 r. Léo-le-Bourgo","postalCode":"56100","town":"Lorient","style":"Cuisine Moderne, Créative","etoile":3},{"id":30276,"name_michelin":"Les Tables de Gaspard","name_lafourchette":"Le Bistro de Gaspard","street":"r. Principale","postalCode":"05600","town":"St-Crépin","style":"Cuisine Moderne, Créative; Traditionnel, Classique","etoile":3},{"id":287861,"name_michelin":"Le Montgomerie","name_lafourchette":"Le Montgolfier","street":"356 rte de l'Altiport","postalCode":"73120","town":"Courchevel 1850","style":"Cuisine Moderne, Créative","etoile":3},{"id":38154,"name_michelin":"L'Aromate","name_lafourchette":"L'Aromate","street":"2 r. Gustave Deloye","postalCode":"06000","town":"Nice","style":"Cuisine Moderne, Créative","etoile":3},
{"id":276775,"name_michelin":"Garopapilles","name_lafourchette":"Garopapilles","street":"62 r. Abbé-de-L'Epée","postalCode":"33000","town":"Bordeaux","style":"Cuisine Moderne, Créative; Gastronomique","etoile":3},{"id":317587,"name_michelin":"Pertinence","name_lafourchette":"Pertinence","street":"29 r. de l'Exposition","postalCode":"75007","town":"Paris","style":"Cuisine Moderne, Créative; Traditionnel, Classique","etoile":3},{"id":317277,"name_michelin":"Quinsou","name_lafourchette":"Quinsou","street":"33 r. de l'Abbé-Grégoire","postalCode":"75006","town":"Paris","style":"Cuisine Moderne, Créative","etoile":3}]
