[{"name":"Agapé","street":"51 Rue Jouffroy-d'Abbans51 Rue Jouffroy-d'Abbans","postalCode":"7501775017","town":"Paris 17Paris 17","style":"Cuisine Moderne, Créative; Gastronomique","etoile":3},null,{"name":"Frédéric Doucet","street":"2 avenue de la Libération2 avenue de la Libération","postalCode":"7112071120","town":"CharollesCharolles","style":"Cuisine Moderne, Créative; Gastronomique; Cuisine Régionale Française; Végétarien","etoile":3},null,{"name":"Auberge de l'Île Barbe","street":"1 Place Notre-Dame1 Place Notre-Dame","postalCode":"6900969009","town":"Lyon 09Lyon 09","style":"Traditionnel, Classique; Cuisine Moderne, Créative; Gastronomique","etoile":3},null,{"name":"Le 39V","street":"39 Avenue George V39 Avenue George V","postalCode":"7500875008","town":"Paris 08Paris 08","style":"Cuisine Moderne, Créative; Traditionnel, Classique; Gastronomique","etoile":3},null,{"name":"Le Saint-Estève","street":"2250 route cézanne D172250 route cézanne D17","postalCode":"1310013100","town":"Le TholonetLe Tholonet","style":"Cuisine Moderne, Créative; Gastronomique; Végétarien; Végétalien","etoile":3},null,{"name":"Restaurant du Palais Royal","street":"110 Galerie de Valois - Jardin du Palais Royal110 Galerie de Valois - Jardin du Palais Royal","postalCode":"7500175001","town":"Paris 01Paris 01","style":"Cuisine Moderne, Créative; Gastronomique; Traditionnel, Classique","etoile":3},null,{"name":"La Table de Franck Putelat","street":"80 chemin des Anglais80 chemin des Anglais","postalCode":"1100011000","town":"CarcassonneCarcassonne","style":"Cuisine Moderne, Créative; Gastronomique; Végétarien; Végétalien","etoile":3},null,{"name":"Christophe Bacquié","street":"Hotel du Castellet Route des Hauts du CampHotel du Castellet Route des Hauts du Camp","postalCode":"8333083330","town":"Le CastelletLe Castellet","style":"Cuisine Moderne, Créative; Gastronomique; Provençal","etoile":3},null,{"name":"L'Orangerie du Château","street":"1 Avenue du Docteur Jean Laigret1 Avenue du Docteur Jean Laigret","postalCode":"4100041000","town":"BloisBlois","style":"Cuisine Moderne, Créative; Gastronomique; Traditionnel, Classique","etoile":3},null,null,null,{"name":"Paloma","street":"47 Avenue du Moulin de la Croix47 Avenue du Moulin de la Croix","postalCode":"0625006250","town":"MouginsMougins","style":"Cuisine Moderne, Créative; Gastronomique; Traditionnel, Classique; Végétarien; Végétalien","etoile":3},null,{"name":"Patrick Jeffroy","street":"20 rue du Kelenn20 rue du Kelenn","postalCode":"2966029660","town":"CarantecCarantec","style":"Cuisine Moderne, Créative","etoile":3},null,{"name":"Le Violon d'Ingres","street":"135 Rue Saint-Dominique135 Rue Saint-Dominique","postalCode":"7500775007","town":"ParisParis","style":"Traditionnel, Classique; Cuisine Moderne, Créative","etoile":3},null,{"name":"La Tour des Vents","street":"Le Moulin de MalfouratLe Moulin de Malfourat","postalCode":"2424024240","town":"MonbazillacMonbazillac","style":"Cuisine Moderne, Créative; Traditionnel, Classique; Végétarien; Végétalien","etoile":3},null,{"name":"Le Moulin du Roc","street":"Avenue Eugène Le RoyAvenue Eugène Le Roy","postalCode":"2453024530","town":"Champagnac-de-BelairChampagnac-de-Belair","style":"Traditionnel, Classique; Gastronomique; Cuisines du Sud-Ouest; Végétarien; Cuisine Moderne, Créative","etoile":3},null,{"name":"Le Cloître","street":"Le CloitreLe Cloitre","postalCode":"0430004300","town":"ManeMane","style":"Cuisine Moderne, Créative; Provençal; Gastronomique","etoile":3},null,{"name":"L'Almandin","street":"Boulevard de l'AlmandinBoulevard de l'Almandin","postalCode":"6675066750","town":"Saint-CyprienSaint-Cyprien","style":"Cuisine Moderne, Créative; Gastronomique","etoile":3},null,{"name":"Le Relais Bernard Loiseau","street":"2, rue d'Argentine2, rue d'Argentine","postalCode":"2121021210","town":"SaulieuSaulieu","style":"Traditionnel, Classique; Cuisine Moderne, Créative; Gastronomique; Cuisine Régionale Française; Végétarien; Végétalien","etoile":3},null,{"name":"1217","street":"le bourgle bourg","postalCode":"6962069620","town":"BagnolsBagnols","style":"Cuisine Moderne, Créative; Gastronomique; Végétarien; Végétalien","etoile":3},null,{"name":"Assiette Champenoise","street":"40 av. Paul Vaillant-Couturier40 av. Paul Vaillant-Couturier","postalCode":"5143051430","town":"TinqueuxTinqueux","style":"Cuisine Moderne, Créative; Gastronomique; Végétarien; Végétalien","etoile":3},null,{"name":"Hostellerie Bérard","street":"Avenue Gabriel-PériAvenue Gabriel-Péri","postalCode":"8374083740","town":"LA-CADIERE-D'AZURLA-CADIERE-D'AZUR","style":"Cuisine Moderne, Créative; Gastronomique; Cuisine Régionale Française; Végétarien; Végétalien","etoile":3},null,{"name":"Le Chiberta","street":"3 Rue Arsène Houssaye3 Rue Arsène Houssaye","postalCode":"7500875008","town":"Paris 08Paris 08","style":"Cuisine Moderne, Créative; Gastronomique; Végétarien; Végétalien","etoile":3},null,{"name":"La Barbacane","street":"Place Auguste-Pierre-PontPlace Auguste-Pierre-Pont","postalCode":"1100011000","town":"CarcassonneCarcassonne","style":"Traditionnel, Classique; Végétarien; Végétalien","etoile":3},null,{"name":"Au Trou Gascon","street":"40 rue Taine40 rue Taine","postalCode":"7501275012","town":"ParisParis","style":"Cuisines du Sud-Ouest; Cuisine Moderne, Créative","etoile":3},null,{"name":"Le Hittau","street":"1 rue du Nouaou1 rue du Nouaou","postalCode":"4023040230","town":"SAINT-VINCENT-DE-TYROSSESAINT-VINCENT-DE-TYROSSE","style":"Cuisine Moderne, Créative; Végétarien; Végétalien","etoile":3},null,{"name":"G.a. au Manoir de Rétival","street":"2 rue St. Clair2 rue St. Clair","postalCode":"7649076490","town":"Caudebec-en-CauxCaudebec-en-Caux","style":"Cuisine Moderne, Créative; Cuisine Moderne, Créative","etoile":3},null,{"name":"Gill","street":"9 quai de la Bourse9 quai de la Bourse","postalCode":"7600076000","town":"RouenRouen","style":"Cuisine Moderne, Créative; Végétarien; Végétalien; Gastronomique","etoile":3},null,{"name":"La Marelle","street":"1593 av. de Lyon1593 av. de Lyon","postalCode":"0196001960","town":"PERONNASPERONNAS","style":"Cuisine Moderne, Créative; Gastronomique; Végétarien; Végétalien","etoile":3},null,null,null,{"name":"Château de Pray","street":"Rue du CèdreRue du Cèdre","postalCode":"3740037400","town":"AmboiseAmboise","style":"Cuisine Moderne, Créative; Gastronomique; Cuisine Régionale Française; Végétarien; Végétalien","etoile":3},null,{"name":"Aux Pesked","street":"59 Rue du Légué59 Rue du Légué","postalCode":"2200022000","town":"Saint-BrieucSaint-Brieuc","style":"Poissons, Fruits de Mer; Cuisine Moderne, Créative; Gastronomique; Végétarien; Végétalien","etoile":3},null,{"name":"Auberge du Vieux Puits","street":"5 Avenue Saint-Victor5 Avenue Saint-Victor","postalCode":"1136011360","town":"FontjoncouseFontjoncouse","style":"Cuisine Moderne, Créative; Végétarien; Végétalien","etoile":3},null,{"name":"L'Oustau de Baumanière","street":"Village des Baux-de-ProvenceVillage des Baux-de-Provence","postalCode":"1352013520","town":"Les Baux-de-ProvenceLes Baux-de-Provence","style":"Cuisine Moderne, Créative; Gastronomique; Provençal; Végétarien","etoile":3},null,{"name":"Bruno","street":"2350 route des Arcs, Campagne Mariette2350 route des Arcs, Campagne Mariette","postalCode":"8351083510","town":"LorguesLorgues","style":"Traditionnel, Classique; Gastronomique; Végétarien; Végétalien","etoile":3},null,{"name":"Le Quincangrogne","street":"7 Rue de l'Abreuvoir7 Rue de l'Abreuvoir","postalCode":"7740077400","town":"DampmartDampmart","style":"Cuisine Moderne, Créative; Gastronomique; Végétarien; Végétalien","etoile":3},null,{"name":"J.-M. Pérochon","street":"63 avenue de la Grand'Roche63 avenue de la Grand'Roche","postalCode":"8547085470","town":"Brétignolles-sur-MerBrétignolles-sur-Mer","style":"Cuisine Moderne, Créative; Végétarien; Végétalien","etoile":3},null,{"name":"1920","street":"373 chemin des follières373 chemin des follières","postalCode":"7412074120","town":"MegèveMegève","style":"Cuisine Moderne, Créative; Végétarien; Végétalien","etoile":3},null,{"name":"Stéphane Derbord","street":"10 Place du Président Wilson10 Place du Président Wilson","postalCode":"2100021000","town":"DijonDijon","style":"Cuisine Moderne, Créative; Gastronomique; Traditionnel, Classique","etoile":3},null,{"name":"Auberge des Templiers","street":"D2007D2007","postalCode":"4529045290","town":"Les BézardsLes Bézards","style":"Traditionnel, Classique; Gastronomique; Végétarien; Végétalien","etoile":3},null,{"name":"Ô Flaveurs","street":"Château de ChillyChâteau de Chilly","postalCode":"7414074140","town":"DouvaineDouvaine","style":"Cuisine Moderne, Créative; Gastronomique; Végétarien; Végétalien","etoile":3},null,{"name":"La Table de Patrick Raingeard","street":"1312 av. Raymond-Poincaré1312 av. Raymond-Poincaré","postalCode":"0636006360","town":"EZE-BORD-DE-MEREZE-BORD-DE-MER","style":"Cuisine Moderne, Créative; Gastronomique; Végétarien; Végétalien; Traditionnel, Classique","etoile":3},null,{"name":"Ivan Vautier","street":"3 avenue Henry-Chéron3 avenue Henry-Chéron","postalCode":"1400014000","town":"CaenCaen","style":"Cuisine Moderne, Créative; Végétarien; Végétalien","etoile":3},null,{"name":"Le Coquillage","street":"Lieu-dit Le BuotLieu-dit Le Buot","postalCode":"3535035350","town":"Saint-Méloir-des-OndesSaint-Méloir-des-Ondes","style":"Poissons, Fruits de Mer","etoile":3},null,{"name":"L'Essentiel","street":"29 Rue Mirabeau29 Rue Mirabeau","postalCode":"1480014800","town":"DEAUVILLEDEAUVILLE","style":"Cuisine Moderne, Créative; Végétarien; Végétalien; Traditionnel, Classique","etoile":3},null,{"name":"Le Bénaton","street":"25 Rue du Faubourg-Bretonnière25 Rue du Faubourg-Bretonnière","postalCode":"2120021200","town":"BEAUNEBEAUNE","style":"Cuisine Moderne, Créative","etoile":3},null,{"name":"Ithurria","street":"pl. du Frontonpl. du Fronton","postalCode":"6425064250","town":"AinhoaAinhoa","style":"Traditionnel, Classique; Basque","etoile":3},null,{"name":"Le Moulin de l'Abbaye","street":"1 avenue Pierre de Bourdeilles1 avenue Pierre de Bourdeilles","postalCode":"2431024310","town":"BRANTOMEBRANTOME","style":"Cuisine Moderne, Créative; Traditionnel, Classique; Gastronomique; Végétarien","etoile":3},null,null,null,{"name":"L'Aparté","street":"21 Rue de l’Europe21 Rue de l’Europe","postalCode":"3185031850","town":"MONTRABEMONTRABE","style":"Cuisine Moderne, Créative; Gastronomique","etoile":3},null,{"name":"Dyades au Domaine des Étangs","street":"Les EtangsLes Etangs","postalCode":"1631016310","town":"MASSIGNACMASSIGNAC","style":"Cuisine Moderne, Créative; Gastronomique; Cuisine Régionale Française; Végétarien","etoile":3},null,{"name":"L'Auberge Basque","street":"quartier Helbarronquartier Helbarron","postalCode":"6431064310","town":"Saint-Pée-sur-NivelleSaint-Pée-sur-Nivelle","style":"Cuisine Moderne, Créative; Traditionnel, Classique; Végétarien; Végétalien","etoile":3},null,{"name":"Restaurant du Château","street":"15 avenue des Reynats15 avenue des Reynats","postalCode":"2465024650","town":"ChanceladeChancelade","style":"Cuisine Moderne, Créative; Gastronomique; Végétarien; Végétalien","etoile":3},null,{"name":"Château de Courban","street":"7 rue du Lavoir7 rue du Lavoir","postalCode":"2152021520","town":"CourbanCourban","style":"Cuisine Moderne, Créative; Gastronomique; Végétarien; Végétalien; Traditionnel, Classique","etoile":3},null,{"name":"Alain Llorca","street":"350 Route de Saint-Paul350 Route de Saint-Paul","postalCode":"0648006480","town":"La Colle-sur-LoupLa Colle-sur-Loup","style":"Provençal; Cuisine Moderne, Créative; Végétarien; Végétalien","etoile":3},null,{"name":"Le Pergolèse","street":"40 Rue Pergolèse40 Rue Pergolèse","postalCode":"7511675116","town":"ParisParis","style":"Traditionnel, Classique; Cuisine Moderne, Créative; Gastronomique; Végétarien; Végétalien","etoile":3},null,{"name":"Loiseau des Vignes","street":"31 Rue Jean Francois Maufoux31 Rue Jean Francois Maufoux","postalCode":"2120021200","town":"BeauneBeaune","style":"Cuisine Moderne, Créative; Traditionnel, Classique; Cuisine Régionale Française; Gastronomique; Végétarien; Végétalien","etoile":3},null,{"name":"Pierre Orsi","street":"Place KléberPlace Kléber","postalCode":"6900669006","town":"Lyon 06Lyon 06","style":"Traditionnel, Classique; Cuisine Moderne, Créative; Gastronomique; Végétarien; Végétalien","etoile":3},null,{"name":"Initial","street":"24 Rue Saint-Manvieu24 Rue Saint-Manvieu","postalCode":"1400014000","town":"CaenCaen","style":"Cuisine Moderne, Créative; Gastronomique; Traditionnel, Classique; Normand; Végétarien; Végétalien","etoile":3},null,{"name":"Julien Binz","street":"7 Rue des Cigognes7 Rue des Cigognes","postalCode":"6877068770","town":"AmmerschwihrAmmerschwihr","style":"Cuisine Moderne, Créative; Gastronomique; Traditionnel, Classique; Végétarien","etoile":3},null,{"name":"La Licorne Royale","street":"27 Place Isaac Benserade27 Place Isaac Benserade","postalCode":"2748027480","town":"Lyons-la-ForêtLyons-la-Forêt","style":"Cuisine Moderne, Créative; Gastronomique","etoile":3},null,{"name":"Domaine de Clairefontaine","street":"chemin des Fontanetteschemin des Fontanettes","postalCode":"3812138121","town":"Chonas-l'AmballanChonas-l'Amballan","style":"Cuisine Moderne, Créative; Gastronomique","etoile":3},null,{"name":"Le M","street":"22 r. du Cdt-Drogou22 r. du Cdt-Drogou","postalCode":"2920029200","town":"BrestBrest","style":"Cuisine Moderne, Créative; Gastronomique","etoile":3},null,{"name":"Les Morainières","street":"route de Marételroute de Marétel","postalCode":"7317073170","town":"JongieuxJongieux","style":"Cuisine Moderne, Créative; Gastronomique; Végétarien; Végétalien","etoile":3},null,{"name":"Le Baudelaire","street":"8 rue Duphot8 rue Duphot","postalCode":"7500175001","town":"Paris 01Paris 01","style":"Cuisine Moderne, Créative; Gastronomique","etoile":3},null,{"name":"Les Fresques","street":"13 Avenue des Mateirons13 Avenue des Mateirons","postalCode":"7450074500","town":"Évian-les-BainsÉvian-les-Bains","style":"Cuisine Moderne, Créative; Traditionnel, Classique; Gastronomique; Végétarien; Végétalien","etoile":3},null,{"name":"Le Clos des Sens","street":"13 r. J. -Mermoz13 r. J. -Mermoz","postalCode":"7494074940","town":"AnnecyAnnecy","style":"Cuisine Moderne, Créative; Végétarien; Végétalien","etoile":3},null,null,null,{"name":"Benoit","street":"20 Rue St-Martin20 Rue St-Martin","postalCode":"7500475004","town":"Paris 04Paris 04","style":"Traditionnel, Classique","etoile":3},null,{"name":"Entre Vigne et Garrigue","street":"600 route de Saint Bruno600 route de Saint Bruno","postalCode":"3013130131","town":"PujautPujaut","style":"Cuisine Moderne, Créative; Traditionnel, Classique; Gastronomique; Végétarien; Végétalien","etoile":3},null,{"name":"Le Bouche à Oreille","street":"11 r. de la Chapelle11 r. de la Chapelle","postalCode":"9115091150","town":"BoutervilliersBoutervilliers","style":"Cuisine Moderne, Créative; Gastronomique; Végétarien; Végétalien","etoile":3},null,{"name":"La Rotonde","street":"200 avenue du Casino200 avenue du Casino","postalCode":"6989069890","town":"LA-TOUR-DE-SALVAGNYLA-TOUR-DE-SALVAGNY","style":"Cuisine Moderne, Créative; Gastronomique; Cuisine Régionale Française; Végétarien; Végétalien","etoile":3},null,{"name":"Greuze","street":"1 r. A. Thibaudet1 r. A. Thibaudet","postalCode":"7170071700","town":"TournusTournus","style":"Cuisine Moderne, Créative; Gastronomique; Végétarien; Végétalien; Traditionnel, Classique","etoile":3},null,{"name":"JAN","street":"12 Rue Lascaris12 Rue Lascaris","postalCode":"0600006000","town":"NiceNice","style":"Cuisine Moderne, Créative; Gastronomique","etoile":3},null,{"name":"Hostellerie Les Gorges de Pennafort","street":"8660 RD 258660 RD 25","postalCode":"8383083830","town":"CallasCallas","style":"Cuisine Moderne, Créative; Gastronomique; Végétarien; Végétalien","etoile":3},null,{"name":"Le Corot","street":"55 Rue de Versailles55 Rue de Versailles","postalCode":"9241092410","town":"VILLE-D'AVRAYVILLE-D'AVRAY","style":"Traditionnel, Classique; Gastronomique","etoile":3},null,{"name":"Le Relais des Moines","street":"route de Ste-Roselineroute de Ste-Roseline","postalCode":"8346083460","town":"Les ArcsLes Arcs","style":"Cuisine Moderne, Créative","etoile":3},null,{"name":"Cyril Attrazic","street":"10 rte du Languedoc10 rte du Languedoc","postalCode":"4813048130","town":"Aumont-AubracAumont-Aubrac","style":"Cuisine Moderne, Créative; Gastronomique; Végétarien; Végétalien","etoile":3},null,{"name":"Les Hautes Roches","street":"86 quai de Loire86 quai de Loire","postalCode":"3721037210","town":"RochecorbonRochecorbon","style":"Cuisine Moderne, Créative; Gastronomique; Végétarien; Végétalien","etoile":3},null,{"name":"Le Grand Cerf","street":"50 rte Nationale50 rte Nationale","postalCode":"5150051500","town":"MontchenotMontchenot","style":"Traditionnel, Classique; Végétarien; Végétalien","etoile":3},null,{"name":"Le Jardin de Benjamin","street":"Route de SalernesRoute de Salernes","postalCode":"8351083510","town":"LorguesLorgues","style":"Cuisine Moderne, Créative; Gastronomique","etoile":3},null,{"name":"Le Carrousel","street":"14 rue du Pont de Morge14 rue du Pont de Morge","postalCode":"6335063350","town":"MARINGUESMARINGUES","style":"Cuisine Moderne, Créative; Gastronomique","etoile":3},null,{"name":"Anne de Bretagne","street":"163, Boulevard de la Tara163, Boulevard de la Tara","postalCode":"4477044770","town":"La Plaine-sur-MerLa Plaine-sur-Mer","style":"Cuisine Moderne, Créative; Gastronomique; Poissons, Fruits de Mer; Végétarien","etoile":3},null,{"name":"Le Pré du Moulin","street":"rte de Ste-Cécile-les-Vignesrte de Ste-Cécile-les-Vignes","postalCode":"8483084830","town":"Sérignan-du-ComtatSérignan-du-Comtat","style":"Traditionnel, Classique; Végétarien; Végétalien","etoile":3},null,{"name":"Domaine de Rochevilaine","street":"à la Pointe de Pen Lanà la Pointe de Pen Lan","postalCode":"5619056190","town":"BilliersBilliers","style":"Cuisine Moderne, Créative; Traditionnel, Classique","etoile":3},null,{"name":"Château de Sully","street":"D6D6","postalCode":"1440014400","town":"SullySully","style":"Cuisine Moderne, Créative; Gastronomique; Végétarien; Végétalien","etoile":3},null,null,null,{"name":"Maison Kieny","street":"7 Rue du Général de Gaulle7 Rue du Général de Gaulle","postalCode":"6840068400","town":"RiedisheimRiedisheim","style":"Cuisine Moderne, Créative","etoile":3},null,{"name":"Auberge de l'Ill","street":"2 rue de Collonges-au-Mont d'Or2 rue de Collonges-au-Mont d'Or","postalCode":"6897068970","town":"IllhaeusernIllhaeusern","style":"Traditionnel, Classique; Gastronomique","etoile":3},null,{"name":"L'Auberge des Glazicks","street":"7 rue de la Plage7 rue de la Plage","postalCode":"2955029550","town":"PLOMODIERNPLOMODIERN","style":"Cuisine Moderne, Créative; Végétarien; Végétalien","etoile":3},null,{"name":"L'Ambroisie","street":"9 Place des Vosges9 Place des Vosges","postalCode":"7500475004","town":"ParisParis","style":"Traditionnel, Classique; Cuisine Moderne, Créative; Gastronomique","etoile":3},null,{"name":"La Table des Merville","street":"3 place Richard3 place Richard","postalCode":"3132031320","town":"Castanet-TolosanCastanet-Tolosan","style":"Cuisine Moderne, Créative; Gastronomique; Végétarien; Végétalien; Traditionnel, Classique","etoile":3},null,{"name":"Michel Chabran - La Grande Table","street":"29 Avenue du Quarante-Cinquième Parallèle29 Avenue du Quarante-Cinquième Parallèle","postalCode":"2660026600","town":"Pont-de-l'IsèrePont-de-l'Isère","style":"Traditionnel, Classique; Végétarien; Végétalien","etoile":3},null,{"name":"L'Odas","street":"Passage Maurice LenfantPassage Maurice Lenfant","postalCode":"7600076000","town":"RouenRouen","style":"Cuisine Moderne, Créative; Gastronomique; Végétarien; Végétalien","etoile":3},null,{"name":"Jérôme Brochot","street":"Place BeaubernardPlace Beaubernard","postalCode":"7130071300","town":"Montceau-les-MinesMontceau-les-Mines","style":"Cuisine Moderne, Créative; Cuisine Régionale Française","etoile":3},null,{"name":"Le St-Placide","street":"6 place du poncel6 place du poncel","postalCode":"3540035400","town":"Saint-MaloSaint-Malo","style":"Cuisine Moderne, Créative; Gastronomique; Végétarien; Végétalien","etoile":3},null,{"name":"Le Parc Les Crayères","street":"64 Boulevard Henry Vasnier64 Boulevard Henry Vasnier","postalCode":"5110051100","town":"ReimsReims","style":"Cuisine Moderne, Créative; Gastronomique; Végétarien; Végétalien; Brasserie","etoile":3},null,{"name":"La Côte Saint-Jacques","street":"14 faubourg de Paris14 faubourg de Paris","postalCode":"8930089300","town":"JoignyJoigny","style":"Cuisine Moderne, Créative; Gastronomique; Végétarien","etoile":3},null,{"name":"L'Arnsbourg","street":"UntermuhlthalUntermuhlthal","postalCode":"5723057230","town":"BaerenthalBaerenthal","style":"Cuisine Moderne, Créative; Gastronomique","etoile":3},null,{"name":"Maison Decoret","street":"15 rue du Parc15 rue du Parc","postalCode":"0320003200","town":"VichyVichy","style":"Cuisine Moderne, Créative; Gastronomique; Végétarien; Végétalien","etoile":3},null,{"name":"Le Castellaras","street":"461 chemin Peymeyan461 chemin Peymeyan","postalCode":"8344083440","town":"FayenceFayence","style":"Provençal; Végétarien; Végétalien","etoile":3},null,{"name":"L'Arcane","street":"39 Rue Lamarck39 Rue Lamarck","postalCode":"7501875018","town":"ParisParis","style":"Cuisine Moderne, Créative; Gastronomique","etoile":3},null,{"name":"Le Haut-Allier","street":"LE PONT D ALLEYRASLE PONT D ALLEYRAS","postalCode":"4358043580","town":"AlleyrasAlleyras","style":"Cuisine Moderne, Créative; Végétarien; Végétalien","etoile":3},null,{"name":"Auberge de la Tour","street":"Place de la FontainePlace de la Fontaine","postalCode":"1522015220","town":"MARCOLESMARCOLES","style":"Cuisine Moderne, Créative; Gastronomique; Végétarien; Végétalien","etoile":3},null,{"name":"L'Amaryllis","street":"chemin de Martoreychemin de Martorey","postalCode":"7110071100","town":"Saint-RémySaint-Rémy","style":"Cuisine Moderne, Créative; Végétarien","etoile":3},null,null,null,{"name":"Le Millénaire","street":"4 rue Bertin4 rue Bertin","postalCode":"5110051100","town":"ReimsReims","style":"Cuisine Moderne, Créative; Gastronomique","etoile":3},null,{"name":"Manoir de la Boulaie","street":"33 rue Chapelle St-Martin33 rue Chapelle St-Martin","postalCode":"4411544115","town":"HAUTE-GOULAINEHAUTE-GOULAINE","style":"Cuisine Moderne, Créative; Gastronomique","etoile":3},null,{"name":"Frédéric Simonin","street":"25 rue Bayen25 rue Bayen","postalCode":"7501775017","town":"ParisParis","style":"Cuisine Moderne, Créative; Gastronomique","etoile":3},null,{"name":"L'Amphitryon","street":"127 r. du Col. -Müller127 r. du Col. -Müller","postalCode":"5610056100","town":"LorientLorient","style":"Poissons, Fruits de Mer","etoile":3},null,{"name":"Flaveur","street":"25 Rue Gubernatis25 Rue Gubernatis","postalCode":"0600006000","town":"NiceNice","style":"Cuisine Moderne, Créative; Gastronomique; Méditerranéen; Végétarien; Végétalien","etoile":3},null,{"name":"Les Terraillers","street":"11 Route Chemin-Neuf11 Route Chemin-Neuf","postalCode":"0641006410","town":"BiotBiot","style":"Cuisine Moderne, Créative; Traditionnel, Classique; Gastronomique; Végétarien; Provençal","etoile":3},null,{"name":"Jean-Luc Tartarin","street":"Square Saint-RochSquare Saint-Roch","postalCode":"7660076600","town":"Le HavreLe Havre","style":"Cuisine Moderne, Créative; Végétarien; Végétalien","etoile":3},null,{"name":"Le Jasmin","street":"Lieu-dit LalandeLieu-dit Lalande","postalCode":"4714047140","town":"Saint-Sylvestre-sur-LotSaint-Sylvestre-sur-Lot","style":"Cuisine Moderne, Créative; Gastronomique; Cuisines du Sud-Ouest; Végétarien; Végétalien; Bistrot","etoile":3},null,{"name":"La Table de l'Espadon","street":"15 Place Vendôme15 Place Vendôme","postalCode":"7500175001","town":"ParisParis","style":"Cuisine Moderne, Créative; Gastronomique","etoile":3},null,{"name":"Alexandre","street":"2 rue Xavier Tronc2 rue Xavier Tronc","postalCode":"3012830128","town":"GaronsGarons","style":"Cuisine Moderne, Créative; Traditionnel, Classique; Végétarien; Végétalien","etoile":3},null,{"name":"Chapelle Saint-Martin","street":"33, Saint Martin du Fault33, Saint Martin du Fault","postalCode":"8751087510","town":"NieulNieul","style":"Cuisine Moderne, Créative; Gastronomique; Traditionnel, Classique; Végétarien; Végétalien","etoile":3},null,{"name":"La Palme d'Or","street":"73 Boulevard de la Croisette73 Boulevard de la Croisette","postalCode":"0640006400","town":"CannesCannes","style":"Cuisine Moderne, Créative","etoile":3},null,{"name":"Le Bois sans Feuilles","street":"728 Route de Villerest728 Route de Villerest","postalCode":"4215542155","town":"OuchesOuches","style":"Cuisine Moderne, Créative","etoile":3},null,{"name":"Auberge de la Diligence","street":"4 r. de la Libération4 r. de la Libération","postalCode":"4944049440","town":"LoiréLoiré","style":"Cuisine Moderne, Créative; Gastronomique","etoile":3},null,{"name":"Neige d'Été","street":"12 Rue de l'Amiral Roussin12 Rue de l'Amiral Roussin","postalCode":"7501575015","town":"Paris 15Paris 15","style":"Cuisine Moderne, Créative; Gastronomique; Traditionnel, Classique; Végétarien","etoile":3},null,{"name":"La Mare aux Oiseaux","street":"223 RUE DU CHEF DE L'ILE Fedrun223 RUE DU CHEF DE L'ILE Fedrun","postalCode":"4472044720","town":"Saint-JoachimSaint-Joachim","style":"Cuisine Moderne, Créative; Gastronomique; Végétarien; Végétalien","etoile":3},null,{"name":"La Table de La Butte","street":"10 rue de la Mer10 rue de la Mer","postalCode":"2926029260","town":"PLOUIDERPLOUIDER","style":"Cuisine Moderne, Créative; Gastronomique; Traditionnel, Classique; Végétarien; Végétalien","etoile":3},null,{"name":"64° Le Restaurant","street":"9-13 Rue du Général de Gaulle9-13 Rue du Général de Gaulle","postalCode":"6824068240","town":"KaysersbergKaysersberg","style":"Cuisine Moderne, Créative; Gastronomique","etoile":3},null,null,null,{"name":"L'Atelier de Gaztelur","street":"Chemin de GastelhurChemin de Gastelhur","postalCode":"6420064200","town":"ArcanguesArcangues","style":"Cuisine Moderne, Créative; Gastronomique","etoile":3},null,{"name":"Ed.Em","street":"4 imp. Chenevottes4 imp. Chenevottes","postalCode":"2119021190","town":"Chassagne-MontrachetChassagne-Montrachet","style":"Cuisine Moderne, Créative; Gastronomique","etoile":3},null,{"name":"Antoine","street":"10 av. de New-York10 av. de New-York","postalCode":"7511675116","town":"Paris 16Paris 16","style":"Cuisine Moderne, Créative","etoile":3},null,{"name":"Flocons de Sel","street":"1775 rte du Leutaz1775 rte du Leutaz","postalCode":"7412074120","town":"MegèveMegève","style":"Cuisine Moderne, Créative; Végétarien; Végétalien","etoile":3},null,{"name":"Maison Rostang","street":"20 rue Rennequin20 rue Rennequin","postalCode":"7501775017","town":"ParisParis","style":"Traditionnel, Classique; Gastronomique","etoile":3},null,{"name":"Le Carré d'Alethius","street":"4 r. Paul-Bertois4 r. Paul-Bertois","postalCode":"0780007800","town":"Charmes-sur-RhôneCharmes-sur-Rhône","style":"Cuisine Moderne, Créative; Gastronomique","etoile":3},null,{"name":"Alcyone","street":"1 Place Daviel1 Place Daviel","postalCode":"1300213002","town":"MARSEILLEMARSEILLE","style":"Cuisine Moderne, Créative; Gastronomique","etoile":3},null,{"name":"La Nouvelle Auberge","street":"9 route Nationale9 route Nationale","postalCode":"6823068230","town":"Wihr-au-ValWihr-au-Val","style":"Traditionnel, Classique; Gastronomique; Brasserie; Végétarien; Végétalien","etoile":3},null,{"name":"Hostellerie de Plaisance","street":"5 place du Clocher5 place du Clocher","postalCode":"3333033330","town":"Saint-EmilionSaint-Emilion","style":"Cuisine Moderne, Créative; Gastronomique","etoile":3},null,{"name":"Le Strasbourg","street":"24 r. du Col. -Teyssier24 r. du Col. -Teyssier","postalCode":"5723057230","town":"BitcheBitche","style":"Cuisine Moderne, Créative; Gastronomique; Européen; Végétarien; Végétalien","etoile":3},null,{"name":"Alliance","street":"5 Rue de Poissy5 Rue de Poissy","postalCode":"7500575005","town":"ParisParis","style":"Cuisine Moderne, Créative; Gastronomique","etoile":3},null,{"name":"Le Belrose","street":"Boulevard des CrêtesBoulevard des Crêtes","postalCode":"8358083580","town":"GassinGassin","style":"Cuisine Moderne, Créative; Gastronomique","etoile":3},null,{"name":"Épicure","street":"112 r. Fg St-Honoré112 r. Fg St-Honoré","postalCode":"7500875008","town":"Paris 08Paris 08","style":"Cuisine Moderne, Créative; Gastronomique","etoile":3},null,{"name":"Maison Lameloise","street":"36 pl. d'Armes36 pl. d'Armes","postalCode":"7115071150","town":"ChagnyChagny","style":"Cuisine Moderne, Créative; Gastronomique","etoile":3},null,{"name":"Le Gindreau","street":"D5D5","postalCode":"4615046150","town":"Saint-MédardSaint-Médard","style":"Cuisine Moderne, Créative; Traditionnel, Classique","etoile":3},null,{"name":"L'Orangerie","street":"31 Avenue George-V31 Avenue George-V","postalCode":"7500875008","town":"ParisParis","style":"Cuisine Moderne, Créative; Gastronomique","etoile":3},null,{"name":"Atmosphères","street":"618 Route des Tournelles618 Route des Tournelles","postalCode":"7337073370","town":"Le Bourget-du-LacLe Bourget-du-Lac","style":"Cuisine Moderne, Créative; Cuisine Régionale Française","etoile":3},null,{"name":"Thierry Drapeau","street":"La ChabotterieLa Chabotterie","postalCode":"8526085260","town":"Saint-Sulpice-le-VerdonSaint-Sulpice-le-Verdon","style":"Cuisine Moderne, Créative; Gastronomique; Végétarien","etoile":3},null,null,null,{"name":"Le Jardin des Plumes","street":"1 Rue du Milieu1 Rue du Milieu","postalCode":"2762027620","town":"GivernyGiverny","style":"Cuisine Moderne, Créative; Gastronomique; Végétarien; Végétalien","etoile":3},null,{"name":"L'Atelier de Jean-Luc Rabanel","street":"7 r. des Carmes7 r. des Carmes","postalCode":"1320013200","town":"ArlesArles","style":"Cuisine Moderne, Créative","etoile":3},null,{"name":"Le Farçon","street":"immeuble la Kalinkaimmeuble la Kalinka","postalCode":"7312573125","town":"La TaniaLa Tania","style":"Cuisine Moderne, Créative; Gastronomique; Cuisine Régionale Française","etoile":3},null,{"name":"La Maison d'à Côté","street":"17 rue de Chambord17 rue de Chambord","postalCode":"4135041350","town":"MontlivaultMontlivault","style":"Cuisine Moderne, Créative; Gastronomique; Végétarien; Végétalien","etoile":3},null,{"name":"Il Cortile","street":"11 r. des Franciscains11 r. des Franciscains","postalCode":"6810068100","town":"MulhouseMulhouse","style":"Italien; Gastronomique; Poissons, Fruits de Mer; Végétarien; Végétalien","etoile":3},null,{"name":"Le Domaine de la Corniche","street":"5 rte de la Corniche5 rte de la Corniche","postalCode":"7827078270","town":"RolleboiseRolleboise","style":"Cuisine Moderne, Créative; Gastronomique","etoile":3},null,{"name":"Jérôme Nutile - Le Mas de Boudan","street":"351 Chemin du Mas de Boudan351 Chemin du Mas de Boudan","postalCode":"3000030000","town":"NîmesNîmes","style":"Cuisine Moderne, Créative; Gastronomique; Végétarien","etoile":3},null,{"name":"La Promenade","street":"11 rue du Savoureulx11 rue du Savoureulx","postalCode":"3735037350","town":"Le Petit-PressignyLe Petit-Pressigny","style":"Cuisine Moderne, Créative","etoile":3},null,{"name":"Le Patio","street":"10 bd de la Plage10 bd de la Plage","postalCode":"3312033120","town":"ArcachonArcachon","style":"Cuisine Moderne, Créative; Végétarien; Végétalien","etoile":3},null,{"name":"Le Colombier","street":"r. Loucheurr. Loucheur","postalCode":"7655076550","town":"OffranvilleOffranville","style":"Cuisine Moderne, Créative; Gastronomique","etoile":3},null,{"name":"Le Manoir du Lys","street":"D235D235","postalCode":"6114061140","town":"Bagnoles-de-l'OrneBagnoles-de-l'Orne","style":"Cuisine Moderne, Créative","etoile":3},null,{"name":"Château de Mercuès","street":"Route du ChâteauRoute du Château","postalCode":"4609046090","town":"MercuèsMercuès","style":"Cuisine Moderne, Créative; Cuisines du Sud-Ouest; Végétarien; Végétalien","etoile":3},null,{"name":"Auberge de la Mine","street":"le Gué-Platle Gué-Plat","postalCode":"6145061450","town":"La Ferrière-aux-ÉtangsLa Ferrière-aux-Étangs","style":"Cuisine Moderne, Créative; Traditionnel, Classique","etoile":3},null,{"name":"Aux Anges","street":"6 Place Georges Clemenceau6 Place Georges Clemenceau","postalCode":"4230042300","town":"RoanneRoanne","style":"Italien; Gastronomique; Végétarien; Végétalien","etoile":3},null,{"name":"Le Pressoir d'Argent - Gordon Ramsay","street":"2,5 Place de la Comédie2,5 Place de la Comédie","postalCode":"3300033000","town":"BordeauxBordeaux","style":"Cuisine Moderne, Créative; Poissons, Fruits de Mer; Gastronomique; Végétarien","etoile":3},null,{"name":"La Fourchette des Ducs","street":"6 r. de la Gare6 r. de la Gare","postalCode":"6721067210","town":"ObernaiObernai","style":"Cuisine Moderne, Créative; Végétarien; Végétalien; Gastronomique","etoile":3},null,{"name":"La Voile","street":"chemin de la Quessinechemin de la Quessine","postalCode":"8335083350","town":"RamatuelleRamatuelle","style":"Cuisine Moderne, Créative; Tapas; Gastronomique; Végétarien; Végétalien","etoile":3},null,{"name":"Alain Ducasse au Plaza Athénée","street":"25 avenue Montaigne25 avenue Montaigne","postalCode":"7500875008","town":"ParisParis","style":"Cuisine Moderne, Créative","etoile":3},null,null,null,{"name":"La Table de la Bergerie","street":"La BergerieLa Bergerie","postalCode":"4938049380","town":"Champ-sur-LayonChamp-sur-Layon","style":"Cuisine Moderne, Créative; Gastronomique","etoile":3},null,{"name":"La Gourmandière - La Table d'Olivier","street":"D126D126","postalCode":"5600056000","town":"VannesVannes","style":"Cuisine Moderne, Créative; Gastronomique; Végétarien; Végétalien","etoile":3},null,{"name":"Les Ducs de Lorraine","street":"5 av. Provence5 av. Provence","postalCode":"8800088000","town":"ÉpinalÉpinal","style":"Cuisine Moderne, Créative; Gastronomique","etoile":3},null,{"name":"AM par Alexandre Mazzia","street":"9 rue François Rocca9 rue François Rocca","postalCode":"1300813008","town":"MarseilleMarseille","style":"Cuisine Moderne, Créative; Gastronomique; Végétarien; Végétalien","etoile":3},null,{"name":"Les Clefs d'Argent","street":"333 Avenue des Martyrs de la Résistance333 Avenue des Martyrs de la Résistance","postalCode":"4000040000","town":"Mont-de-MarsanMont-de-Marsan","style":"Cuisine Moderne, Créative; Gastronomique; Végétarien; Végétalien","etoile":3},null,{"name":"Dominique Bucaille","street":"715 av. des Savels715 av. des Savels","postalCode":"0410004100","town":"ManosqueManosque","style":"Cuisine Moderne, Créative; Gastronomique","etoile":3},null,{"name":"René et Maxime Meilleur","street":"Saint MarcelSaint Marcel","postalCode":"7344073440","town":"Saint-Martin-de-BellevilleSaint-Martin-de-Belleville","style":"Cuisine Moderne, Créative; Gastronomique; Cuisine Régionale Française","etoile":3},null,{"name":"Les Berceaux","street":"13 rue des Berceaux13 rue des Berceaux","postalCode":"5120051200","town":"ÉpernayÉpernay","style":"Traditionnel, Classique","etoile":3},null,{"name":"Apicius","street":"Marché Saint Pierre 1 étageMarché Saint Pierre 1 étage","postalCode":"6300063000","town":"Clermont-FerrandClermont-Ferrand","style":"Cuisine Moderne, Créative; Gastronomique; Végétarien","etoile":3},null,{"name":"L'Écrin","street":"10 place de la Concorde10 place de la Concorde","postalCode":"7500875008","town":"ParisParis","style":"Cuisine Moderne, Créative; Gastronomique","etoile":3},null,{"name":"Les Voiles d'Or","street":"2 chemin de la Falaise2 chemin de la Falaise","postalCode":"7620076200","town":"DieppeDieppe","style":"Poissons, Fruits de Mer; Cuisine Moderne, Créative","etoile":3},null,{"name":"Jean-Claude Leclerc","street":"12 rue St-Adjutor12 rue St-Adjutor","postalCode":"6300063000","town":"Clermont-FerrandClermont-Ferrand","style":"Cuisine Moderne, Créative; Gastronomique","etoile":3},null,{"name":"La Pyramide-Patrick Henriroux","street":"14 Boulevard Fernand Point14 Boulevard Fernand Point","postalCode":"3820038200","town":"VienneVienne","style":"Cuisine Moderne, Créative; Gastronomique; Végétarien; Traditionnel, Classique","etoile":3},null,{"name":"Arpège","street":"84 Rue de Varenne84 Rue de Varenne","postalCode":"7500775007","town":"ParisParis","style":"Cuisine Moderne, Créative; Gastronomique","etoile":3},null,{"name":"La Grange de Belle-Église","street":"28 bd René-Aimé-Lagabrielle28 bd René-Aimé-Lagabrielle","postalCode":"6054060540","town":"Belle-ÉgliseBelle-Église","style":"Traditionnel, Classique","etoile":3},null,{"name":"Toya","street":"av. Jean-Monnetav. Jean-Monnet","postalCode":"5738057380","town":"FaulquemontFaulquemont","style":"Cuisine Moderne, Créative; Végétarien; Végétalien","etoile":3},null,{"name":"Le Clocher des Pères","street":"D213D213","postalCode":"7313073130","town":"Saint-Martin-sur-la-ChambreSaint-Martin-sur-la-Chambre","style":"Cuisine Moderne, Créative; Gastronomique; Traditionnel, Classique","etoile":3},null,{"name":"Pierre","street":"7-9 rue Joseph Dufour7-9 rue Joseph Dufour","postalCode":"7100071000","town":"MâconMâcon","style":"Traditionnel, Classique; Gastronomique; Cuisine Moderne, Créative; Végétarien","etoile":3},null,null,null,{"name":"Rackham","street":"27 pl. Lacaze Duthiers rčs de l'église27 pl. Lacaze Duthiers rčs de l'église","postalCode":"2968029680","town":"ROSCOFFROSCOFF","style":"Cuisine Moderne, Créative; Gastronomique; Poissons, Fruits de Mer","etoile":3},null,{"name":"La Grignotière","street":"6 Rue Jean Jaures6 Rue Jean Jaures","postalCode":"5959059590","town":"RaismesRaismes","style":"Cuisine Moderne, Créative; Gastronomique; Végétarien; Végétalien","etoile":3},null,{"name":"Le Musigny","street":"90 Avenue de Liege90 Avenue de Liege","postalCode":"5930059300","town":"ValenciennesValenciennes","style":"Cuisine Moderne, Créative; Gastronomique","etoile":3},null,{"name":"La Cachette","street":"Rue des CévennesRue des Cévennes","postalCode":"2600026000","town":"ValenceValence","style":"Cuisine Moderne, Créative; Gastronomique; Végétarien; Végétalien","etoile":3},null,{"name":"La Vague d'Or","street":"Plage de BouillabaissePlage de Bouillabaisse","postalCode":"8399083990","town":"Saint-TropezSaint-Tropez","style":"Cuisine Moderne, Créative; Gastronomique; Provençal; Végétarien; Végétalien","etoile":3},null,{"name":"La Matelote","street":"80 Boulevard Ste Beuve80 Boulevard Ste Beuve","postalCode":"6220062200","town":"BOULOGNE-SUR-MERBOULOGNE-SUR-MER","style":"Traditionnel, Classique; Poissons, Fruits de Mer; Cuisine Moderne, Créative; Végétarien; Végétalien","etoile":3},null,{"name":"Le Prieuré","street":"7, place du Chapitre7, place du Chapitre","postalCode":"3040030400","town":"Villeneuve-lès-AvignonVilleneuve-lès-Avignon","style":"Cuisine Moderne, Créative; Gastronomique","etoile":3},null,{"name":"Stéphane Tournié - Les Jardins de l'Opéra","street":"1 place du Capitole1 place du Capitole","postalCode":"3100031000","town":"ToulouseToulouse","style":"Cuisine Moderne, Créative; Gastronomique","etoile":3},null,{"name":"Meurin","street":"Rue de LillersRue de Lillers","postalCode":"6235062350","town":"BusnesBusnes","style":"Cuisine Moderne, Créative; Gastronomique; Végétarien","etoile":3},null,{"name":"Les Loges","street":"6 r. du Boeuf6 r. du Boeuf","postalCode":"6900569005","town":"Lyon 05Lyon 05","style":"Cuisine Moderne, Créative; Gastronomique","etoile":3},null,{"name":"114, Faubourg","street":"114 r. Fg St-Honoré114 r. Fg St-Honoré","postalCode":"7500875008","town":"Paris 08Paris 08","style":"Cuisine Moderne, Créative; Végétarien; Végétalien","etoile":3},null,{"name":"Le Lido","street":"42 av. Napoléon-III42 av. Napoléon-III","postalCode":"2011020110","town":"ProprianoPropriano","style":"Corse; Cuisine Moderne, Créative; Gastronomique; Poissons, Fruits de Mer","etoile":3},null,{"name":"La Table du Gourmet","street":"5 rue 1ère Armée5 rue 1ère Armée","postalCode":"6834068340","town":"RiquewihrRiquewihr","style":"Cuisine Moderne, Créative; Gastronomique; Végétarien","etoile":3},null,{"name":"Skab","street":"7 Rue de la République7 Rue de la République","postalCode":"3000030000","town":"nimesnimes","style":"Cuisine Moderne, Créative; Gastronomique","etoile":3},null,{"name":"Auberge de la Charme","street":"12 r. de la Charme12 r. de la Charme","postalCode":"2137021370","town":"PrenoisPrenois","style":"Cuisine Moderne, Créative; Cuisine Moderne, Créative; Végétarien; Végétalien","etoile":3},null,{"name":"Au Crocodile","street":"10 rue de L'Outre10 rue de L'Outre","postalCode":"6700067000","town":"STRASBOURGSTRASBOURG","style":"Traditionnel, Classique; Gastronomique; Cuisine Moderne, Créative","etoile":3},null,{"name":"La Lorraine","street":"80 rue Principale80 rue Principale","postalCode":"5733057330","town":"ZoufftgenZoufftgen","style":"Cuisine Moderne, Créative; Gastronomique","etoile":3},null,{"name":"Le Bistro des Saveurs","street":"35 Rue de Sélestat35 Rue de Sélestat","postalCode":"6721067210","town":"ObernaiObernai","style":"Cuisine Moderne, Créative; Gastronomique; Bistronomique; Végétarien; Végétalien","etoile":3},null,null,null,{"name":"Copenhague","street":"142 AVENUE DES CHAMPS ELYSEES142 AVENUE DES CHAMPS ELYSEES","postalCode":"7500875008","town":"PARISPARIS","style":"Danois; Gastronomique; Cuisine Moderne, Créative","etoile":3},null,{"name":"Le 1947","street":"Cheval Blanc Courchevel - Le Jardin AlpinCheval Blanc Courchevel - Le Jardin Alpin","postalCode":"7312073120","town":"Courchevel 1850Courchevel 1850","style":"Cuisine Moderne, Créative; Cuisine Moderne, Créative; Gastronomique; Végétarien; Végétalien","etoile":3},null,{"name":"Fontevraud Le Restaurant","street":"38 rue St-Jean-de-l'Habit38 rue St-Jean-de-l'Habit","postalCode":"4959049590","town":"FONTEVRAUD-L'ABBAYEFONTEVRAUD-L'ABBAYE","style":"Cuisine Moderne, Créative; Gastronomique","etoile":3},null,{"name":"Le Grand Bleu","street":"43 av. de la Gare43 av. de la Gare","postalCode":"2420024200","town":"Sarlat-la-CanédaSarlat-la-Canéda","style":"Cuisine Moderne, Créative; Végétarien; Végétalien","etoile":3},null,{"name":"Le Pré - Xavier Beaudiment","street":"3 Route de la Baraque3 Route de la Baraque","postalCode":"6383063830","town":"DurtolDurtol","style":"Cuisine Moderne, Créative","etoile":3},null,{"name":"Le Pavé d'Auge","street":"D49D49","postalCode":"1443014430","town":"Beuvron-en-AugeBeuvron-en-Auge","style":"Traditionnel, Classique","etoile":3},null,{"name":"Louison","street":"2750 route de la cride2750 route de la cride","postalCode":"1361013610","town":"Le Puy-Sainte-RéparadeLe Puy-Sainte-Réparade","style":"Cuisine Moderne, Créative; Gastronomique","etoile":3},null,{"name":"La Ferme de l'Hospital","street":"rte du golfrte du golf","postalCode":"7416074160","town":"BosseyBossey","style":"Cuisine Moderne, Créative","etoile":3},null,{"name":"Elsa","street":"Monte-Carlo Beach - Avenue Princesse GraceMonte-Carlo Beach - Avenue Princesse Grace","postalCode":"0619006190","town":"Roquebrune Cap-MartinRoquebrune Cap-Martin","style":"Méditerranéen; Cuisine Moderne, Créative; Gastronomique","etoile":3},null,{"name":"Les Trois Soleils de Montal","street":"St-Jean-LespinasseSt-Jean-Lespinasse","postalCode":"4640046400","town":"Saint-CéréSaint-Céré","style":"Cuisine Moderne, Créative; Gastronomique; Traditionnel, Classique","etoile":3},null,{"name":"Apicius","street":"20 r. d'Artois20 r. d'Artois","postalCode":"7500875008","town":"PARISPARIS","style":"Traditionnel, Classique; Gastronomique; Cuisine Moderne, Créative","etoile":3},null,{"name":"La Maison des Bois - Marc Veyrat","street":"Chemin Rural de Manigod au Col de la Croix FryChemin Rural de Manigod au Col de la Croix Fry","postalCode":"7423074230","town":"ManigodManigod","style":"Cuisine Moderne, Créative; Gastronomique","etoile":3},null,{"name":"Stéphane Carbone","street":"14 r. de Courtonne14 r. de Courtonne","postalCode":"1400014000","town":"CaenCaen","style":"Cuisine Moderne, Créative","etoile":3},null,{"name":"L'Esquisse","street":"21 rue Royale21 rue Royale","postalCode":"7400074000","town":"AnnecyAnnecy","style":"Cuisine Moderne, Créative; Gastronomique","etoile":3},null,{"name":"Aida","street":"1 r. Pierre Leroux1 r. Pierre Leroux","postalCode":"7500775007","town":"Paris 07Paris 07","style":"Japonais","etoile":3},null,{"name":"Auberge La Fenière","street":"D943D943","postalCode":"8416084160","town":"CadenetCadenet","style":"Provençal; Gastronomique; Cuisine Régionale Française; Végétarien; Végétalien","etoile":3},null,{"name":"Dan B. - La Table de Ventabren","street":"r. F. -Mistralr. F. -Mistral","postalCode":"1312213122","town":"VentabrenVentabren","style":"Cuisine Moderne, Créative; Gastronomique; Végétarien; Végétalien","etoile":3},null,{"name":"Les Trois Rochers","street":"16 rue du Phare16 rue du Phare","postalCode":"2912029120","town":"Sainte-MarineSainte-Marine","style":"Cuisine Moderne, Créative; Gastronomique; Végétarien; Végétalien","etoile":3},null,null,null,{"name":"Qui plume la Lune","street":"50 r. Amelot50 r. Amelot","postalCode":"7501175011","town":"Paris 11Paris 11","style":"Cuisine Moderne, Créative; Gastronomique; Végétarien; Végétalien","etoile":3},null,{"name":"Le Passe Temps","street":"52 Rue Tronchet52 Rue Tronchet","postalCode":"6900669006","town":"LyonLyon","style":"Cuisine Moderne, Créative; Gastronomique","etoile":3},null,{"name":"La Table du 11","street":"8 rue de la chancellerie8 rue de la chancellerie","postalCode":"7800078000","town":"VersaillesVersailles","style":"Cuisine Moderne, Créative; Gastronomique","etoile":3},null,{"name":"Le Champ des Lunes","street":"route de Roquefraîcheroute de Roquefraîche","postalCode":"8436084360","town":"LaurisLauris","style":"Cuisine Moderne, Créative; Gastronomique","etoile":3},null,{"name":"Prairial","street":"11 Rue Chavanne11 Rue Chavanne","postalCode":"6900169001","town":"LyonLyon","style":"Cuisine Moderne, Créative; Gastronomique; Végétarien","etoile":3},null,{"name":"Maison Christian Étienne","street":"10 Rue de Mons10 Rue de Mons","postalCode":"8400084000","town":"AvignonAvignon","style":"Cuisine Moderne, Créative; Gastronomique; Provençal; Traditionnel, Classique","etoile":3},null,{"name":"Auberge de la Brie","street":"14 av. Alphonse Boulingre14 av. Alphonse Boulingre","postalCode":"7786077860","town":"Couilly-Pont-aux-DamesCouilly-Pont-aux-Dames","style":"Cuisine Moderne, Créative; Gastronomique","etoile":3},null,{"name":"Buerehiesel","street":"dans le parc de l'Orangeriedans le parc de l'Orangerie","postalCode":"6700067000","town":"StrasbourgStrasbourg","style":"Cuisine Moderne, Créative; Gastronomique; Traditionnel, Classique","etoile":3},null,{"name":"Serge Vieira","street":"Château du CouffourChâteau du Couffour","postalCode":"1511015110","town":"Chaudes-AiguesChaudes-Aigues","style":"Cuisine Moderne, Créative","etoile":3},null,{"name":"Le 7ème Continent","street":"35 av. Gén. -de-Gaulle35 av. Gén. -de-Gaulle","postalCode":"6817068170","town":"RixheimRixheim","style":"Cuisine Moderne, Créative; Gastronomique; Cuisine Régionale Française; Végétarien; Végétalien","etoile":3},null,{"name":"Le Chabichou","street":"90 Route des Chenus90 Route des Chenus","postalCode":"7312073120","town":"Courchevel 1850Courchevel 1850","style":"Traditionnel, Classique; Gastronomique; Végétarien; Végétalien","etoile":3},null,{"name":"Passage 53","street":"53 passage des Panoramas53 passage des Panoramas","postalCode":"7500275002","town":"ParisParis","style":"Cuisine Moderne, Créative","etoile":3},null,{"name":"Château de Mirambeau","street":"1 Avenue des Comtes Duchatel1 Avenue des Comtes Duchatel","postalCode":"1715017150","town":"MirambeauMirambeau","style":"Traditionnel, Classique","etoile":3},null,{"name":"Table des Frères Ibarboure","street":"chemin Ttalieneachemin Ttalienea","postalCode":"6421064210","town":"BidartBidart","style":"Cuisine Moderne, Créative; Traditionnel, Classique","etoile":3},null,{"name":"La Grenouillère","street":"19 r. de la Grenouillère19 r. de la Grenouillère","postalCode":"6217062170","town":"La Madelaine-sous-MontreuilLa Madelaine-sous-Montreuil","style":"Cuisine Moderne, Créative","etoile":3},null,{"name":"Guy Lassausaie","street":"r. de Belle-Siser. de Belle-Sise","postalCode":"6938069380","town":"ChasselayChasselay","style":"Cuisine Moderne, Créative","etoile":3},null,{"name":"Restaurant de Lauzun","street":"3 bd de l'Esplanade3 bd de l'Esplanade","postalCode":"3415034150","town":"GignacGignac","style":"Cuisine Moderne, Créative","etoile":3},null,{"name":"La Table d'Olivier","street":"3 r. St-Ambroise3 r. St-Ambroise","postalCode":"1910019100","town":"Brive-la-GaillardeBrive-la-Gaillarde","style":"Cuisine Moderne, Créative","etoile":3},null,null,null,{"name":"L'Aquarelle","street":"71 A rte du Montil71 A rte du Montil","postalCode":"1792017920","town":"BreuilletBreuillet","style":"Cuisine Moderne, Créative","etoile":3},null,{"name":"Avel Vor","street":"25 r. de Locmalo25 r. de Locmalo","postalCode":"5629056290","town":"Port-LouisPort-Louis","style":"Cuisine Moderne, Créative","etoile":3},null,{"name":"La Tour","street":"31 Nouvelle-Place31 Nouvelle-Place","postalCode":"1830018300","town":"SancerreSancerre","style":"Cuisine Moderne, Créative","etoile":3},null,{"name":"Les Chênes Verts","street":"rte de Villecrozerte de Villecroze","postalCode":"8369083690","town":"TourtourTourtour","style":"Traditionnel, Classique","etoile":3},null,{"name":"La Petite Maison de Cucuron","street":"pl. de l'Étangpl. de l'Étang","postalCode":"8416084160","town":"CucuronCucuron","style":"Cuisine Moderne, Créative","etoile":3},null,{"name":"La Promenade","street":"2 promenade Jean-Jaurès2 promenade Jean-Jaurès","postalCode":"3159031590","town":"VerfeilVerfeil","style":"Cuisine Moderne, Créative","etoile":3},null,{"name":"Mariottat","street":"25 r. L.-Vivent25 r. L.-Vivent","postalCode":"4700047000","town":"AgenAgen","style":"Cuisine Moderne, Créative","etoile":3},null,{"name":"Le Mas du Langoustier","street":"","postalCode":"8340083400","town":"HyèresHyères","style":"Cuisine Moderne, Créative","etoile":3},null,{"name":"L'Atelier de Joël Robuchon - St-Germain","street":"5 r. de Montalembert5 r. de Montalembert","postalCode":"7500775007","town":"ParisParis","style":"Cuisine Moderne, Créative","etoile":3},null,{"name":"Michel Sarran","street":"21 bd A.-Duportal21 bd A.-Duportal","postalCode":"3100031000","town":"ToulouseToulouse","style":"Cuisine Moderne, Créative","etoile":3},null,{"name":"La Table de Chaintré","street":"72 pl. du Luminaire72 pl. du Luminaire","postalCode":"7157071570","town":"ChaintréChaintré","style":"Cuisine Moderne, Créative","etoile":3},null,{"name":"Le Bistrot de Lagarde","street":"rte d'Aptrte d'Apt","postalCode":"8440084400","town":"Lagarde-d'AptLagarde-d'Apt","style":"Cuisine Moderne, Créative","etoile":3},null,{"name":"Michel Trama","street":"52 r. Royale52 r. Royale","postalCode":"4727047270","town":"PuymirolPuymirol","style":"Cuisine Moderne, Créative","etoile":3},null,{"name":"Au Déjeuner de Sousceyrac","street":"r. Pierre-Benoitr. Pierre-Benoit","postalCode":"4619046190","town":"SousceyracSousceyrac","style":"Traditionnel, Classique","etoile":3},null,{"name":"Cayola","street":"76 promenade de Cayola76 promenade de Cayola","postalCode":"8518085180","town":"Talmont-Saint-HilaireTalmont-Saint-Hilaire","style":"Cuisine Moderne, Créative","etoile":3},null,{"name":"La Closerie","street":"bd des Platanesbd des Platanes","postalCode":"8424084240","town":"AnsouisAnsouis","style":"Provençal","etoile":3},null,{"name":"Le Lièvre Gourmand","street":"28 quai du Châtelet28 quai du Châtelet","postalCode":"4500045000","town":"OrléansOrléans","style":"Cuisine Moderne, Créative","etoile":3},null,{"name":"La Ribaudière","street":"2 pl. du Port2 pl. du Port","postalCode":"1620016200","town":"Bourg-CharenteBourg-Charente","style":"Cuisine Moderne, Créative","etoile":3},null,null,null,{"name":"Brikéténia","street":"142 r. de l'Église142 r. de l'Église","postalCode":"6421064210","town":"GuétharyGuéthary","style":"Cuisine Moderne, Créative; Traditionnel, Classique","etoile":3},null,{"name":"La Coquerie","street":"1 chemin du Cimetière-Marin1 chemin du Cimetière-Marin","postalCode":"3420034200","town":"SèteSète","style":"Cuisine Moderne, Créative","etoile":3},null,{"name":"Le Camélia","street":"7 quai Georges Clemenceau7 quai Georges Clemenceau","postalCode":"7838078380","town":"BougivalBougival","style":"Cuisine Moderne, Créative","etoile":3},null,{"name":"La Table d'Eugène","street":"18 r. Eugène-Sue18 r. Eugène-Sue","postalCode":"7501875018","town":"ParisParis","style":"Cuisine Moderne, Créative","etoile":3},null,{"name":"La Rastègue","street":"48 bd du Levant48 bd du Levant","postalCode":"8323083230","town":"Bormes-les-MimosasBormes-les-Mimosas","style":"Cuisine Moderne, Créative","etoile":3},null,{"name":"Miraflores","street":"60 r. Garibaldi60 r. Garibaldi","postalCode":"6900669006","town":"LyonLyon","style":"Péruvien; Gastronomique; Cuisine Moderne, Créative","etoile":3},null,{"name":"Auberge du Dun","street":"3 rte de Dieppe3 rte de Dieppe","postalCode":"7674076740","town":"Le Bourg-DunLe Bourg-Dun","style":"Traditionnel, Classique; Cuisine Moderne, Créative","etoile":3},null,{"name":"La Marande","street":"lieu-dit Mirandelieu-dit Mirande","postalCode":"7126071260","town":"MontbelletMontbellet","style":"Cuisine Moderne, Créative","etoile":3},null,{"name":"Auberge St-Jean","street":"8 r. du Pont8 r. du Pont","postalCode":"3342033420","town":"Saint-Jean-de-BlaignacSaint-Jean-de-Blaignac","style":"Cuisine Moderne, Créative; Traditionnel, Classique","etoile":3},null,{"name":"Vieux Pont","street":"","postalCode":"1239012390","town":"BelcastelBelcastel","style":"Cuisine Moderne, Créative; Traditionnel, Classique","etoile":3},null,{"name":"David Toutain","street":"29 r. Surcouf29 r. Surcouf","postalCode":"7500775007","town":"ParisParis","style":"Cuisine Moderne, Créative","etoile":3},null,{"name":"Tour d'Argent","street":"15 quai de la Tournelle15 quai de la Tournelle","postalCode":"7500575005","town":"ParisParis","style":"Cuisine Moderne, Créative; Traditionnel, Classique","etoile":3},null,{"name":"Le Cerf","street":"30 r. du Gén.-de-Gaulle30 r. du Gén.-de-Gaulle","postalCode":"6752067520","town":"MarlenheimMarlenheim","style":"Cuisine Moderne, Créative; Traditionnel, Classique","etoile":3},null,{"name":"Château du Mont Joly","street":"6 r. du Mont-Joly6 r. du Mont-Joly","postalCode":"3910039100","town":"SampansSampans","style":"Cuisine Moderne, Créative","etoile":3},null,{"name":"L'Aubergade","street":"78 rte Nationale78 rte Nationale","postalCode":"8048080480","town":"DuryDury","style":"Cuisine Moderne, Créative","etoile":3},null,{"name":"Le Jules Verne","street":"2<E>ème</E> étage Tour Eiffel2<E>ème</E> étage Tour Eiffel","postalCode":"7500775007","town":"ParisParis","style":"Cuisine Moderne, Créative","etoile":3},null,{"name":"Mon Plaisir","street":"22 lieu-dit Journal22 lieu-dit Journal","postalCode":"2519025190","town":"ChamesolChamesol","style":"Cuisine Moderne, Créative","etoile":3},null,{"name":"Côté Jardin","street":"14 rte de Bourges14 rte de Bourges","postalCode":"4550045500","town":"GienGien","style":"Cuisine Moderne, Créative","etoile":3},null,null,null,{"name":"Lou Cigalon-Maison Martin","street":"6 bd Carnot6 bd Carnot","postalCode":"0656006560","town":"ValbonneValbonne","style":"Cuisine Moderne, Créative; Gastronomique; Cuisine Régionale Française","etoile":3},null,{"name":"La Robe","street":"3 pl. Reveillère-Lepeaux3 pl. Reveillère-Lepeaux","postalCode":"8560085600","town":"MontaiguMontaigu","style":"Cuisine Moderne, Créative","etoile":3},null,{"name":"Le Pêché Gourmand","street":"2 rte de Gap2 rte de Gap","postalCode":"0510005100","town":"BriançonBriançon","style":"Cuisine Moderne, Créative","etoile":3},null,{"name":"À Contre Sens","street":"8-10 r. des Croisiers8-10 r. des Croisiers","postalCode":"1400014000","town":"CaenCaen","style":"Cuisine Moderne, Créative","etoile":3},null,{"name":"Table - Bruno Verjus","street":"3 r. de Prague3 r. de Prague","postalCode":"7501275012","town":"ParisParis","style":"Cuisine Moderne, Créative","etoile":3},null,{"name":"L'Éveil des Sens","street":"429 bd Paul-Lintier429 bd Paul-Lintier","postalCode":"5310053100","town":"MayenneMayenne","style":"Cuisine Moderne, Créative","etoile":3},null,{"name":"ES","street":"91 r. de Grenelle91 r. de Grenelle","postalCode":"7500775007","town":"ParisParis","style":"Cuisine Moderne, Créative; Gastronomique","etoile":3},null,{"name":"Le Sérac","street":"22 r. de la Comtesse22 r. de la Comtesse","postalCode":"7417074170","town":"Saint-Gervais-les-BainsSaint-Gervais-les-Bains","style":"Cuisine Moderne, Créative","etoile":3},null,{"name":"L'Alchémille","street":"53 rte de Lapoutroie53 rte de Lapoutroie","postalCode":"6824068240","town":"KaysersbergKaysersberg","style":"Cuisine Moderne, Créative","etoile":3},null,{"name":"L'Orée de la Forêt","street":"255 r. de la Forêt255 r. de la Forêt","postalCode":"6060060600","town":"ÉtouyÉtouy","style":"Cuisine Moderne, Créative","etoile":3},null,{"name":"Yam'Tcha","street":"121 r. St-Honoré121 r. St-Honoré","postalCode":"7500175001","town":"ParisParis","style":"Cuisine Moderne, Créative","etoile":3},null,{"name":"Henri et Joseph","street":"4 r. Léo-le-Bourgo4 r. Léo-le-Bourgo","postalCode":"5610056100","town":"LorientLorient","style":"Cuisine Moderne, Créative","etoile":3},null,{"name":"Saturne","street":"17 r. N.-D.-des-Victoires17 r. N.-D.-des-Victoires","postalCode":"7500275002","town":"ParisParis","style":"Cuisine Moderne, Créative","etoile":3},null,{"name":"Château de la Treyne","street":"","postalCode":"4620046200","town":"LacaveLacave","style":"Traditionnel, Classique","etoile":3},null,{"name":"Gavroche","street":"4 r. Klein4 r. Klein","postalCode":"6700067000","town":"StrasbourgStrasbourg","style":"Cuisine Moderne, Créative","etoile":3},null,{"name":"Les Tables de Gaspard","street":"r. Principaler. Principale","postalCode":"0560005600","town":"St-CrépinSt-Crépin","style":"Cuisine Moderne, Créative; Traditionnel, Classique","etoile":3},null,{"name":"Le Montgomerie","street":"356 rte de l'Altiport356 rte de l'Altiport","postalCode":"7312073120","town":"Courchevel 1850Courchevel 1850","style":"Cuisine Moderne, Créative","etoile":3},null,{"name":"Mickaël Féval","street":"11 Petite-Rue-St-Jean11 Petite-Rue-St-Jean","postalCode":"1310013100","town":"Aix-en-ProvenceAix-en-Provence","style":"Cuisine Moderne, Créative; Gastronomique; Traditionnel, Classique; Végétarien","etoile":3},null,null,null,{"name":"Transparence \"La Table de Patrick Fréchin\"","street":"28 r. Stanislas28 r. Stanislas","postalCode":"5400054000","town":"NancyNancy","style":"Cuisine Moderne, Créative; Traditionnel, Classique; Végétarien; Végétalien","etoile":3},null,{"name":"Allium","street":"88 bd de Créac'h-Gwen88 bd de Créac'h-Gwen","postalCode":"2900029000","town":"QuimperQuimper","style":"Cuisine Moderne, Créative","etoile":3},null,{"name":"Le Pot d'Étain","street":"4 av. de la République4 av. de la République","postalCode":"9040090400","town":"DanjoutinDanjoutin","style":"Cuisine Moderne, Créative","etoile":3},null,{"name":"Étude","street":"14 r. Bouquet-de-Longchamp14 r. Bouquet-de-Longchamp","postalCode":"7501675016","town":"ParisParis","style":"Cuisine Moderne, Créative; Traditionnel, Classique","etoile":3},null,{"name":"L'Aromate","street":"2 r. Gustave Deloye2 r. Gustave Deloye","postalCode":"0600006000","town":"NiceNice","style":"Cuisine Moderne, Créative","etoile":3},null,{"name":"Le St-Martin","street":"1 r. du Gén.-Leclerc1 r. du Gén.-Leclerc","postalCode":"2520025200","town":"MontbéliardMontbéliard","style":"Cuisine Moderne, Créative","etoile":3},null,{"name":"Baumanière 1850","street":"rte de Bellecôterte de Bellecôte","postalCode":"7312073120","town":"Courchevel 1850Courchevel 1850","style":"Cuisine Moderne, Créative","etoile":3},null,{"name":"La Vieille Tour","street":"75 r. de la Tour75 r. de la Tour","postalCode":"2219022190","town":"PlérinPlérin","style":"Cuisine Moderne, Créative","etoile":3},null,{"name":"Azimut","street":"273 r. de la Madelon273 r. de la Madelon","postalCode":"7312073120","town":"Courchevel-Saint-BonCourchevel-Saint-Bon","style":"Cuisine Moderne, Créative","etoile":3},null,{"name":"Garance","street":"34 r. St-Dominique34 r. St-Dominique","postalCode":"7500775007","town":"ParisParis","style":"Cuisine Moderne, Créative","etoile":3},null,{"name":"Rodolphe","street":"35 r. Percière35 r. Percière","postalCode":"7600076000","town":"RouenRouen","style":"Cuisine Moderne, Créative","etoile":3},null,{"name":"Le Clos St-Pierre","street":"pl. de la Mairiepl. de la Mairie","postalCode":"0665006650","town":"Le RouretLe Rouret","style":"Provençal","etoile":3},null,{"name":"Garopapilles","street":"62 r. Abbé-de-L'Epée62 r. Abbé-de-L'Epée","postalCode":"3300033000","town":"BordeauxBordeaux","style":"Cuisine Moderne, Créative; Gastronomique","etoile":3},null,{"name":"Le Pavillon","street":"av. du Vergerav. du Verger","postalCode":"6252062520","town":"Le Touquet-Paris-PlageLe Touquet-Paris-Plage","style":"Cuisine Moderne, Créative","etoile":3},null,{"name":"Château de Vauchoux","street":"","postalCode":"7017070170","town":"VauchouxVauchoux","style":"Traditionnel, Classique","etoile":3},null,{"name":"U Santa Marina","street":"Marina di Santa GiuliaMarina di Santa Giulia","postalCode":"2013720137","town":"Porto-VecchioPorto-Vecchio","style":"Cuisine Moderne, Créative","etoile":3},null,{"name":"Palégrié","street":"Les RitonsLes Ritons","postalCode":"3825038250","town":"Corrençon-en-VercorsCorrençon-en-Vercors","style":"Cuisine Moderne, Créative","etoile":3},null,{"name":"Pertinence","street":"29 r. de l'Exposition29 r. de l'Exposition","postalCode":"7500775007","town":"ParisParis","style":"Cuisine Moderne, Créative; Traditionnel, Classique","etoile":3},null,null,null,{"name":"Pierre Reboul","street":"260 r. Guillaume-du-Vair260 r. Guillaume-du-Vair","postalCode":"1354613546","town":"Aix-en-ProvenceAix-en-Provence","style":"Cuisine Moderne, Créative; Traditionnel, Classique","etoile":3},null,{"name":"Le Skiff Club","street":"1 av. Louis-Gaume1 av. Louis-Gaume","postalCode":"3326033260","town":"La Teste-de-BuchLa Teste-de-Buch","style":"Cuisine Moderne, Créative","etoile":3},null,{"name":"Le Grand Cap","street":"chemin du Pharechemin du Phare","postalCode":"1137011370","town":"LeucateLeucate","style":"Cuisine Moderne, Créative","etoile":3},null,{"name":"Sushi B","street":"5 r. Rameau5 r. Rameau","postalCode":"7500275002","town":"ParisParis","style":"Japonais","etoile":3},null,{"name":"La Merise","street":"7 r. d'Eschbach7 r. d'Eschbach","postalCode":"6758067580","town":"LaubachLaubach","style":"Cuisine Moderne, Créative","etoile":3},null,{"name":"Montée","street":"9 r. Léopold-Robert9 r. Léopold-Robert","postalCode":"7501475014","town":"ParisParis","style":"Cuisine Moderne, Créative","etoile":3},null,{"name":"Ima","street":"20 bd de la Tour-d'Auvergne20 bd de la Tour-d'Auvergne","postalCode":"3500035000","town":"RennesRennes","style":"Cuisine Moderne, Créative","etoile":3},null,{"name":"La Table d'Hôtes - Le Quatrième Mur","street":"2 pl. de la Comédie2 pl. de la Comédie","postalCode":"3300033000","town":"BordeauxBordeaux","style":"Cuisine Moderne, Créative","etoile":3},null,{"name":"Jean Sulpice","street":"303 rte du Port303 rte du Port","postalCode":"7429074290","town":"TalloiresTalloires","style":"Cuisine Moderne, Créative","etoile":3},null,{"name":"Quinsou","street":"33 r. de l'Abbé-Grégoire33 r. de l'Abbé-Grégoire","postalCode":"7500675006","town":"ParisParis","style":"Cuisine Moderne, Créative","etoile":3}]