[{"name":"Le Jardin des Remparts","street":"10 rue Hôtel-Dieu10 rue Hôtel-Dieu","postalCode":"2120021200","town":"BeauneBeaune","style":"Cuisine Moderne, Créative; Végétarien; Végétalien","etoile":3},
{"name":"Le Pré Catelan","street":"Route de SuresnesRoute de Suresnes","postalCode":"7501675016","town":"ParisParis","style":"Cuisine Moderne, Créative","etoile":3},
{"name":"Aigue Marine","street":"5 r. M. -Berthelot5 r. M. -Berthelot","postalCode":"2222022220","town":"TréguierTréguier","style":"Cuisine Moderne, Créative; Végétarien; Végétalien; Traditionnel, Classique","etoile":3},
{"name":"Le Saint-Estève","street":"2250 route cézanne D172250 route cézanne D17","postalCode":"1310013100","town":"Le TholonetLe Tholonet","style":"Cuisine Moderne, Créative; Gastronomique; Végétarien; Végétalien","etoile":3},
{"name":"Restaurant du Palais Royal","street":"110 Galerie de Valois - Jardin du Palais Royal110 Galerie de Valois - Jardin du Palais Royal","postalCode":"7500175001","town":"Paris 01Paris 01","style":"Cuisine Moderne, Créative; Gastronomique; Traditionnel, Classique","etoile":3},
{"name":"La Table de Franck Putelat","street":"80 chemin des Anglais80 chemin des Anglais","postalCode":"1100011000","town":"CarcassonneCarcassonne","style":"Cuisine Moderne, Créative; Gastronomique; Végétarien; Végétalien","etoile":3},
{"name":"Christophe Bacquié","street":"Hotel du Castellet Route des Hauts du CampHotel du Castellet Route des Hauts du Camp","postalCode":"8333083330","town":"Le CastelletLe Castellet","style":"Cuisine Moderne, Créative; Gastronomique; Provençal","etoile":3},
{"name":"L'Orangerie du Château","street":"1 Avenue du Docteur Jean Laigret1 Avenue du Docteur Jean Laigret","postalCode":"4100041000","town":"BloisBlois","style":"Cuisine Moderne, Créative; Gastronomique; Traditionnel, Classique","etoile":3},
{"name":"Les Tablettes de Jean-Louis Nomicos","street":"16 Avenue Bugeaud16 Avenue Bugeaud","postalCode":"7501675016","town":"ParisParis","style":"Cuisine Moderne, Créative; Gastronomique; Traditionnel, Classique","etoile":3},
{"name":"Paloma","street":"47 Avenue du Moulin de la Croix47 Avenue du Moulin de la Croix","postalCode":"0625006250","town":"MouginsMougins","style":"Cuisine Moderne, Créative; Gastronomique; Traditionnel, Classique; Végétarien; Végétalien","etoile":3},
{"name":"Patrick Jeffroy","street":"20 rue du Kelenn20 rue du Kelenn","postalCode":"2966029660","town":"CarantecCarantec","style":"Cuisine Moderne, Créative","etoile":3},
{"name":"Le Violon d'Ingres","street":"135 Rue Saint-Dominique135 Rue Saint-Dominique","postalCode":"7500775007","town":"ParisParis","style":"Traditionnel, Classique; Cuisine Moderne, Créative","etoile":3},
{"name":"Mathieu Pacaud - Histoires","street":"85 Avenue Kléber85 Avenue Kléber","postalCode":"7501675016","town":"ParisParis","style":"Cuisine Moderne, Créative; Gastronomique","etoile":3},
{"name":"Le Cloître","street":"Le CloitreLe Cloitre","postalCode":"0430004300","town":"ManeMane","style":"Cuisine Moderne, Créative; Provençal; Gastronomique","etoile":3},
{"name":"L'Almandin","street":"Boulevard de l'AlmandinBoulevard de l'Almandin","postalCode":"6675066750","town":"Saint-CyprienSaint-Cyprien","style":"Cuisine Moderne, Créative; Gastronomique","etoile":3},
{"name":"Le Relais Bernard Loiseau","street":"2, rue d'Argentine2, rue d'Argentine","postalCode":"2121021210","town":"SaulieuSaulieu","style":"Traditionnel, Classique; Cuisine Moderne, Créative; Gastronomique; Cuisine Régionale Française; Végétarien; Végétalien","etoile":3},
{"name":"Le Taillevent","street":"15 Rue Lamennais15 Rue Lamennais","postalCode":"7500875008","town":"ParisParis","style":"Traditionnel, Classique; Gastronomique","etoile":3},
{"name":"Assiette Champenoise","street":"40 av. Paul Vaillant-Couturier40 av. Paul Vaillant-Couturier","postalCode":"5143051430","town":"TinqueuxTinqueux","style":"Cuisine Moderne, Créative; Gastronomique; Végétarien; Végétalien","etoile":3},
{"name":"Numéro 3","street":"3 rue du Général de Gaulle3 rue du Général de Gaulle","postalCode":"7849078490","town":"Le Tremblay-sur-MauldreLe Tremblay-sur-Mauldre","style":"Cuisine Moderne, Créative; Gastronomique","etoile":3},
{"name":"Le Petit Nice","street":"Anse de Maldormé - Corniche J. F. KennedyAnse de Maldormé - Corniche J. F. Kennedy","postalCode":"1300713007","town":"Marseille 07Marseille 07","style":"Poissons, Fruits de Mer; Cuisine Moderne, Créative; Gastronomique; Végétarien; Végétalien","etoile":3},
{"name":"Le Fanal","street":"17 Avenue du Fontaulé17 Avenue du Fontaulé","postalCode":"6665066650","town":"Banyuls-sur-MerBanyuls-sur-Mer","style":"Cuisine Moderne, Créative; Gastronomique; Traditionnel, Classique; Végétarien","etoile":3},
{"name":"Carré des Feuillants","street":"14 rue de Castiglione14 rue de Castiglione","postalCode":"7500175001","town":"Paris 01Paris 01","style":"Cuisine Moderne, Créative; Gastronomique","etoile":3},
{"name":"Dominique Bouchet","street":"11 Rue Treilhard11 Rue Treilhard","postalCode":"7500875008","town":"ParisParis","style":"Traditionnel, Classique; Cuisine Moderne, Créative; Gastronomique","etoile":3},
{"name":"G.a. au Manoir de Rétival","street":"2 rue St. Clair2 rue St. Clair","postalCode":"7649076490","town":"Caudebec-en-CauxCaudebec-en-Caux","style":"Cuisine Moderne, Créative; Cuisine Moderne, Créative","etoile":3},
{"name":"Le Magasin aux Vivres","street":"5 Avenue Ney5 Avenue Ney","postalCode":"5700057000","town":"MetzMetz","style":"Cuisine Moderne, Créative; Gastronomique","etoile":3},
{"name":"La Dame de Pic","street":"20 Rue du Louvre20 Rue du Louvre","postalCode":"7500175001","town":"Paris 01Paris 01","style":"Cuisine Moderne, Créative; Gastronomique; Végétarien; Végétalien","etoile":3},
{"name":"Château de Pray","street":"Rue du CèdreRue du Cèdre","postalCode":"3740037400","town":"AmboiseAmboise","style":"Cuisine Moderne, Créative; Gastronomique; Cuisine Régionale Française; Végétarien; Végétalien","etoile":3},
{"name":"Il Carpaccio","street":"37 avenue Hoche37 avenue Hoche","postalCode":"7500875008","town":"Paris 08Paris 08","style":"Italien; Végétarien; Végétalien","etoile":3},
{"name":"En Marge","street":"1204 route de la Croix-Falgarde1204 route de la Croix-Falgarde","postalCode":"3132031320","town":"AUREVILLEAUREVILLE","style":"Cuisine Moderne, Créative; Gastronomique; Végétarien; Végétalien","etoile":3},
{"name":"Domaine d'Auriac","street":"Route de Saint-HilaireRoute de Saint-Hilaire","postalCode":"1100011000","town":"CarcassonneCarcassonne","style":"Traditionnel, Classique; Cuisine Moderne, Créative; Gastronomique; Végétarien; Végétalien","etoile":3},
{"name":"Les Fresques","street":"D18D18","postalCode":"2424024240","town":"MonestierMonestier","style":"Cuisine Moderne, Créative; Gastronomique; Traditionnel, Classique","etoile":3},
{"name":"Le Brittany","street":"bd Ste-Barbebd Ste-Barbe","postalCode":"2968129681","town":"RoscoffRoscoff","style":"Cuisine Moderne, Créative; Végétarien; Poissons, Fruits de Mer","etoile":3},
{"name":"Le Quincangrogne","street":"7 Rue de l'Abreuvoir7 Rue de l'Abreuvoir","postalCode":"7740077400","town":"DampmartDampmart","style":"Cuisine Moderne, Créative; Gastronomique; Végétarien; Végétalien","etoile":3},
{"name":"J.-M. Pérochon","street":"63 avenue de la Grand'Roche63 avenue de la Grand'Roche","postalCode":"8547085470","town":"Brétignolles-sur-MerBrétignolles-sur-Mer","style":"Cuisine Moderne, Créative; Végétarien; Végétalien","etoile":3},
{"name":"Les Bas-Rupts","street":"181 rte de la Bresse181 rte de la Bresse","postalCode":"8840088400","town":"Bas-RuptsBas-Rupts","style":"Traditionnel, Classique; Cuisine Régionale Française; Végétarien","etoile":3},
{"name":"Auberge des Templiers","street":"D2007D2007","postalCode":"4529045290","town":"Les BézardsLes Bézards","style":"Traditionnel, Classique; Gastronomique; Végétarien; Végétalien","etoile":3},
{"name":"La Coopérative","street":"2A Route de Caladroy2A Route de Caladroy","postalCode":"6672066720","town":"BélestaBélesta","style":"Cuisine Moderne, Créative; Méditerranéen; Gastronomique; Végétarien; Végétalien","etoile":3},
{"name":"Le Clarence","street":"31 Avenue Franklin Delano Roosevelt31 Avenue Franklin Delano Roosevelt","postalCode":"7500875008","town":"Paris 08Paris 08","style":"Cuisine Moderne, Créative; Gastronomique; Végétarien; Végétalien","etoile":3},
{"name":"Raphaël Vionnet","street":"43 Avenue du Général Leclerc43 Avenue du Général Leclerc","postalCode":"7420074200","town":"Thonon-les-BainsThonon-les-Bains","style":"Cuisine Moderne, Créative; Gastronomique; Végétarien; Végétalien","etoile":3},
{"name":"Yoann Conte","street":"13 Vieille-Route-des-Pensières13 Vieille-Route-des-Pensières","postalCode":"7429074290","town":"Veyrier-du-LacVeyrier-du-Lac","style":"Cuisine Moderne, Créative; Gastronomique; Traditionnel, Classique; Végétarien","etoile":3},
{"name":"L'Atelier d'Edmond","street":"au Fornetau Fornet","postalCode":"7315073150","town":"Val-d'IsèreVal-d'Isère","style":"Cuisine Moderne, Créative; Gastronomique; Végétarien; Végétalien","etoile":3},
{"name":"Maison Clovis","street":"19 bd Brotteaux19 bd Brotteaux","postalCode":"6900669006","town":"LyonLyon","style":"Cuisine Moderne, Créative; Gastronomique","etoile":3},
{"name":"Le Bénaton","street":"25 Rue du Faubourg-Bretonnière25 Rue du Faubourg-Bretonnière","postalCode":"2120021200","town":"BEAUNEBEAUNE","style":"Cuisine Moderne, Créative","etoile":3},
{"name":"Relais de la Poste","street":"24 avenue de Maremne24 avenue de Maremne","postalCode":"4014040140","town":"MagescqMagescq","style":"Traditionnel, Classique; Gastronomique","etoile":3},
{"name":"Chez Michèle","street":"57 rue Principale57 rue Principale","postalCode":"5781057810","town":"LanguimbergLanguimberg","style":"Cuisine Moderne, Créative","etoile":3},
{"name":"L'Aparté","street":"21 Rue de l’Europe21 Rue de l’Europe","postalCode":"3185031850","town":"MONTRABEMONTRABE","style":"Cuisine Moderne, Créative; Gastronomique","etoile":3},
{"name":"Dyades au Domaine des Étangs","street":"Les EtangsLes Etangs","postalCode":"1631016310","town":"MASSIGNACMASSIGNAC","style":"Cuisine Moderne, Créative; Gastronomique; Cuisine Régionale Française; Végétarien","etoile":3},
{"name":"L'Auberge Basque","street":"quartier Helbarronquartier Helbarron","postalCode":"6431064310","town":"Saint-Pée-sur-NivelleSaint-Pée-sur-Nivelle","style":"Cuisine Moderne, Créative; Traditionnel, Classique; Végétarien; Végétalien","etoile":3},
{"name":"Restaurant du Château","street":"15 avenue des Reynats15 avenue des Reynats","postalCode":"2465024650","town":"ChanceladeChancelade","style":"Cuisine Moderne, Créative; Gastronomique; Végétarien; Végétalien","etoile":3},
{"name":"Château de Courban","street":"7 rue du Lavoir7 rue du Lavoir","postalCode":"2152021520","town":"CourbanCourban","style":"Cuisine Moderne, Créative; Gastronomique; Végétarien; Végétalien; Traditionnel, Classique","etoile":3},
{"name":"William Frachot","street":"5 rue Michelet5 rue Michelet","postalCode":"2100021000","town":"DIJONDIJON","style":"Cuisine Moderne, Créative; Gastronomique; Végétarien; Végétalien","etoile":3},
{"name":"Le Pergolèse","street":"40 Rue Pergolèse40 Rue Pergolèse","postalCode":"7511675116","town":"ParisParis","style":"Traditionnel, Classique; Cuisine Moderne, Créative; Gastronomique; Végétarien; Végétalien","etoile":3},
{"name":"Loiseau des Vignes","street":"31 Rue Jean Francois Maufoux31 Rue Jean Francois Maufoux","postalCode":"2120021200","town":"BeauneBeaune","style":"Cuisine Moderne, Créative; Traditionnel, Classique; Cuisine Régionale Française; Gastronomique; Végétarien; Végétalien","etoile":3},
{"name":"Pierre Orsi","street":"Place KléberPlace Kléber","postalCode":"6900669006","town":"Lyon 06Lyon 06","style":"Traditionnel, Classique; Cuisine Moderne, Créative; Gastronomique; Végétarien; Végétalien","etoile":3},
{"name":"Initial","street":"24 Rue Saint-Manvieu24 Rue Saint-Manvieu","postalCode":"1400014000","town":"CaenCaen","style":"Cuisine Moderne, Créative; Gastronomique; Traditionnel, Classique; Normand; Végétarien; Végétalien","etoile":3},
{"name":"Julien Binz","street":"7 Rue des Cigognes7 Rue des Cigognes","postalCode":"6877068770","town":"AmmerschwihrAmmerschwihr","style":"Cuisine Moderne, Créative; Gastronomique; Traditionnel, Classique; Végétarien","etoile":3},
{"name":"Alléno Paris au Pavillon Ledoyen","street":"8 avenue Dutuit8 avenue Dutuit","postalCode":"7500875008","town":"ParisParis","style":"Cuisine Moderne, Créative","etoile":3},
{"name":"Faventia","street":"3100 route de Bagnols-en-Forêt3100 route de Bagnols-en-Forêt","postalCode":"8344083440","town":"TourrettesTourrettes","style":"Cuisine Moderne, Créative; Gastronomique; Végétarien","etoile":3},
{"name":"Le M","street":"22 r. du Cdt-Drogou22 r. du Cdt-Drogou","postalCode":"2920029200","town":"BrestBrest","style":"Cuisine Moderne, Créative; Gastronomique","etoile":3},
{"name":"Le Baudelaire","street":"8 rue Duphot8 rue Duphot","postalCode":"7500175001","town":"Paris 01Paris 01","style":"Cuisine Moderne, Créative; Gastronomique","etoile":3},
{"name":"Le Prince Noir - Vivien Durand","street":"1 rue du Prince Noir1 rue du Prince Noir","postalCode":"3331033310","town":"LormontLormont","style":"Cuisine Moderne, Créative; Gastronomique","etoile":3},
{"name":"Le Chantecler","street":"37 Promenade des Anglais37 Promenade des Anglais","postalCode":"0600006000","town":"NICENICE","style":"Cuisine Moderne, Créative; Gastronomique","etoile":3},
{"name":"Benoit","street":"20 Rue St-Martin20 Rue St-Martin","postalCode":"7500475004","town":"Paris 04Paris 04","style":"Traditionnel, Classique","etoile":3},
{"name":"Entre Vigne et Garrigue","street":"600 route de Saint Bruno600 route de Saint Bruno","postalCode":"3013130131","town":"PujautPujaut","style":"Cuisine Moderne, Créative; Traditionnel, Classique; Gastronomique; Végétarien; Végétalien","etoile":3},
{"name":"Le Bouche à Oreille","street":"11 r. de la Chapelle11 r. de la Chapelle","postalCode":"9115091150","town":"BoutervilliersBoutervilliers","style":"Cuisine Moderne, Créative; Gastronomique; Végétarien; Végétalien","etoile":3},
{"name":"Maximin Hellio","street":"64 Rue Gambetta64 Rue Gambetta","postalCode":"1480014800","town":"DEAUVILLEDEAUVILLE","style":"Cuisine Moderne, Créative; Gastronomique; Végétarien","etoile":3},
{"name":"L'Oasis","street":"6 rue Jean-Honoré Carle6 rue Jean-Honoré Carle","postalCode":"0621006210","town":"La NapouleLa Napoule","style":"Cuisine Moderne, Créative; Gastronomique; Végétarien; Végétalien","etoile":3},
{"name":"Une Table au Sud","street":"2 quai du Port2 quai du Port","postalCode":"1300213002","town":"MarseilleMarseille","style":"Cuisine Moderne, Créative","etoile":3},
{"name":"Auberge La Pomme d'Api","street":"49 r. Verderel49 r. Verderel","postalCode":"2925029250","town":"Saint-Pol-de-LéonSaint-Pol-de-Léon","style":"Cuisine Moderne, Créative; Gastronomique; Végétarien; Végétalien","etoile":3},
{"name":"Le Corot","street":"55 Rue de Versailles55 Rue de Versailles","postalCode":"9241092410","town":"VILLE-D'AVRAYVILLE-D'AVRAY","style":"Traditionnel, Classique; Gastronomique","etoile":3},
{"name":"Cyril Attrazic","street":"10 rte du Languedoc10 rte du Languedoc","postalCode":"4813048130","town":"Aumont-AubracAumont-Aubrac","style":"Cuisine Moderne, Créative; Gastronomique; Végétarien; Végétalien","etoile":3},
{"name":"Les Hautes Roches","street":"86 quai de Loire86 quai de Loire","postalCode":"3721037210","town":"RochecorbonRochecorbon","style":"Cuisine Moderne, Créative; Gastronomique; Végétarien; Végétalien","etoile":3},
{"name":"Le Grand Cerf","street":"50 rte Nationale50 rte Nationale","postalCode":"5150051500","town":"MontchenotMontchenot","style":"Traditionnel, Classique; Végétarien; Végétalien","etoile":3},
{"name":"Le Jardin de Benjamin","street":"Route de SalernesRoute de Salernes","postalCode":"8351083510","town":"LorguesLorgues","style":"Cuisine Moderne, Créative; Gastronomique","etoile":3},
{"name":"Le Carrousel","street":"14 rue du Pont de Morge14 rue du Pont de Morge","postalCode":"6335063350","town":"MARINGUESMARINGUES","style":"Cuisine Moderne, Créative; Gastronomique","etoile":3},
{"name":"La Gouesnière","street":"1 Le Limonay1 Le Limonay","postalCode":"3535035350","town":"Saint-Méloir-des-OndesSaint-Méloir-des-Ondes","style":"Cuisine Moderne, Créative; Gastronomique; Poissons, Fruits de Mer; Végétarien; Végétalien","etoile":3},
{"name":"Le Pré du Moulin","street":"rte de Ste-Cécile-les-Vignesrte de Ste-Cécile-les-Vignes","postalCode":"8483084830","town":"Sérignan-du-ComtatSérignan-du-Comtat","style":"Traditionnel, Classique; Végétarien; Végétalien","etoile":3},
{"name":"Villa René Lalique","street":"18 Rue Bellevue18 Rue Bellevue","postalCode":"6729067290","town":"Wingen-sur-ModerWingen-sur-Moder","style":"Cuisine Moderne, Créative; Gastronomique; Végétarien","etoile":3},
{"name":"La Villa Madie","street":"av. du Revestelav. du Revestel","postalCode":"1326013260","town":"CassisCassis","style":"Cuisine Moderne, Créative; Gastronomique; Poissons, Fruits de Mer; Méditerranéen","etoile":3},
{"name":"1912","street":"bd de la Cahottebd de la Cahotte","postalCode":"1436014360","town":"Trouville-sur-MerTrouville-sur-Mer","style":"Cuisine Moderne, Créative; Gastronomique; Fusion; Végétarien","etoile":3},
{"name":"Maison Kieny","street":"7 Rue du Général de Gaulle7 Rue du Général de Gaulle","postalCode":"6840068400","town":"RiedisheimRiedisheim","style":"Cuisine Moderne, Créative","etoile":3},
{"name":"Auberge de l'Ill","street":"2 rue de Collonges-au-Mont d'Or2 rue de Collonges-au-Mont d'Or","postalCode":"6897068970","town":"IllhaeusernIllhaeusern","style":"Traditionnel, Classique; Gastronomique","etoile":3},
{"name":"L'Auberge des Glazicks","street":"7 rue de la Plage7 rue de la Plage","postalCode":"2955029550","town":"PLOMODIERNPLOMODIERN","style":"Cuisine Moderne, Créative; Végétarien; Végétalien","etoile":3},
{"name":"L'Ambroisie","street":"9 Place des Vosges9 Place des Vosges","postalCode":"7500475004","town":"ParisParis","style":"Traditionnel, Classique; Cuisine Moderne, Créative; Gastronomique","etoile":3},
{"name":"La Table des Merville","street":"3 place Richard3 place Richard","postalCode":"3132031320","town":"Castanet-TolosanCastanet-Tolosan","style":"Cuisine Moderne, Créative; Gastronomique; Végétarien; Végétalien; Traditionnel, Classique","etoile":3},
{"name":"Michel Chabran - La Grande Table","street":"29 Avenue du Quarante-Cinquième Parallèle29 Avenue du Quarante-Cinquième Parallèle","postalCode":"2660026600","town":"Pont-de-l'IsèrePont-de-l'Isère","style":"Traditionnel, Classique; Végétarien; Végétalien","etoile":3},
{"name":"L'Odas","street":"Passage Maurice LenfantPassage Maurice Lenfant","postalCode":"7600076000","town":"RouenRouen","style":"Cuisine Moderne, Créative; Gastronomique; Végétarien; Végétalien","etoile":3},
{"name":"Jérôme Brochot","street":"Place BeaubernardPlace Beaubernard","postalCode":"7130071300","town":"Montceau-les-MinesMontceau-les-Mines","style":"Cuisine Moderne, Créative; Cuisine Régionale Française","etoile":3},
{"name":"Le Gabriel","street":"42 Avenue Gabriel42 Avenue Gabriel","postalCode":"7500875008","town":"ParisParis","style":"Cuisine Moderne, Créative; Gastronomique; Végétarien; Végétalien","etoile":3},
{"name":"La Côte Saint-Jacques","street":"14 faubourg de Paris14 faubourg de Paris","postalCode":"8930089300","town":"JoignyJoigny","style":"Cuisine Moderne, Créative; Gastronomique; Végétarien","etoile":3},
{"name":"Domaine des Hauts de Loire","street":"79 rue Gilbert Navard79 rue Gilbert Navard","postalCode":"4115041150","town":"OnzainOnzain","style":"Traditionnel, Classique; Cuisine Moderne, Créative; Végétarien; Végétalien","etoile":3},
{"name":"Le Georges","street":"22 pl. des Épars22 pl. des Épars","postalCode":"2800028000","town":"CHARTRESCHARTRES","style":"Cuisine Moderne, Créative; Gastronomique; Végétarien; Végétalien","etoile":3},
{"name":"Le Castellaras","street":"461 chemin Peymeyan461 chemin Peymeyan","postalCode":"8344083440","town":"FayenceFayence","style":"Provençal; Végétarien; Végétalien","etoile":3},
{"name":"Lucas Carton","street":"9 pl. de la Madeleine9 pl. de la Madeleine","postalCode":"7500875008","town":"Paris 08Paris 08","style":"Cuisine Moderne, Créative; Gastronomique","etoile":3},
{"name":"Le Haut-Allier","street":"LE PONT D ALLEYRASLE PONT D ALLEYRAS","postalCode":"4358043580","town":"AlleyrasAlleyras","style":"Cuisine Moderne, Créative; Végétarien; Végétalien","etoile":3},
{"name":"Auberge de la Tour","street":"Place de la FontainePlace de la Fontaine","postalCode":"1522015220","town":"MARCOLESMARCOLES","style":"Cuisine Moderne, Créative; Gastronomique; Végétarien; Végétalien","etoile":3},
{"name":"L'Amaryllis","street":"chemin de Martoreychemin de Martorey","postalCode":"7110071100","town":"Saint-RémySaint-Rémy","style":"Cuisine Moderne, Créative; Végétarien","etoile":3},
{"name":"La Passagère","street":"33 boulevard E. -Baudoin33 boulevard E. -Baudoin","postalCode":"0616006160","town":"Juan-les-PinsJuan-les-Pins","style":"Cuisine Moderne, Créative; Gastronomique; Végétarien","etoile":3},
{"name":"1131","street":"D 33D 33","postalCode":"2136021360","town":"La Bussière-sur-OucheLa Bussière-sur-Ouche","style":"Cuisine Moderne, Créative; Gastronomique; Végétarien; Végétalien","etoile":3},
{"name":"Shang Palace","street":"10 Avenue d'Iéna10 Avenue d'Iéna","postalCode":"7501675016","town":"Paris 16Paris 16","style":"Chinois; Gastronomique; Végétarien; Végétalien","etoile":3},
{"name":"Le Sénéchal","street":"Sauveterre de RouergueSauveterre de Rouergue","postalCode":"1280012800","town":"Sauveterre-de-RouergueSauveterre-de-Rouergue","style":"Cuisine Moderne, Créative; Végétarien; Végétalien","etoile":3},
{"name":"Loiseau des Ducs","street":"3 Rue Vauban3 Rue Vauban","postalCode":"2100021000","town":"DijonDijon","style":"Cuisine Moderne, Créative; Gastronomique; Traditionnel, Classique; Végétarien; Végétalien","etoile":3},
{"name":"Flaveur","street":"25 Rue Gubernatis25 Rue Gubernatis","postalCode":"0600006000","town":"NiceNice","style":"Cuisine Moderne, Créative; Gastronomique; Méditerranéen; Végétarien; Végétalien","etoile":3},
{"name":"Les Terraillers","street":"11 Route Chemin-Neuf11 Route Chemin-Neuf","postalCode":"0641006410","town":"BiotBiot","style":"Cuisine Moderne, Créative; Traditionnel, Classique; Gastronomique; Végétarien; Provençal","etoile":3},
{"name":"Jean-Luc Tartarin","street":"Square Saint-RochSquare Saint-Roch","postalCode":"7660076600","town":"Le HavreLe Havre","style":"Cuisine Moderne, Créative; Végétarien; Végétalien","etoile":3},
{"name":"Le Jasmin","street":"Lieu-dit LalandeLieu-dit Lalande","postalCode":"4714047140","town":"Saint-Sylvestre-sur-LotSaint-Sylvestre-sur-Lot","style":"Cuisine Moderne, Créative; Gastronomique; Cuisines du Sud-Ouest; Végétarien; Végétalien; Bistrot","etoile":3},
{"name":"La Table de l'Espadon","street":"15 Place Vendôme15 Place Vendôme","postalCode":"7500175001","town":"ParisParis","style":"Cuisine Moderne, Créative; Gastronomique","etoile":3},
{"name":"Chapelle Saint-Martin","street":"33, Saint Martin du Fault33, Saint Martin du Fault","postalCode":"8751087510","town":"NieulNieul","style":"Cuisine Moderne, Créative; Gastronomique; Traditionnel, Classique; Végétarien; Végétalien","etoile":3},
{"name":"La Scène Thélème","street":"18 Rue Troyon18 Rue Troyon","postalCode":"7501775017","town":"PARISPARIS","style":"Cuisine Moderne, Créative; Gastronomique; Cuisine Régionale Française","etoile":3},
{"name":"Régis et Jacques Marcon","street":"LarsiallasLarsiallas","postalCode":"4329043290","town":"SAINT-BONNET-LE-FROIDSAINT-BONNET-LE-FROID","style":"Cuisine Moderne, Créative","etoile":3},
{"name":"Pur' - Jean-François Rouquette","street":"5 r. de la Paix5 r. de la Paix","postalCode":"7500275002","town":"Paris 02Paris 02","style":"Cuisine Moderne, Créative; Végétarien; Végétalien","etoile":3},
{"name":"Le P'tit Polyte","street":"2 Rue de la Chapelle2 Rue de la Chapelle","postalCode":"3886038860","town":"Les Deux AlpesLes Deux Alpes","style":"Cuisine Moderne, Créative; Gastronomique; Cuisine Régionale Française; Végétarien; Végétalien","etoile":3},
{"name":"Ô Saveurs","street":"8 place Ormeaux au village8 place Ormeaux au village","postalCode":"3118031180","town":"ROUFFIAC-TOLOSANROUFFIAC-TOLOSAN","style":"Cuisine Moderne, Créative; Gastronomique; Végétarien; Végétalien","etoile":3},
{"name":"Le Roc Alto","street":"Quartier La VilleQuartier La Ville","postalCode":"0535005350","town":"SAINT-VERANSAINT-VERAN","style":"Cuisine Moderne, Créative; Gastronomique","etoile":3},
{"name":"Le Candille","street":"bd C. Rebuffelbd C. Rebuffel","postalCode":"0625006250","town":"MouginsMougins","style":"Cuisine Moderne, Créative; Végétarien; Végétalien","etoile":3},
{"name":"Hélène Darroze","street":"4 rue d'Assas4 rue d'Assas","postalCode":"7500675006","town":"Paris 06Paris 06","style":"Cuisine Moderne, Créative; Cuisines du Sud-Ouest; Végétarien; Végétalien","etoile":3},
{"name":"L'Atelier de Gaztelur","street":"Chemin de GastelhurChemin de Gastelhur","postalCode":"6420064200","town":"ArcanguesArcangues","style":"Cuisine Moderne, Créative; Gastronomique","etoile":3},
{"name":"Ed.Em","street":"4 imp. Chenevottes4 imp. Chenevottes","postalCode":"2119021190","town":"Chassagne-MontrachetChassagne-Montrachet","style":"Cuisine Moderne, Créative; Gastronomique","etoile":3},
{"name":"L'Épuisette","street":"158 Vallon-des-Auffes158 Vallon-des-Auffes","postalCode":"1300713007","town":"MarseilleMarseille","style":"Poissons, Fruits de Mer; Cuisine Moderne, Créative; Végétarien; Végétalien","etoile":3},
{"name":"Auberge à la Bonne Idée","street":"3 rue des Meuniers3 rue des Meuniers","postalCode":"6035060350","town":"SAINT-JEAN-AUX-BOISSAINT-JEAN-AUX-BOIS","style":"Traditionnel, Classique; Cuisine Moderne, Créative","etoile":3},
{"name":"Cobéa","street":"11 r. Raymond Losserand11 r. Raymond Losserand","postalCode":"7501475014","town":"Paris 14Paris 14","style":"Cuisine Moderne, Créative; Végétarien; Végétalien","etoile":3},
{"name":"Alcyone","street":"1 Place Daviel1 Place Daviel","postalCode":"1300213002","town":"MARSEILLEMARSEILLE","style":"Cuisine Moderne, Créative; Gastronomique","etoile":3},
{"name":"La Nouvelle Auberge","street":"9 route Nationale9 route Nationale","postalCode":"6823068230","town":"Wihr-au-ValWihr-au-Val","style":"Traditionnel, Classique; Gastronomique; Brasserie; Végétarien; Végétalien","etoile":3},
{"name":"Hostellerie de Plaisance","street":"5 place du Clocher5 place du Clocher","postalCode":"3333033330","town":"Saint-EmilionSaint-Emilion","style":"Cuisine Moderne, Créative; Gastronomique","etoile":3},
{"name":"L'Escarbille","street":"8 Rue de Vélizy8 Rue de Vélizy","postalCode":"9219092190","town":"MeudonMeudon","style":"Cuisine Moderne, Créative; Gastronomique","etoile":3},
{"name":"Sylvestre","street":"79 rue St-Dominique79 rue St-Dominique","postalCode":"7500775007","town":"ParisParis","style":"Cuisine Moderne, Créative; Gastronomique; Végétarien; Végétalien","etoile":3},
{"name":"Le Belrose","street":"Boulevard des CrêtesBoulevard des Crêtes","postalCode":"8358083580","town":"GassinGassin","style":"Cuisine Moderne, Créative; Gastronomique","etoile":3},
{"name":"Épicure","street":"112 r. Fg St-Honoré112 r. Fg St-Honoré","postalCode":"7500875008","town":"Paris 08Paris 08","style":"Cuisine Moderne, Créative; Gastronomique","etoile":3},
{"name":"Maison Lameloise","street":"36 pl. d'Armes36 pl. d'Armes","postalCode":"7115071150","town":"ChagnyChagny","style":"Cuisine Moderne, Créative; Gastronomique","etoile":3},
{"name":"La Bergerie","street":"D999D999","postalCode":"6349063490","town":"SarpoilSarpoil","style":"Cuisine Moderne, Créative; Gastronomique; Végétarien","etoile":3},
{"name":"Ar Men Du","street":"47 rue des îles47 rue des îles","postalCode":"2992029920","town":"NévezNévez","style":"Cuisine Moderne, Créative; Gastronomique; Poissons, Fruits de Mer; Végétarien; Végétalien","etoile":3},
{"name":"Armani Ristorante","street":"149 Boulevard Saint-Germain149 Boulevard Saint-Germain","postalCode":"7500675006","town":"ParisParis","style":"Italien; Gastronomique; Cuisine Moderne, Créative","etoile":3},
{"name":"Le Grand Véfour","street":"17 rue de Beaujolais17 rue de Beaujolais","postalCode":"7500175001","town":"ParisParis","style":"Cuisine Moderne, Créative; Gastronomique; Végétarien; Végétalien","etoile":3},
{"name":"Thierry Drapeau","street":"La ChabotterieLa Chabotterie","postalCode":"8526085260","town":"Saint-Sulpice-le-VerdonSaint-Sulpice-le-Verdon","style":"Cuisine Moderne, Créative; Gastronomique; Végétarien","etoile":3},
{"name":"Auberge de Clochemerle","street":"Rue Gabriel-ChevallierRue Gabriel-Chevallier","postalCode":"6946069460","town":"VAUX-EN-BEAUJOLAISVAUX-EN-BEAUJOLAIS","style":"Cuisine Moderne, Créative; Gastronomique","etoile":3},
{"name":"Le Jardin des Plumes","street":"1 Rue du Milieu1 Rue du Milieu","postalCode":"2762027620","town":"GivernyGiverny","style":"Cuisine Moderne, Créative; Gastronomique; Végétarien; Végétalien","etoile":3},
{"name":"L'Atelier de Jean-Luc Rabanel","street":"7 r. des Carmes7 r. des Carmes","postalCode":"1320013200","town":"ArlesArles","style":"Cuisine Moderne, Créative","etoile":3},
{"name":"Le Farçon","street":"immeuble la Kalinkaimmeuble la Kalinka","postalCode":"7312573125","town":"La TaniaLa Tania","style":"Cuisine Moderne, Créative; Gastronomique; Cuisine Régionale Française","etoile":3},
{"name":"La Maison d'à Côté","street":"17 rue de Chambord17 rue de Chambord","postalCode":"4135041350","town":"MontlivaultMontlivault","style":"Cuisine Moderne, Créative; Gastronomique; Végétarien; Végétalien","etoile":3},
{"name":"Il Cortile","street":"11 r. des Franciscains11 r. des Franciscains","postalCode":"6810068100","town":"MulhouseMulhouse","style":"Italien; Gastronomique; Poissons, Fruits de Mer; Végétarien; Végétalien","etoile":3},
{"name":"Le Domaine de la Corniche","street":"5 rte de la Corniche5 rte de la Corniche","postalCode":"7827078270","town":"RolleboiseRolleboise","style":"Cuisine Moderne, Créative; Gastronomique","etoile":3},
{"name":"Jérôme Nutile - Le Mas de Boudan","street":"351 Chemin du Mas de Boudan351 Chemin du Mas de Boudan","postalCode":"3000030000","town":"NîmesNîmes","style":"Cuisine Moderne, Créative; Gastronomique; Végétarien","etoile":3},
{"name":"La Promenade","street":"11 rue du Savoureulx11 rue du Savoureulx","postalCode":"3735037350","town":"Le Petit-PressignyLe Petit-Pressigny","style":"Cuisine Moderne, Créative","etoile":3},
{"name":"Le Patio","street":"10 bd de la Plage10 bd de la Plage","postalCode":"3312033120","town":"ArcachonArcachon","style":"Cuisine Moderne, Créative; Végétarien; Végétalien","etoile":3},
{"name":"Nakatani","street":"27 Rue Pierre Leroux27 Rue Pierre Leroux","postalCode":"7500775007","town":"PARISPARIS","style":"Cuisine Moderne, Créative; Gastronomique; Traditionnel, Classique","etoile":3},
{"name":"Auberge au Boeuf","street":"Rue de l'EgliseRue de l'Eglise","postalCode":"6777067770","town":"SessenheimSessenheim","style":"Cuisine Moderne, Créative","etoile":3},
{"name":"Le Cap","street":"71 Boulevard du Général-de-Gaulle71 Boulevard du Général-de-Gaulle","postalCode":"0623006230","town":"SAINT-JEAN-CAP-FERRATSAINT-JEAN-CAP-FERRAT","style":"Cuisine Moderne, Créative; Cuisine Régionale Française; Provençal","etoile":3},
{"name":"Xavier Mathieu","street":"Route de MursRoute de Murs","postalCode":"8422084220","town":"JoucasJoucas","style":"Cuisine Moderne, Créative; Végétarien; Végétalien; Provençal","etoile":3},
{"name":"L'Olivier","street":"25 Route des Carles25 Route des Carles","postalCode":"8399083990","town":"Saint-TropezSaint-Tropez","style":"Cuisine Moderne, Créative; Gastronomique; Cuisine Régionale Française; Traditionnel, Classique","etoile":3},
{"name":"Kei","street":"5 rue du Coq-Héron5 rue du Coq-Héron","postalCode":"7500175001","town":"Paris 01Paris 01","style":"Cuisine Moderne, Créative","etoile":3},
{"name":"La Grande Maison de Bernard Magrez","street":"10 Rue Labottière10 Rue Labottière","postalCode":"3300033000","town":"BordeauxBordeaux","style":"Cuisine Moderne, Créative; Gastronomique; Végétarien","etoile":3},
{"name":"Les Terrasses d'Uriage","street":"pl. Déesse-Hygiepl. Déesse-Hygie","postalCode":"3841038410","town":"Uriage-les-BainsUriage-les-Bains","style":"Cuisine Moderne, Créative; Gastronomique; Végétarien; Végétalien","etoile":3},
{"name":"Takao Takano","street":"33 Rue Malesherbes33 Rue Malesherbes","postalCode":"6900669006","town":"Lyon 06Lyon 06","style":"Cuisine Moderne, Créative; Gastronomique","etoile":3},
{"name":"La Table de la Bergerie","street":"La BergerieLa Bergerie","postalCode":"4938049380","town":"Champ-sur-LayonChamp-sur-Layon","style":"Cuisine Moderne, Créative; Gastronomique","etoile":3},
{"name":"L'O des Vignes","street":"r. du Bourgr. du Bourg","postalCode":"7196071960","town":"FuisséFuissé","style":"Cuisine Moderne, Créative; Gastronomique; Végétarien; Végétalien","etoile":3},
{"name":"La Gourmandière - La Table d'Olivier","street":"D126D126","postalCode":"5600056000","town":"VannesVannes","style":"Cuisine Moderne, Créative; Gastronomique; Végétarien; Végétalien","etoile":3},
{"name":"Les Ducs de Lorraine","street":"5 av. Provence5 av. Provence","postalCode":"8800088000","town":"ÉpinalÉpinal","style":"Cuisine Moderne, Créative; Gastronomique","etoile":3},
{"name":"AM par Alexandre Mazzia","street":"9 rue François Rocca9 rue François Rocca","postalCode":"1300813008","town":"MarseilleMarseille","style":"Cuisine Moderne, Créative; Gastronomique; Végétarien; Végétalien","etoile":3},
{"name":"Les Clefs d'Argent","street":"333 Avenue des Martyrs de la Résistance333 Avenue des Martyrs de la Résistance","postalCode":"4000040000","town":"Mont-de-MarsanMont-de-Marsan","style":"Cuisine Moderne, Créative; Gastronomique; Végétarien; Végétalien","etoile":3},
{"name":"Dominique Bucaille","street":"715 av. des Savels715 av. des Savels","postalCode":"0410004100","town":"ManosqueManosque","style":"Cuisine Moderne, Créative; Gastronomique","etoile":3},
{"name":"René et Maxime Meilleur","street":"Saint MarcelSaint Marcel","postalCode":"7344073440","town":"Saint-Martin-de-BellevilleSaint-Martin-de-Belleville","style":"Cuisine Moderne, Créative; Gastronomique; Cuisine Régionale Française","etoile":3},
{"name":"Le Clair de la Plume","street":"2 Place du Mail2 Place du Mail","postalCode":"2623026230","town":"GrignanGrignan","style":"Cuisine Moderne, Créative; Gastronomique; Provençal; Végétarien","etoile":3},
{"name":"L'Écrin","street":"10 place de la Concorde10 place de la Concorde","postalCode":"7500875008","town":"ParisParis","style":"Cuisine Moderne, Créative; Gastronomique","etoile":3},
{"name":"Apicius","street":"Marché Saint Pierre 1 étageMarché Saint Pierre 1 étage","postalCode":"6300063000","town":"Clermont-FerrandClermont-Ferrand","style":"Cuisine Moderne, Créative; Gastronomique; Végétarien","etoile":3},
{"name":"Jean-Claude Leclerc","street":"12 rue St-Adjutor12 rue St-Adjutor","postalCode":"6300063000","town":"Clermont-FerrandClermont-Ferrand","style":"Cuisine Moderne, Créative; Gastronomique","etoile":3},
{"name":"SEPT","street":"7 pl. St-Sernin7 pl. St-Sernin","postalCode":"3100031000","town":"ToulouseToulouse","style":"Cuisine Moderne, Créative; Gastronomique; Végétarien","etoile":3},
{"name":"Restaurant des Rois","street":"5 Boulevard du Maréchal Leclerc5 Boulevard du Maréchal Leclerc","postalCode":"0631006310","town":"Beaulieu-sur-MerBeaulieu-sur-Mer","style":"Cuisine Moderne, Créative; Méditerranéen; Végétarien","etoile":3},
{"name":"Arpège","street":"84 Rue de Varenne84 Rue de Varenne","postalCode":"7500775007","town":"ParisParis","style":"Cuisine Moderne, Créative; Gastronomique","etoile":3},
{"name":"La Grange de Belle-Église","street":"28 bd René-Aimé-Lagabrielle28 bd René-Aimé-Lagabrielle","postalCode":"6054060540","town":"Belle-ÉgliseBelle-Église","style":"Traditionnel, Classique","etoile":3},
{"name":"Les Bories","street":"rte de l'Abbaye de Sénanquerte de l'Abbaye de Sénanque","postalCode":"8422084220","town":"GordesGordes","style":"Cuisine Moderne, Créative; Gastronomique","etoile":3},
{"name":"Le Kintessence","street":"Rue des ClarinesRue des Clarines","postalCode":"7312073120","town":"Courchevel 1850Courchevel 1850","style":"Cuisine Moderne, Créative; Cuisine Moderne, Créative; Gastronomique; Végétarien; Végétalien","etoile":3},
{"name":"La Renaissance","street":"20 av. 2e-Division-Blindée20 av. 2e-Division-Blindée","postalCode":"6120061200","town":"ArgentanArgentan","style":"Cuisine Moderne, Créative","etoile":3},
{"name":"Relais Louis XIII","street":"8 Rue des Grands Augustins8 Rue des Grands Augustins","postalCode":"7500675006","town":"ParisParis","style":"Traditionnel, Classique; Gastronomique","etoile":3},
{"name":"La Table Breizh Café","street":"7 quai Thomas7 quai Thomas","postalCode":"3526035260","town":"CancaleCancale","style":"Cuisine Moderne, Créative; Japonais; Végétarien; Végétalien","etoile":3},
{"name":"Le Musigny","street":"90 Avenue de Liege90 Avenue de Liege","postalCode":"5930059300","town":"ValenciennesValenciennes","style":"Cuisine Moderne, Créative; Gastronomique","etoile":3},
{"name":"La Cachette","street":"Rue des CévennesRue des Cévennes","postalCode":"2600026000","town":"ValenceValence","style":"Cuisine Moderne, Créative; Gastronomique; Végétarien; Végétalien","etoile":3},
{"name":"Le Bec au Cauchois","street":"22 Rue André Fiquet22 Rue André Fiquet","postalCode":"7654076540","town":"ValmontValmont","style":"Cuisine Moderne, Créative; Gastronomique","etoile":3},
{"name":"L'Atelier du Peintre","street":"1 Rue Schongauer1 Rue Schongauer","postalCode":"6800068000","town":"ColmarColmar","style":"Cuisine Moderne, Créative; Gastronomique; Végétarien; Végétalien","etoile":3},
{"name":"Le France","street":"8 place Cupillard8 place Cupillard","postalCode":"2513025130","town":"VILLERS-LE-LACVILLERS-LE-LAC","style":"Cuisine Moderne, Créative; Gastronomique","etoile":3},
{"name":"La Table","street":"32 Rue de la Barre32 Rue de la Barre","postalCode":"5900059000","town":"LilleLille","style":"Cuisine Moderne, Créative","etoile":3},
{"name":"Les Loges","street":"6 r. du Boeuf6 r. du Boeuf","postalCode":"6900569005","town":"Lyon 05Lyon 05","style":"Cuisine Moderne, Créative; Gastronomique","etoile":3},
{"name":"114, Faubourg","street":"114 r. Fg St-Honoré114 r. Fg St-Honoré","postalCode":"7500875008","town":"Paris 08Paris 08","style":"Cuisine Moderne, Créative; Végétarien; Végétalien","etoile":3},
{"name":"Le Lido","street":"42 av. Napoléon-III42 av. Napoléon-III","postalCode":"2011020110","town":"ProprianoPropriano","style":"Corse; Cuisine Moderne, Créative; Gastronomique; Poissons, Fruits de Mer","etoile":3},
{"name":"La Table du Gourmet","street":"5 rue 1ère Armée5 rue 1ère Armée","postalCode":"6834068340","town":"RiquewihrRiquewihr","style":"Cuisine Moderne, Créative; Gastronomique; Végétarien","etoile":3},
{"name":"Skab","street":"7 Rue de la République7 Rue de la République","postalCode":"3000030000","town":"nimesnimes","style":"Cuisine Moderne, Créative; Gastronomique","etoile":3},
{"name":"Auberge de la Charme","street":"12 r. de la Charme12 r. de la Charme","postalCode":"2137021370","town":"PrenoisPrenois","style":"Cuisine Moderne, Créative; Cuisine Moderne, Créative; Végétarien; Végétalien","etoile":3},
{"name":"Au Crocodile","street":"10 rue de L'Outre10 rue de L'Outre","postalCode":"6700067000","town":"STRASBOURGSTRASBOURG","style":"Traditionnel, Classique; Gastronomique; Cuisine Moderne, Créative","etoile":3},
{"name":"La Lorraine","street":"80 rue Principale80 rue Principale","postalCode":"5733057330","town":"ZoufftgenZoufftgen","style":"Cuisine Moderne, Créative; Gastronomique","etoile":3},
{"name":"Le Bistro des Saveurs","street":"35 Rue de Sélestat35 Rue de Sélestat","postalCode":"6721067210","town":"ObernaiObernai","style":"Cuisine Moderne, Créative; Gastronomique; Bistronomique; Végétarien; Végétalien","etoile":3},
{"name":"La Maison dans le Parc","street":"3 r. Ste-Catherine3 r. Ste-Catherine","postalCode":"5400054000","town":"NancyNancy","style":"Cuisine Moderne, Créative; Gastronomique","etoile":3},
{"name":"Le Vieux Logis","street":"Le BourgLe Bourg","postalCode":"2451024510","town":"TrémolatTrémolat","style":"Traditionnel, Classique","etoile":3},
{"name":"La Table de Manville","street":"Domaine de Manville - D27Domaine de Manville - D27","postalCode":"1352013520","town":"LES-BAUX-DE-PROVENCELES-BAUX-DE-PROVENCE","style":"Cuisine Moderne, Créative; Gastronomique; Traditionnel, Classique","etoile":3},
{"name":"La Palmeraie","street":"81 Boulevard de Gigaro81 Boulevard de Gigaro","postalCode":"8342083420","town":"La Croix-ValmerLa Croix-Valmer","style":"Cuisine Moderne, Créative; Provençal; Gastronomique; Végétarien","etoile":3},
{"name":"Alan Geaam","street":"19 Rue Lauriston19 Rue Lauriston","postalCode":"7501675016","town":"ParisParis","style":"Cuisine Moderne, Créative; Gastronomique","etoile":3},
{"name":"Auberge des Saints Pères","street":"212 av. de Nonneville212 av. de Nonneville","postalCode":"9360093600","town":"Aulnay-sous-BoisAulnay-sous-Bois","style":"Cuisine Moderne, Créative; Traditionnel, Classique","etoile":3},
{"name":"Auberge du Cellier","street":"1 Rue de Sainte-Eugénie1 Rue de Sainte-Eugénie","postalCode":"6672066720","town":"MontnerMontner","style":"Cuisine Moderne, Créative; Végétarien; Végétalien","etoile":3},
{"name":"La Ferme de l'Hospital","street":"rte du golfrte du golf","postalCode":"7416074160","town":"BosseyBossey","style":"Cuisine Moderne, Créative","etoile":3},
{"name":"Auberge Grand'Maison","street":"1 r. Léon-le-Cerf1 r. Léon-le-Cerf","postalCode":"2253022530","town":"Mûr-de-BretagneMûr-de-Bretagne","style":"Cuisine Moderne, Créative; Gastronomique","etoile":3},
{"name":"Les Trois Soleils de Montal","street":"St-Jean-LespinasseSt-Jean-Lespinasse","postalCode":"4640046400","town":"Saint-CéréSaint-Céré","style":"Cuisine Moderne, Créative; Gastronomique; Traditionnel, Classique","etoile":3},
{"name":"I Salti","street":"route du Reginuroute du Reginu","postalCode":"2022620226","town":"BelgodèreBelgodère","style":"Cuisine Moderne, Créative","etoile":3},
{"name":"Flaveurs","street":"32 Grande-Rue32 Grande-Rue","postalCode":"2600026000","town":"ValenceValence","style":"Cuisine Moderne, Créative; Gastronomique","etoile":3},
{"name":"Le Beaulieu","street":"34 Bis Place République34 Bis Place République","postalCode":"7200072000","town":"Le MansLe Mans","style":"Cuisine Moderne, Créative; Gastronomique","etoile":3},
{"name":"L'Axel","street":"43 r. de France43 r. de France","postalCode":"7730077300","town":"FontainebleauFontainebleau","style":"Cuisine Moderne, Créative; Gastronomique","etoile":3},
{"name":"Maison Jeunet","street":"9 r. de l'Hôtel-de-Ville9 r. de l'Hôtel-de-Ville","postalCode":"3960039600","town":"ArboisArbois","style":"Cuisine Moderne, Créative; Gastronomique","etoile":3},
{"name":"Christopher Coutanceau","street":"Promenade de la ConcurrencePromenade de la Concurrence","postalCode":"1700017000","town":"La RochelleLa Rochelle","style":"Poissons, Fruits de Mer; Cuisine Moderne, Créative; Gastronomique","etoile":3},
{"name":"L'Étang du Moulin","street":"5 chemin de l'Etang du Moulin5 chemin de l'Etang du Moulin","postalCode":"2521025210","town":"BonnétageBonnétage","style":"Cuisine Moderne, Créative; Brasserie; Gastronomique; Végétarien","etoile":3},
{"name":"Une Île","street":"9 r. Max-Richard9 r. Max-Richard","postalCode":"4900049000","town":"AngersAngers","style":"Cuisine Moderne, Créative","etoile":3},
{"name":"La Chassagnette","street":"route du Sambucroute du Sambuc","postalCode":"1320013200","town":"ArlesArles","style":"Cuisine Moderne, Créative","etoile":3},
{"name":"Le Passe Temps","street":"52 Rue Tronchet52 Rue Tronchet","postalCode":"6900669006","town":"LyonLyon","style":"Cuisine Moderne, Créative; Gastronomique","etoile":3},
{"name":"La Table du 11","street":"8 rue de la chancellerie8 rue de la chancellerie","postalCode":"7800078000","town":"VersaillesVersailles","style":"Cuisine Moderne, Créative; Gastronomique","etoile":3},
{"name":"Le Champ des Lunes","street":"route de Roquefraîcheroute de Roquefraîche","postalCode":"8436084360","town":"LaurisLauris","style":"Cuisine Moderne, Créative; Gastronomique","etoile":3},
{"name":"Prairial","street":"11 Rue Chavanne11 Rue Chavanne","postalCode":"6900169001","town":"LyonLyon","style":"Cuisine Moderne, Créative; Gastronomique; Végétarien","etoile":3},
{"name":"Maison Christian Étienne","street":"10 Rue de Mons10 Rue de Mons","postalCode":"8400084000","town":"AvignonAvignon","style":"Cuisine Moderne, Créative; Gastronomique; Provençal; Traditionnel, Classique","etoile":3},
{"name":"Auberge de la Brie","street":"14 av. Alphonse Boulingre14 av. Alphonse Boulingre","postalCode":"7786077860","town":"Couilly-Pont-aux-DamesCouilly-Pont-aux-Dames","style":"Cuisine Moderne, Créative; Gastronomique","etoile":3},
{"name":"Buerehiesel","street":"dans le parc de l'Orangeriedans le parc de l'Orangerie","postalCode":"6700067000","town":"StrasbourgStrasbourg","style":"Cuisine Moderne, Créative; Gastronomique; Traditionnel, Classique","etoile":3},
{"name":"Serge Vieira","street":"Château du CouffourChâteau du Couffour","postalCode":"1511015110","town":"Chaudes-AiguesChaudes-Aigues","style":"Cuisine Moderne, Créative","etoile":3},
{"name":"La Table Saint-Crescent","street":"route de Perpignanroute de Perpignan","postalCode":"1110011100","town":"NarbonneNarbonne","style":"Cuisine Moderne, Créative","etoile":3},
{"name":"Les Climats","street":"41 rue de Lille41 rue de Lille","postalCode":"7500775007","town":"Paris 07Paris 07","style":"Cuisine Moderne, Créative","etoile":3},
{"name":"Le Kaïku","street":"17 r. de la République17 r. de la République","postalCode":"6450064500","town":"Saint-Jean-de-LuzSaint-Jean-de-Luz","style":"Cuisine Moderne, Créative; Traditionnel, Classique","etoile":3},
{"name":"Au 14 Février","street":"2 r. du Portail2 r. du Portail","postalCode":"3610036100","town":"Saint-ValentinSaint-Valentin","style":"Cuisine Moderne, Créative; Japonais","etoile":3},
{"name":"Py-r","street":"19 descente de la Halle-aux-Poissons19 descente de la Halle-aux-Poissons","postalCode":"3100031000","town":"ToulouseToulouse","style":"Cuisine Moderne, Créative","etoile":3},
{"name":"Les Trois Dômes","street":"20 quai Gailleton20 quai Gailleton","postalCode":"6900269002","town":"LyonLyon","style":"Cuisine Moderne, Créative","etoile":3},
{"name":"Le George","street":"31 Avenue George V31 Avenue George V","postalCode":"7500875008","town":"ParisParis","style":"Italien; Gastronomique; Cuisine Moderne, Créative; Traditionnel, Classique","etoile":3},
{"name":"Le Puits St-Jacques","street":"av. Victor-Capoulav. Victor-Capoul","postalCode":"3260032600","town":"PujaudranPujaudran","style":"Cuisine Moderne, Créative","etoile":3},
{"name":"L'Atelier de Joël Robuchon - Étoile","street":"133 av. des Champs-Élysées133 av. des Champs-Élysées","postalCode":"7500875008","town":"ParisParis","style":"Cuisine Moderne, Créative","etoile":3},
{"name":"L'Aquarelle","street":"71 A rte du Montil71 A rte du Montil","postalCode":"1792017920","town":"BreuilletBreuillet","style":"Cuisine Moderne, Créative","etoile":3},
{"name":"Avel Vor","street":"25 r. de Locmalo25 r. de Locmalo","postalCode":"5629056290","town":"Port-LouisPort-Louis","style":"Cuisine Moderne, Créative","etoile":3},
{"name":"La Tour","street":"31 Nouvelle-Place31 Nouvelle-Place","postalCode":"1830018300","town":"SancerreSancerre","style":"Cuisine Moderne, Créative","etoile":3},
{"name":"La Table des Blot - Auberge du Château","street":"1 Grande-Rue1 Grande-Rue","postalCode":"7872078720","town":"Dampierre-en-YvelinesDampierre-en-Yvelines","style":"Cuisine Moderne, Créative","etoile":3},
{"name":"La Petite Maison de Cucuron","street":"pl. de l'Étangpl. de l'Étang","postalCode":"8416084160","town":"CucuronCucuron","style":"Cuisine Moderne, Créative","etoile":3},
{"name":"La Promenade","street":"2 promenade Jean-Jaurès2 promenade Jean-Jaurès","postalCode":"3159031590","town":"VerfeilVerfeil","style":"Cuisine Moderne, Créative","etoile":3},
{"name":"Mariottat","street":"25 r. L.-Vivent25 r. L.-Vivent","postalCode":"4700047000","town":"AgenAgen","style":"Cuisine Moderne, Créative","etoile":3},
{"name":"Le Mas du Langoustier","street":"","postalCode":"8340083400","town":"HyèresHyères","style":"Cuisine Moderne, Créative","etoile":3},
{"name":"L'Atelier de Joël Robuchon - St-Germain","street":"5 r. de Montalembert5 r. de Montalembert","postalCode":"7500775007","town":"ParisParis","style":"Cuisine Moderne, Créative","etoile":3},
{"name":"Hostellerie de Levernois","street":"15 r. du Golf15 r. du Golf","postalCode":"2120021200","town":"LevernoisLevernois","style":"Cuisine Moderne, Créative; Gastronomique","etoile":3},
{"name":"Le Puits du Trésor","street":"21 rte des Quatre-Châteaux21 rte des Quatre-Châteaux","postalCode":"1160011600","town":"LastoursLastours","style":"Cuisine Moderne, Créative","etoile":3},
{"name":"Le Gambetta","street":"12 r. Gambetta12 r. Gambetta","postalCode":"4940049400","town":"SaumurSaumur","style":"Cuisine Moderne, Créative","etoile":3},
{"name":"Le Chiquito","street":"3 r. de l'Oise, La Bonneville3 r. de l'Oise, La Bonneville","postalCode":"9554095540","town":"Méry-sur-OiseMéry-sur-Oise","style":"Traditionnel, Classique","etoile":3},
{"name":"Le Cercle","street":"44 bd Lahitolle44 bd Lahitolle","postalCode":"1800018000","town":"BourgesBourges","style":"Cuisine Moderne, Créative","etoile":3},
{"name":"Cayola","street":"76 promenade de Cayola76 promenade de Cayola","postalCode":"8518085180","town":"Talmont-Saint-HilaireTalmont-Saint-Hilaire","style":"Cuisine Moderne, Créative","etoile":3},
{"name":"Au Souper Fin","street":"1 rte de Clères1 rte de Clères","postalCode":"7669076690","town":"FrichemesnilFrichemesnil","style":"Cuisine Moderne, Créative","etoile":3},
{"name":"Septime","street":"80 r. de Charonne80 r. de Charonne","postalCode":"7501175011","town":"ParisParis","style":"Cuisine Moderne, Créative","etoile":3},
{"name":"Meulien","street":"1 bis av. des Alpes1 bis av. des Alpes","postalCode":"7170071700","town":"TournusTournus","style":"Cuisine Moderne, Créative","etoile":3},
{"name":"Brikéténia","street":"142 r. de l'Église142 r. de l'Église","postalCode":"6421064210","town":"GuétharyGuéthary","style":"Cuisine Moderne, Créative; Traditionnel, Classique","etoile":3},
{"name":"La Coquerie","street":"1 chemin du Cimetière-Marin1 chemin du Cimetière-Marin","postalCode":"3420034200","town":"SèteSète","style":"Cuisine Moderne, Créative","etoile":3},
{"name":"Le Camélia","street":"7 quai Georges Clemenceau7 quai Georges Clemenceau","postalCode":"7838078380","town":"BougivalBougival","style":"Cuisine Moderne, Créative","etoile":3},
{"name":"La Table d'Eugène","street":"18 r. Eugène-Sue18 r. Eugène-Sue","postalCode":"7501875018","town":"ParisParis","style":"Cuisine Moderne, Créative","etoile":3},
{"name":"La Rastègue","street":"48 bd du Levant48 bd du Levant","postalCode":"8323083230","town":"Bormes-les-MimosasBormes-les-Mimosas","style":"Cuisine Moderne, Créative","etoile":3},
{"name":"Miraflores","street":"60 r. Garibaldi60 r. Garibaldi","postalCode":"6900669006","town":"LyonLyon","style":"Péruvien; Gastronomique; Cuisine Moderne, Créative","etoile":3},
{"name":"Auberge du Dun","street":"3 rte de Dieppe3 rte de Dieppe","postalCode":"7674076740","town":"Le Bourg-DunLe Bourg-Dun","style":"Traditionnel, Classique; Cuisine Moderne, Créative","etoile":3},
{"name":"La Marande","street":"lieu-dit Mirandelieu-dit Mirande","postalCode":"7126071260","town":"MontbelletMontbellet","style":"Cuisine Moderne, Créative","etoile":3},
{"name":"Auberge St-Jean","street":"8 r. du Pont8 r. du Pont","postalCode":"3342033420","town":"Saint-Jean-de-BlaignacSaint-Jean-de-Blaignac","style":"Cuisine Moderne, Créative; Traditionnel, Classique","etoile":3},
{"name":"Le Belvédère","street":"11 rte du Maquis-Jean-Pierre11 rte du Maquis-Jean-Pierre","postalCode":"1234012340","town":"BozoulsBozouls","style":"Cuisine Moderne, Créative","etoile":3},
{"name":"L'Atlantide 1874 - Maison Guého","street":"5 r. de l'Hermitage5 r. de l'Hermitage","postalCode":"4410044100","town":"NantesNantes","style":"Cuisine Moderne, Créative; Traditionnel, Classique","etoile":3},
{"name":"Le Moulin d'Alotz","street":"chemin Alotz-Errotachemin Alotz-Errota","postalCode":"6420064200","town":"AlotzAlotz","style":"Cuisine Moderne, Créative","etoile":3},
{"name":"Le Pily","street":"39 Grande-Rue39 Grande-Rue","postalCode":"5010050100","town":"Cherbourg-en-CotentinCherbourg-en-Cotentin","style":"Cuisine Moderne, Créative","etoile":3},
{"name":"Étincelles - La Gentilhommière","street":"","postalCode":"2444024440","town":"Sainte-SabineSainte-Sabine","style":"Cuisine Moderne, Créative; Poissons, Fruits de Mer; Cuisine Régionale Française","etoile":3},
{"name":"La Table des Cordeliers","street":"1 r. des Cordeliers1 r. des Cordeliers","postalCode":"3210032100","town":"CondomCondom","style":"Cuisine Moderne, Créative","etoile":3},
{"name":"Le Prieuré","street":"r. de la Mairier. de la Mairie","postalCode":"4282042820","town":"AmbierleAmbierle","style":"Cuisine Moderne, Créative","etoile":3},
{"name":"Au 14 Février","street":"36 r. du Bœuf36 r. du Bœuf","postalCode":"","town":"Lyon 05Lyon 05","style":"Cuisine Moderne, Créative","etoile":3},
{"name":"Jérémy Galvan","street":"Rue du BoeufRue du Boeuf","postalCode":"6900569005","town":"Lyon 05Lyon 05","style":"Cuisine Moderne, Créative; Gastronomique","etoile":3},
{"name":"Lou Cigalon-Maison Martin","street":"6 bd Carnot6 bd Carnot","postalCode":"0656006560","town":"ValbonneValbonne","style":"Cuisine Moderne, Créative; Gastronomique; Cuisine Régionale Française","etoile":3},
{"name":"Le Prieuré","street":"7 pl. du Chapitre7 pl. du Chapitre","postalCode":"3040030400","town":"Villeneuve-lès-AvignonVilleneuve-lès-Avignon","style":"Cuisine Moderne, Créative","etoile":3},
{"name":"Château Blanchard","street":"36 rte de St-Galmier36 rte de St-Galmier","postalCode":"4214042140","town":"Chazelles-sur-LyonChazelles-sur-Lyon","style":"Cuisine Moderne, Créative; Gastronomique","etoile":3},
{"name":"La Fourchette du Printemps","street":"30 r. du Printemps30 r. du Printemps","postalCode":"7501775017","town":"ParisParis","style":"Cuisine Moderne, Créative","etoile":3},
{"name":"Auberge Le Prieuré","street":"4 Grand'Rue4 Grand'Rue","postalCode":"4731047310","town":"MoiraxMoirax","style":"Cuisine Moderne, Créative","etoile":3},
{"name":"Haut Bonheur de la Table","street":"18 Grand-Place18 Grand-Place","postalCode":"5967059670","town":"CasselCassel","style":"Cuisine Moderne, Créative; Gastronomique","etoile":3},
{"name":"Le Moulin des Quatre Saisons","street":"r. Gallienir. Gallieni","postalCode":"7220072200","town":"La FlècheLa Flèche","style":"Cuisine Moderne, Créative","etoile":3},
{"name":"Val d'Auge","street":"805 av. du Gén.-de-Gaulle805 av. du Gén.-de-Gaulle","postalCode":"5991059910","town":"BonduesBondues","style":"Cuisine Moderne, Créative","etoile":3},
{"name":"Le Sérac","street":"22 r. de la Comtesse22 r. de la Comtesse","postalCode":"7417074170","town":"Saint-Gervais-les-BainsSaint-Gervais-les-Bains","style":"Cuisine Moderne, Créative","etoile":3},
{"name":"L'Orée de la Forêt","street":"255 r. de la Forêt255 r. de la Forêt","postalCode":"6060060600","town":"ÉtouyÉtouy","style":"Cuisine Moderne, Créative","etoile":3},
{"name":"Yam'Tcha","street":"121 r. St-Honoré121 r. St-Honoré","postalCode":"7500175001","town":"ParisParis","style":"Cuisine Moderne, Créative","etoile":3},
{"name":"Apicius","street":"20 r. d'Artois20 r. d'Artois","postalCode":"7500875008","town":"ParisParis","style":"Traditionnel, Classique; Cuisine Moderne, Créative","etoile":3},
{"name":"Les Pyrénées","street":"19 pl. Ch.-de-Gaulle19 pl. Ch.-de-Gaulle","postalCode":"6422064220","town":"Saint-Jean-Pied-de-PortSaint-Jean-Pied-de-Port","style":"Traditionnel, Classique","etoile":3},
{"name":"Gaya Rive Gauche par Pierre Gagnaire","street":"44 r. du Bac44 r. du Bac","postalCode":"7500775007","town":"ParisParis","style":"Poissons, Fruits de Mer; Gastronomique","etoile":3},
{"name":"Intuition","street":"1 r. Alsace-Lorraine1 r. Alsace-Lorraine","postalCode":"5000050000","town":"Saint-LôSaint-Lô","style":"Cuisine Moderne, Créative","etoile":3},
{"name":"Gavroche","street":"4 r. Klein4 r. Klein","postalCode":"6700067000","town":"StrasbourgStrasbourg","style":"Cuisine Moderne, Créative","etoile":3},
{"name":"St-James Paris","street":"43 av. Bugeaud43 av. Bugeaud","postalCode":"7511675116","town":"ParisParis","style":"Cuisine Moderne, Créative","etoile":3},
{"name":"Le Château de Sable","street":"38 r. de l'Europe38 r. de l'Europe","postalCode":"2984029840","town":"PorspoderPorspoder","style":"Cuisine Moderne, Créative","etoile":3},
{"name":"Laurent","street":"41 av. Gabriel41 av. Gabriel","postalCode":"7500875008","town":"ParisParis","style":"Traditionnel, Classique","etoile":3},
{"name":"Transparence \"La Table de Patrick Fréchin\"","street":"28 r. Stanislas28 r. Stanislas","postalCode":"5400054000","town":"NancyNancy","style":"Cuisine Moderne, Créative; Traditionnel, Classique; Végétarien; Végétalien","etoile":3},
{"name":"Allium","street":"88 bd de Créac'h-Gwen88 bd de Créac'h-Gwen","postalCode":"2900029000","town":"QuimperQuimper","style":"Cuisine Moderne, Créative","etoile":3},
{"name":"Le Pot d'Étain","street":"4 av. de la République4 av. de la République","postalCode":"9040090400","town":"DanjoutinDanjoutin","style":"Cuisine Moderne, Créative","etoile":3},
{"name":"Étude","street":"14 r. Bouquet-de-Longchamp14 r. Bouquet-de-Longchamp","postalCode":"7501675016","town":"ParisParis","style":"Cuisine Moderne, Créative; Traditionnel, Classique","etoile":3},
{"name":"L'Aromate","street":"2 r. Gustave Deloye2 r. Gustave Deloye","postalCode":"0600006000","town":"NiceNice","style":"Cuisine Moderne, Créative","etoile":3},
{"name":"Le St-Martin","street":"1 r. du Gén.-Leclerc1 r. du Gén.-Leclerc","postalCode":"2520025200","town":"MontbéliardMontbéliard","style":"Cuisine Moderne, Créative","etoile":3},
{"name":"Baumanière 1850","street":"rte de Bellecôterte de Bellecôte","postalCode":"7312073120","town":"Courchevel 1850Courchevel 1850","style":"Cuisine Moderne, Créative","etoile":3},
{"name":"La Vieille Tour","street":"75 r. de la Tour75 r. de la Tour","postalCode":"2219022190","town":"PlérinPlérin","style":"Cuisine Moderne, Créative","etoile":3},
{"name":"Azimut","street":"273 r. de la Madelon273 r. de la Madelon","postalCode":"7312073120","town":"Courchevel-Saint-BonCourchevel-Saint-Bon","style":"Cuisine Moderne, Créative","etoile":3},
{"name":"Le Grand Restaurant - Jean-François Piège","street":"7 r. d'Aguesseau7 r. d'Aguesseau","postalCode":"7500875008","town":"ParisParis","style":"Cuisine Moderne, Créative; Gastronomique","etoile":3},
{"name":"L'Émulsion","street":"57 rte de Lyon57 rte de Lyon","postalCode":"3808038080","town":"Saint-Alban-de-RocheSaint-Alban-de-Roche","style":"Cuisine Moderne, Créative; Gastronomique","etoile":3},
{"name":"Le Pousse-Pied","street":"84 bd des Vendéens84 bd des Vendéens","postalCode":"8536085360","town":"La Tranche-sur-MerLa Tranche-sur-Mer","style":"Cuisine Moderne, Créative; Poissons, Fruits de Mer; Bistrot","etoile":3},
{"name":"Auberge du Paradis","street":"Le Plâtre-DurandLe Plâtre-Durand","postalCode":"7157071570","town":"Saint-Amour-BellevueSaint-Amour-Bellevue","style":"Cuisine Moderne, Créative","etoile":3},
{"name":"Racine","street":"6 pl. Godinot6 pl. Godinot","postalCode":"5110051100","town":"ReimsReims","style":"Cuisine Moderne, Créative; Gastronomique","etoile":3},
{"name":"Le Marcq","street":"944 av. de la République944 av. de la République","postalCode":"5970059700","town":"Marcq-en-BarœulMarcq-en-Barœul","style":"Cuisine Moderne, Créative","etoile":3},
{"name":"Pèir","street":"r. de la Comber. de la Combe","postalCode":"8422084220","town":"GordesGordes","style":"Cuisine Moderne, Créative; Gastronomique","etoile":3},
{"name":"La Table by La Villa","street":"chemin de Notre-Dame-de-la-Serrachemin de Notre-Dame-de-la-Serra","postalCode":"2026020260","town":"CalviCalvi","style":"Cuisine Moderne, Créative","etoile":3},
{"name":"Le Chateaubriand","street":"129 av. Parmentier129 av. Parmentier","postalCode":"7501175011","town":"ParisParis","style":"Cuisine Moderne, Créative","etoile":3},
{"name":"Pierre Reboul","street":"260 r. Guillaume-du-Vair260 r. Guillaume-du-Vair","postalCode":"1354613546","town":"Aix-en-ProvenceAix-en-Provence","style":"Cuisine Moderne, Créative; Traditionnel, Classique","etoile":3},
{"name":"Le Skiff Club","street":"1 av. Louis-Gaume1 av. Louis-Gaume","postalCode":"3326033260","town":"La Teste-de-BuchLa Teste-de-Buch","style":"Cuisine Moderne, Créative","etoile":3},
{"name":"Le Grand Cap","street":"chemin du Pharechemin du Phare","postalCode":"1137011370","town":"LeucateLeucate","style":"Cuisine Moderne, Créative","etoile":3},
{"name":"Sushi B","street":"5 r. Rameau5 r. Rameau","postalCode":"7500275002","town":"ParisParis","style":"Japonais","etoile":3},
{"name":"La Merise","street":"7 r. d'Eschbach7 r. d'Eschbach","postalCode":"6758067580","town":"LaubachLaubach","style":"Cuisine Moderne, Créative","etoile":3},
{"name":"Montée","street":"9 r. Léopold-Robert9 r. Léopold-Robert","postalCode":"7501475014","town":"ParisParis","style":"Cuisine Moderne, Créative","etoile":3},
{"name":"Ima","street":"20 bd de la Tour-d'Auvergne20 bd de la Tour-d'Auvergne","postalCode":"3500035000","town":"RennesRennes","style":"Cuisine Moderne, Créative","etoile":3},
{"name":"La Table d'Hôtes - Le Quatrième Mur","street":"2 pl. de la Comédie2 pl. de la Comédie","postalCode":"3300033000","town":"BordeauxBordeaux","style":"Cuisine Moderne, Créative","etoile":3},
{"name":"Jean Sulpice","street":"303 rte du Port303 rte du Port","postalCode":"7429074290","town":"TalloiresTalloires","style":"Cuisine Moderne, Créative","etoile":3}]
